<?xml version="1.0" encoding="UTF-8"?>
<gpx version="1.1"
  creator="BC Backroads research map"
  xmlns="http://www.topografix.com/GPX/1/1"
  xmlns:xsi="http://www.w3.org/2001/XMLSchema-instance"
  xmlns:bcbr="https://konradstaniszewski.com/ns/bc-backroads/1"
  xsi:schemaLocation="http://www.topografix.com/GPX/1/1 http://www.topografix.com/GPX/1/1/gpx.xsd">
  <metadata>
    <name>VI-25 · Alberni Bam Bam research overlay</name>
    <desc>Road-research source containing trails, boat travel and private gates; not suitable for direct motorcycle use. Coarse corridor geometry; not a turn-by-turn track. Verify land access, closures, gates, weather and field signage.</desc>
    <time>2026-09-09T00:00:00Z</time>
  </metadata>
  <trk>
    <name>Alberni Bam Bam research overlay</name>
    <type>candidate</type>
    <extensions>
      <bcbr:routeId>VI-25</bcbr:routeId>
      <bcbr:geometryPolicy>link-only</bcbr:geometryPolicy>
      <bcbr:geometrySource>Coarse corridor overview</bcbr:geometrySource>
      <bcbr:pointCount>6</bcbr:pointCount>
    </extensions>
    <trkseg>
      <trkpt lat="49.17" lon="-123.94" />
      <trkpt lat="48.78" lon="-123.7" />
      <trkpt lat="48.55" lon="-124.42" />
      <trkpt lat="48.83" lon="-125.14" />
      <trkpt lat="49.23" lon="-124.81" />
      <trkpt lat="49.17" lon="-123.94" />
    </trkseg>
  </trk>
</gpx>
