<?xml version="1.0" encoding="UTF-8"?>
<gpx version="1.1"
  creator="BC Backroads research map"
  xmlns="http://www.topografix.com/GPX/1/1"
  xmlns:xsi="http://www.w3.org/2001/XMLSchema-instance"
  xmlns:bcbr="https://konradstaniszewski.com/ns/bc-backroads/1"
  xsi:schemaLocation="http://www.topografix.com/GPX/1/1 http://www.topografix.com/GPX/1/1/gpx.xsd">
  <metadata>
    <name>LM-15 · American Creek</name>
    <desc>Modern out-and-back near Hope; the harder historical 30 km loop is not treated as current. Coarse corridor geometry; not a turn-by-turn track. Verify land access, closures, gates, weather and field signage.</desc>
    <time>2026-09-09T00:00:00Z</time>
  </metadata>
  <trk>
    <name>American Creek</name>
    <type>spur</type>
    <extensions>
      <bcbr:routeId>LM-15</bcbr:routeId>
      <bcbr:geometryPolicy>overview</bcbr:geometryPolicy>
      <bcbr:geometrySource>Coarse corridor overview</bcbr:geometrySource>
      <bcbr:pointCount>3</bcbr:pointCount>
    </extensions>
    <trkseg>
      <trkpt lat="49.38" lon="-121.441" />
      <trkpt lat="49.43" lon="-121.38" />
      <trkpt lat="49.46" lon="-121.33" />
    </trkseg>
  </trk>
</gpx>
