<?xml version="1.0" encoding="UTF-8"?>
<gpx version="1.1"
  creator="BC Backroads research map"
  xmlns="http://www.topografix.com/GPX/1/1"
  xmlns:xsi="http://www.w3.org/2001/XMLSchema-instance"
  xmlns:bcbr="https://konradstaniszewski.com/ns/bc-backroads/1"
  xsi:schemaLocation="http://www.topografix.com/GPX/1/1 http://www.topografix.com/GPX/1/1/gpx.xsd">
  <metadata>
    <name>VI-05 · Bamfield Main</name>
    <desc>Rebuilt and chip-sealed Bamfield–Port Alberni connector that remains an active industrial road. Coarse corridor geometry; not a turn-by-turn track. Verify land access, closures, gates, weather and field signage.</desc>
    <time>2026-09-09T00:00:00Z</time>
  </metadata>
  <trk>
    <name>Bamfield Main</name>
    <type>primary</type>
    <extensions>
      <bcbr:routeId>VI-05</bcbr:routeId>
      <bcbr:geometryPolicy>overview</bcbr:geometryPolicy>
      <bcbr:geometrySource>Coarse corridor overview</bcbr:geometrySource>
      <bcbr:pointCount>4</bcbr:pointCount>
    </extensions>
    <trkseg>
      <trkpt lat="48.833" lon="-125.14" />
      <trkpt lat="49" lon="-124.98" />
      <trkpt lat="49.15" lon="-124.8" />
      <trkpt lat="49.234" lon="-124.806" />
    </trkseg>
  </trk>
</gpx>
