<?xml version="1.0" encoding="UTF-8"?>
<gpx version="1.1"
  creator="BC Backroads research map"
  xmlns="http://www.topografix.com/GPX/1/1"
  xmlns:xsi="http://www.w3.org/2001/XMLSchema-instance"
  xmlns:bcbr="https://konradstaniszewski.com/ns/bc-backroads/1"
  xsi:schemaLocation="http://www.topografix.com/GPX/1/1 http://www.topografix.com/GPX/1/1/gpx.xsd">
  <metadata>
    <name>RI-25 · Bear Creek OHV system</name>
    <desc>West Kelowna designated trail network whose published maps are old enough to require a current rules check. Coarse corridor geometry; not a turn-by-turn track. Verify land access, closures, gates, weather and field signage.</desc>
    <time>2026-09-09T00:00:00Z</time>
  </metadata>
  <trk>
    <name>Bear Creek OHV system</name>
    <type>trail-system</type>
    <extensions>
      <bcbr:routeId>RI-25</bcbr:routeId>
      <bcbr:geometryPolicy>overview</bcbr:geometryPolicy>
      <bcbr:geometrySource>Coarse corridor overview</bcbr:geometrySource>
      <bcbr:pointCount>4</bcbr:pointCount>
    </extensions>
    <trkseg>
      <trkpt lat="49.94" lon="-119.58" />
      <trkpt lat="49.99" lon="-119.64" />
      <trkpt lat="49.95" lon="-119.7" />
      <trkpt lat="49.94" lon="-119.58" />
    </trkseg>
  </trk>
</gpx>
