<?xml version="1.0" encoding="UTF-8"?>
<gpx version="1.1"
  creator="BC Backroads research map"
  xmlns="http://www.topografix.com/GPX/1/1"
  xmlns:xsi="http://www.w3.org/2001/XMLSchema-instance"
  xmlns:bcbr="https://konradstaniszewski.com/ns/bc-backroads/1"
  xsi:schemaLocation="http://www.topografix.com/GPX/1/1 http://www.topografix.com/GPX/1/1/gpx.xsd">
  <metadata>
    <name>RI-18 · Bull River–Hartley Pass–Fernie</name>
    <desc>Promising Galloway–Bull River–Sulphur Creek–Hartley Pass crossing whose exact motorized continuity still needs local verification. Coarse corridor geometry; not a turn-by-turn track. Verify land access, closures, gates, weather and field signage.</desc>
    <time>2026-09-09T00:00:00Z</time>
  </metadata>
  <trk>
    <name>Bull River–Hartley Pass–Fernie</name>
    <type>candidate</type>
    <extensions>
      <bcbr:routeId>RI-18</bcbr:routeId>
      <bcbr:geometryPolicy>link-only</bcbr:geometryPolicy>
      <bcbr:geometrySource>Coarse corridor overview</bcbr:geometrySource>
      <bcbr:pointCount>4</bcbr:pointCount>
    </extensions>
    <trkseg>
      <trkpt lat="49.47" lon="-115.47" />
      <trkpt lat="49.55" lon="-115.29" />
      <trkpt lat="49.58" lon="-115.08" />
      <trkpt lat="49.5" lon="-115.06" />
    </trkseg>
  </trk>
</gpx>
