<?xml version="1.0" encoding="UTF-8"?>
<gpx version="1.1"
  creator="BC Backroads research map"
  xmlns="http://www.topografix.com/GPX/1/1"
  xmlns:xsi="http://www.w3.org/2001/XMLSchema-instance"
  xmlns:bcbr="https://konradstaniszewski.com/ns/bc-backroads/1"
  xsi:schemaLocation="http://www.topografix.com/GPX/1/1 http://www.topografix.com/GPX/1/1/gpx.xsd">
  <metadata>
    <name>VI-19 · Cook Creek riding area</name>
    <desc>Forested Bowser-area trail system mixing fast flow and hard-enduro terrain. Coarse corridor geometry; not a turn-by-turn track. Verify land access, closures, gates, weather and field signage.</desc>
    <time>2026-09-09T00:00:00Z</time>
  </metadata>
  <trk>
    <name>Cook Creek riding area</name>
    <type>trail-system</type>
    <extensions>
      <bcbr:routeId>VI-19</bcbr:routeId>
      <bcbr:geometryPolicy>overview</bcbr:geometryPolicy>
      <bcbr:geometrySource>Coarse corridor overview</bcbr:geometrySource>
      <bcbr:pointCount>4</bcbr:pointCount>
    </extensions>
    <trkseg>
      <trkpt lat="49.44" lon="-124.68" />
      <trkpt lat="49.47" lon="-124.64" />
      <trkpt lat="49.44" lon="-124.6" />
      <trkpt lat="49.44" lon="-124.68" />
    </trkseg>
  </trk>
</gpx>
