<?xml version="1.0" encoding="UTF-8"?>
<gpx version="1.1"
  creator="BC Backroads research map"
  xmlns="http://www.topografix.com/GPX/1/1"
  xmlns:xsi="http://www.w3.org/2001/XMLSchema-instance"
  xmlns:bcbr="https://konradstaniszewski.com/ns/bc-backroads/1"
  xsi:schemaLocation="http://www.topografix.com/GPX/1/1 http://www.topografix.com/GPX/1/1/gpx.xsd">
  <metadata>
    <name>RI-11 · Douglas Lake Road</name>
    <desc>Useful Westwold–Douglas Lake–Merritt connector whose older condition evidence needs modern fire, flood and gate validation. Coarse corridor geometry; not a turn-by-turn track. Verify land access, closures, gates, weather and field signage.</desc>
    <time>2026-09-09T00:00:00Z</time>
  </metadata>
  <trk>
    <name>Douglas Lake Road</name>
    <type>candidate</type>
    <extensions>
      <bcbr:routeId>RI-11</bcbr:routeId>
      <bcbr:geometryPolicy>overview</bcbr:geometryPolicy>
      <bcbr:geometrySource>Coarse corridor overview</bcbr:geometrySource>
      <bcbr:pointCount>3</bcbr:pointCount>
    </extensions>
    <trkseg>
      <trkpt lat="50.47" lon="-119.75" />
      <trkpt lat="50.12" lon="-120.2" />
      <trkpt lat="50.11" lon="-120.79" />
    </trkseg>
  </trk>
</gpx>
