<?xml version="1.0" encoding="UTF-8"?>
<gpx version="1.1"
  creator="BC Backroads research map"
  xmlns="http://www.topografix.com/GPX/1/1"
  xmlns:xsi="http://www.w3.org/2001/XMLSchema-instance"
  xmlns:bcbr="https://konradstaniszewski.com/ns/bc-backroads/1"
  xsi:schemaLocation="http://www.topografix.com/GPX/1/1 http://www.topografix.com/GPX/1/1/gpx.xsd">
  <metadata>
    <name>RI-20 · Elk River / Elk Lakes trailhead</name>
    <desc>Elkford–Cadorna Creek access road; Elk Lakes Park and the old powerline crossing are closed to motorized use. Coarse corridor geometry; not a turn-by-turn track. Verify land access, closures, gates, weather and field signage.</desc>
    <time>2026-09-09T00:00:00Z</time>
  </metadata>
  <trk>
    <name>Elk River / Elk Lakes trailhead</name>
    <type>spur</type>
    <extensions>
      <bcbr:routeId>RI-20</bcbr:routeId>
      <bcbr:geometryPolicy>overview</bcbr:geometryPolicy>
      <bcbr:geometrySource>Coarse corridor overview</bcbr:geometrySource>
      <bcbr:pointCount>3</bcbr:pointCount>
    </extensions>
    <trkseg>
      <trkpt lat="50.02" lon="-114.92" />
      <trkpt lat="50.18" lon="-115.05" />
      <trkpt lat="50.35" lon="-115.17" />
    </trkseg>
  </trk>
</gpx>
