<?xml version="1.0" encoding="UTF-8"?>
<gpx version="1.1"
  creator="BC Backroads research map"
  xmlns="http://www.topografix.com/GPX/1/1"
  xmlns:xsi="http://www.w3.org/2001/XMLSchema-instance"
  xmlns:bcbr="https://konradstaniszewski.com/ns/bc-backroads/1"
  xsi:schemaLocation="http://www.topografix.com/GPX/1/1 http://www.topografix.com/GPX/1/1/gpx.xsd">
  <metadata>
    <name>RI-13 · EVADRS Elk Valley bundle</name>
    <desc>The strongest local motorcycle-specific route collection around Fernie, Elk Valley and Koocanusa. Coarse corridor geometry; not a turn-by-turn track. Verify land access, closures, gates, weather and field signage.</desc>
    <time>2026-09-09T00:00:00Z</time>
  </metadata>
  <trk>
    <name>EVADRS Elk Valley bundle</name>
    <type>primary</type>
    <extensions>
      <bcbr:routeId>RI-13</bcbr:routeId>
      <bcbr:geometryPolicy>link-only</bcbr:geometryPolicy>
      <bcbr:geometrySource>Coarse corridor overview</bcbr:geometrySource>
      <bcbr:pointCount>5</bcbr:pointCount>
    </extensions>
    <trkseg>
      <trkpt lat="49.5" lon="-115.06" />
      <trkpt lat="49.73" lon="-114.89" />
      <trkpt lat="50.02" lon="-114.92" />
      <trkpt lat="49.88" lon="-115.3" />
      <trkpt lat="49.5" lon="-115.06" />
    </trkseg>
  </trk>
</gpx>
