<?xml version="1.0" encoding="UTF-8"?>
<gpx version="1.1"
  creator="BC Backroads research map"
  xmlns="http://www.topografix.com/GPX/1/1"
  xmlns:xsi="http://www.w3.org/2001/XMLSchema-instance"
  xmlns:bcbr="https://konradstaniszewski.com/ns/bc-backroads/1"
  xsi:schemaLocation="http://www.topografix.com/GPX/1/1 http://www.topografix.com/GPX/1/1/gpx.xsd">
  <metadata>
    <name>LM-10 · Florence Lake / Stave West</name>
    <desc>Lower Mainland half-day out-and-back; the locked gate prevents the hoped-for Alouette connection. Coarse corridor geometry; not a turn-by-turn track. Verify land access, closures, gates, weather and field signage.</desc>
    <time>2026-09-09T00:00:00Z</time>
  </metadata>
  <trk>
    <name>Florence Lake / Stave West</name>
    <type>spur</type>
    <extensions>
      <bcbr:routeId>LM-10</bcbr:routeId>
      <bcbr:geometryPolicy>overview</bcbr:geometryPolicy>
      <bcbr:geometrySource>Coarse corridor overview</bcbr:geometrySource>
      <bcbr:pointCount>3</bcbr:pointCount>
    </extensions>
    <trkseg>
      <trkpt lat="49.212" lon="-122.313" />
      <trkpt lat="49.29" lon="-122.26" />
      <trkpt lat="49.356" lon="-122.231" />
    </trkseg>
  </trk>
</gpx>
