<?xml version="1.0" encoding="UTF-8"?>
<gpx version="1.1"
  creator="BC Backroads research map"
  xmlns="http://www.topografix.com/GPX/1/1"
  xmlns:xsi="http://www.w3.org/2001/XMLSchema-instance"
  xmlns:bcbr="https://konradstaniszewski.com/ns/bc-backroads/1"
  xsi:schemaLocation="http://www.topografix.com/GPX/1/1 http://www.topografix.com/GPX/1/1/gpx.xsd">
  <metadata>
    <name>RI-21 · Forestry Trunk Road</name>
    <desc>The closest long Canadian Rockies BDR analogue, running north from the Crowsnest area toward Grande Prairie. Coarse corridor geometry; not a turn-by-turn track. Verify land access, closures, gates, weather and field signage.</desc>
    <time>2026-09-09T00:00:00Z</time>
  </metadata>
  <trk>
    <name>Forestry Trunk Road</name>
    <type>primary</type>
    <extensions>
      <bcbr:routeId>RI-21</bcbr:routeId>
      <bcbr:geometryPolicy>link-only</bcbr:geometryPolicy>
      <bcbr:geometrySource>Coarse corridor overview</bcbr:geometrySource>
      <bcbr:pointCount>8</bcbr:pointCount>
    </extensions>
    <trkseg>
      <trkpt lat="49.63" lon="-114.5" />
      <trkpt lat="50.2" lon="-114.75" />
      <trkpt lat="50.8" lon="-115.2" />
      <trkpt lat="51.4" lon="-115.1" />
      <trkpt lat="52.3" lon="-116.1" />
      <trkpt lat="53" lon="-116.7" />
      <trkpt lat="54.1" lon="-117.3" />
      <trkpt lat="55.17" lon="-118.8" />
    </trkseg>
  </trk>
</gpx>
