<?xml version="1.0" encoding="UTF-8"?>
<gpx version="1.1"
  creator="BC Backroads research map"
  xmlns="http://www.topografix.com/GPX/1/1"
  xmlns:xsi="http://www.w3.org/2001/XMLSchema-instance"
  xmlns:bcbr="https://konradstaniszewski.com/ns/bc-backroads/1"
  xsi:schemaLocation="http://www.topografix.com/GPX/1/1 http://www.topografix.com/GPX/1/1/gpx.xsd">
  <metadata>
    <name>VI-06 · Gold River–Woss</name>
    <desc>Signature north-Island crossing with potholes, washboard, loose stone and sparse services. Road geometry derived from OpenStreetMap contributors under ODbL; route selection is an independently authored research overview. Verify land access, closures, gates, weather and field signage.</desc>
    <copyright author="OpenStreetMap contributors">
      <year>2026</year>
      <license>https://opendatacommons.org/licenses/odbl/1-0/</license>
    </copyright>
    <time>2026-09-09T00:00:00Z</time>
  </metadata>
  <trk>
    <name>Gold River–Woss</name>
    <type>primary</type>
    <extensions>
      <bcbr:routeId>VI-06</bcbr:routeId>
      <bcbr:geometryPolicy>link-only</bcbr:geometryPolicy>
      <bcbr:geometrySource>OpenStreetMap road routing</bcbr:geometrySource>
      <bcbr:geometryUpdatedAt>2026-09-09</bcbr:geometryUpdatedAt>
      <bcbr:pointCount>1372</bcbr:pointCount>
    </extensions>
    <trkseg>
      <trkpt lat="49.776586" lon="-126.052348" />
      <trkpt lat="49.776638" lon="-126.052066" />
      <trkpt lat="49.776695" lon="-126.051683" />
      <trkpt lat="49.776813" lon="-126.050993" />
      <trkpt lat="49.776948" lon="-126.050567" />
      <trkpt lat="49.77704" lon="-126.050419" />
      <trkpt lat="49.777072" lon="-126.050269" />
      <trkpt lat="49.777077" lon="-126.050177" />
      <trkpt lat="49.777058" lon="-126.050096" />
      <trkpt lat="49.776994" lon="-126.050065" />
      <trkpt lat="49.777135" lon="-126.049955" />
      <trkpt lat="49.777241" lon="-126.049901" />
      <trkpt lat="49.77733" lon="-126.049855" />
      <trkpt lat="49.777575" lon="-126.04973" />
      <trkpt lat="49.778295" lon="-126.049432" />
      <trkpt lat="49.779051" lon="-126.049158" />
      <trkpt lat="49.779377" lon="-126.049028" />
      <trkpt lat="49.779486" lon="-126.048985" />
      <trkpt lat="49.779772" lon="-126.048829" />
      <trkpt lat="49.780017" lon="-126.048642" />
      <trkpt lat="49.780609" lon="-126.048044" />
      <trkpt lat="49.781051" lon="-126.047569" />
      <trkpt lat="49.781297" lon="-126.047284" />
      <trkpt lat="49.781431" lon="-126.04717" />
      <trkpt lat="49.781676" lon="-126.046964" />
      <trkpt lat="49.78197" lon="-126.046842" />
      <trkpt lat="49.782048" lon="-126.04681" />
      <trkpt lat="49.782046" lon="-126.047407" />
      <trkpt lat="49.782092" lon="-126.047881" />
      <trkpt lat="49.782204" lon="-126.048363" />
      <trkpt lat="49.782307" lon="-126.048634" />
      <trkpt lat="49.782401" lon="-126.048884" />
      <trkpt lat="49.783131" lon="-126.05011" />
      <trkpt lat="49.783991" lon="-126.051637" />
      <trkpt lat="49.784044" lon="-126.051746" />
      <trkpt lat="49.78423" lon="-126.052101" />
      <trkpt lat="49.784598" lon="-126.052801" />
      <trkpt lat="49.785055" lon="-126.053847" />
      <trkpt lat="49.786337" lon="-126.055286" />
      <trkpt lat="49.786669" lon="-126.055704" />
      <trkpt lat="49.787178" lon="-126.056361" />
      <trkpt lat="49.787232" lon="-126.056484" />
      <trkpt lat="49.787501" lon="-126.057094" />
      <trkpt lat="49.78782" lon="-126.058302" />
      <trkpt lat="49.788004" lon="-126.058789" />
      <trkpt lat="49.788113" lon="-126.058974" />
      <trkpt lat="49.788291" lon="-126.059275" />
      <trkpt lat="49.78843" lon="-126.059618" />
      <trkpt lat="49.788772" lon="-126.060796" />
      <trkpt lat="49.788861" lon="-126.061934" />
      <trkpt lat="49.788972" lon="-126.062171" />
      <trkpt lat="49.789125" lon="-126.062401" />
      <trkpt lat="49.789224" lon="-126.062647" />
      <trkpt lat="49.790025" lon="-126.063411" />
      <trkpt lat="49.790914" lon="-126.064241" />
      <trkpt lat="49.791308" lon="-126.064612" />
      <trkpt lat="49.791681" lon="-126.064834" />
      <trkpt lat="49.792239" lon="-126.065303" />
      <trkpt lat="49.792338" lon="-126.065389" />
      <trkpt lat="49.792946" lon="-126.065738" />
      <trkpt lat="49.79338" lon="-126.066028" />
      <trkpt lat="49.794487" lon="-126.067162" />
      <trkpt lat="49.795162" lon="-126.067665" />
      <trkpt lat="49.79535" lon="-126.067734" />
      <trkpt lat="49.795526" lon="-126.067768" />
      <trkpt lat="49.796163" lon="-126.067667" />
      <trkpt lat="49.796859" lon="-126.067479" />
      <trkpt lat="49.79719" lon="-126.067529" />
      <trkpt lat="49.798496" lon="-126.06808" />
      <trkpt lat="49.798821" lon="-126.068219" />
      <trkpt lat="49.79916" lon="-126.068177" />
      <trkpt lat="49.79958" lon="-126.067927" />
      <trkpt lat="49.799638" lon="-126.068026" />
      <trkpt lat="49.799692" lon="-126.068154" />
      <trkpt lat="49.799845" lon="-126.068514" />
      <trkpt lat="49.799899" lon="-126.068639" />
      <trkpt lat="49.799946" lon="-126.068813" />
      <trkpt lat="49.799972" lon="-126.069048" />
      <trkpt lat="49.799981" lon="-126.069333" />
      <trkpt lat="49.799926" lon="-126.069762" />
      <trkpt lat="49.799911" lon="-126.069875" />
      <trkpt lat="49.799999" lon="-126.069893" />
      <trkpt lat="49.800292" lon="-126.06993" />
      <trkpt lat="49.801127" lon="-126.069722" />
      <trkpt lat="49.801391" lon="-126.069746" />
      <trkpt lat="49.801716" lon="-126.069902" />
      <trkpt lat="49.802227" lon="-126.070295" />
      <trkpt lat="49.802965" lon="-126.071154" />
      <trkpt lat="49.803585" lon="-126.072495" />
      <trkpt lat="49.803635" lon="-126.072541" />
      <trkpt lat="49.803848" lon="-126.072733" />
      <trkpt lat="49.804529" lon="-126.073008" />
      <trkpt lat="49.804815" lon="-126.073262" />
      <trkpt lat="49.805524" lon="-126.07428" />
      <trkpt lat="49.805735" lon="-126.07467" />
      <trkpt lat="49.805867" lon="-126.074913" />
      <trkpt lat="49.805957" lon="-126.07508" />
      <trkpt lat="49.806113" lon="-126.075502" />
      <trkpt lat="49.806145" lon="-126.075847" />
      <trkpt lat="49.805976" lon="-126.076775" />
      <trkpt lat="49.80592" lon="-126.077086" />
      <trkpt lat="49.805833" lon="-126.077631" />
      <trkpt lat="49.805846" lon="-126.077969" />
      <trkpt lat="49.805885" lon="-126.078163" />
      <trkpt lat="49.805905" lon="-126.078258" />
      <trkpt lat="49.805998" lon="-126.078466" />
      <trkpt lat="49.806068" lon="-126.078577" />
      <trkpt lat="49.806172" lon="-126.07874" />
      <trkpt lat="49.806246" lon="-126.078818" />
      <trkpt lat="49.806517" lon="-126.079039" />
      <trkpt lat="49.807171" lon="-126.079512" />
      <trkpt lat="49.807878" lon="-126.079905" />
      <trkpt lat="49.808465" lon="-126.080319" />
      <trkpt lat="49.808759" lon="-126.080454" />
      <trkpt lat="49.808957" lon="-126.080546" />
      <trkpt lat="49.810035" lon="-126.080883" />
      <trkpt lat="49.810355" lon="-126.080879" />
      <trkpt lat="49.810671" lon="-126.080828" />
      <trkpt lat="49.811317" lon="-126.080724" />
      <trkpt lat="49.811677" lon="-126.080753" />
      <trkpt lat="49.81257" lon="-126.080948" />
      <trkpt lat="49.813173" lon="-126.080936" />
      <trkpt lat="49.813377" lon="-126.080931" />
      <trkpt lat="49.814724" lon="-126.081027" />
      <trkpt lat="49.815553" lon="-126.081085" />
      <trkpt lat="49.816151" lon="-126.0812" />
      <trkpt lat="49.816553" lon="-126.081414" />
      <trkpt lat="49.818142" lon="-126.082565" />
      <trkpt lat="49.818977" lon="-126.083039" />
      <trkpt lat="49.819404" lon="-126.083114" />
      <trkpt lat="49.81985" lon="-126.082996" />
      <trkpt lat="49.820744" lon="-126.082412" />
      <trkpt lat="49.821024" lon="-126.082294" />
      <trkpt lat="49.821116" lon="-126.08229" />
      <trkpt lat="49.821288" lon="-126.082283" />
      <trkpt lat="49.822669" lon="-126.082582" />
      <trkpt lat="49.82291" lon="-126.082688" />
      <trkpt lat="49.823025" lon="-126.082738" />
      <trkpt lat="49.823514" lon="-126.082954" />
      <trkpt lat="49.823738" lon="-126.083138" />
      <trkpt lat="49.823919" lon="-126.083393" />
      <trkpt lat="49.824202" lon="-126.083992" />
      <trkpt lat="49.824371" lon="-126.084186" />
      <trkpt lat="49.824564" lon="-126.084257" />
      <trkpt lat="49.824957" lon="-126.084319" />
      <trkpt lat="49.825204" lon="-126.084462" />
      <trkpt lat="49.825804" lon="-126.085015" />
      <trkpt lat="49.826067" lon="-126.08519" />
      <trkpt lat="49.826844" lon="-126.085423" />
      <trkpt lat="49.8269" lon="-126.085526" />
      <trkpt lat="49.827031" lon="-126.085829" />
      <trkpt lat="49.827393" lon="-126.087015" />
      <trkpt lat="49.827465" lon="-126.087724" />
      <trkpt lat="49.827692" lon="-126.088225" />
      <trkpt lat="49.827791" lon="-126.088474" />
      <trkpt lat="49.828032" lon="-126.089079" />
      <trkpt lat="49.828199" lon="-126.089845" />
      <trkpt lat="49.828297" lon="-126.090068" />
      <trkpt lat="49.828331" lon="-126.090147" />
      <trkpt lat="49.828777" lon="-126.090478" />
      <trkpt lat="49.82887" lon="-126.090679" />
      <trkpt lat="49.82907" lon="-126.091978" />
      <trkpt lat="49.829194" lon="-126.092468" />
      <trkpt lat="49.829375" lon="-126.09318" />
      <trkpt lat="49.829761" lon="-126.09351" />
      <trkpt lat="49.830239" lon="-126.093628" />
      <trkpt lat="49.830551" lon="-126.093834" />
      <trkpt lat="49.831119" lon="-126.094725" />
      <trkpt lat="49.831801" lon="-126.096078" />
      <trkpt lat="49.832073" lon="-126.096482" />
      <trkpt lat="49.832578" lon="-126.096922" />
      <trkpt lat="49.833102" lon="-126.097312" />
      <trkpt lat="49.834405" lon="-126.098102" />
      <trkpt lat="49.835243" lon="-126.098447" />
      <trkpt lat="49.835637" lon="-126.098553" />
      <trkpt lat="49.836031" lon="-126.098615" />
      <trkpt lat="49.836772" lon="-126.09848" />
      <trkpt lat="49.837574" lon="-126.098199" />
      <trkpt lat="49.838343" lon="-126.098029" />
      <trkpt lat="49.839533" lon="-126.097857" />
      <trkpt lat="49.840446" lon="-126.097845" />
      <trkpt lat="49.840942" lon="-126.098063" />
      <trkpt lat="49.841733" lon="-126.098478" />
      <trkpt lat="49.842467" lon="-126.098941" />
      <trkpt lat="49.842902" lon="-126.099283" />
      <trkpt lat="49.84347" lon="-126.09967" />
      <trkpt lat="49.843802" lon="-126.099948" />
      <trkpt lat="49.844017" lon="-126.100352" />
      <trkpt lat="49.8443" lon="-126.101343" />
      <trkpt lat="49.844353" lon="-126.101507" />
      <trkpt lat="49.844905" lon="-126.1019" />
      <trkpt lat="49.845292" lon="-126.1019" />
      <trkpt lat="49.845418" lon="-126.101761" />
      <trkpt lat="49.845656" lon="-126.101408" />
      <trkpt lat="49.845913" lon="-126.101041" />
      <trkpt lat="49.846052" lon="-126.100827" />
      <trkpt lat="49.846151" lon="-126.100609" />
      <trkpt lat="49.846393" lon="-126.100264" />
      <trkpt lat="49.846644" lon="-126.100179" />
      <trkpt lat="49.846923" lon="-126.100266" />
      <trkpt lat="49.847109" lon="-126.100366" />
      <trkpt lat="49.847255" lon="-126.100534" />
      <trkpt lat="49.847497" lon="-126.100883" />
      <trkpt lat="49.847712" lon="-126.101208" />
      <trkpt lat="49.847954" lon="-126.101733" />
      <trkpt lat="49.848289" lon="-126.102322" />
      <trkpt lat="49.848545" lon="-126.10286" />
      <trkpt lat="49.848825" lon="-126.103436" />
      <trkpt lat="49.849147" lon="-126.104434" />
      <trkpt lat="49.849188" lon="-126.105464" />
      <trkpt lat="49.849173" lon="-126.106794" />
      <trkpt lat="49.849178" lon="-126.108156" />
      <trkpt lat="49.849043" lon="-126.109428" />
      <trkpt lat="49.848882" lon="-126.110385" />
      <trkpt lat="49.848846" lon="-126.110668" />
      <trkpt lat="49.848841" lon="-126.111177" />
      <trkpt lat="49.848985" lon="-126.111661" />
      <trkpt lat="49.849127" lon="-126.111876" />
      <trkpt lat="49.849268" lon="-126.111963" />
      <trkpt lat="49.849467" lon="-126.11197" />
      <trkpt lat="49.849701" lon="-126.111828" />
      <trkpt lat="49.850111" lon="-126.111503" />
      <trkpt lat="49.85059" lon="-126.111335" />
      <trkpt lat="49.851059" lon="-126.111245" />
      <trkpt lat="49.851811" lon="-126.110788" />
      <trkpt lat="49.852284" lon="-126.110693" />
      <trkpt lat="49.852532" lon="-126.110752" />
      <trkpt lat="49.853118" lon="-126.110984" />
      <trkpt lat="49.85485" lon="-126.111284" />
      <trkpt lat="49.855971" lon="-126.111782" />
      <trkpt lat="49.856663" lon="-126.112107" />
      <trkpt lat="49.857333" lon="-126.112517" />
      <trkpt lat="49.858315" lon="-126.113214" />
      <trkpt lat="49.859366" lon="-126.114084" />
      <trkpt lat="49.860016" lon="-126.11426" />
      <trkpt lat="49.860634" lon="-126.114362" />
      <trkpt lat="49.860756" lon="-126.114394" />
      <trkpt lat="49.860886" lon="-126.114523" />
      <trkpt lat="49.861081" lon="-126.115114" />
      <trkpt lat="49.861626" lon="-126.116764" />
      <trkpt lat="49.862663" lon="-126.119403" />
      <trkpt lat="49.86288" lon="-126.119539" />
      <trkpt lat="49.863163" lon="-126.119517" />
      <trkpt lat="49.863938" lon="-126.119345" />
      <trkpt lat="49.864179" lon="-126.119455" />
      <trkpt lat="49.864531" lon="-126.119811" />
      <trkpt lat="49.865554" lon="-126.121613" />
      <trkpt lat="49.866172" lon="-126.122704" />
      <trkpt lat="49.866695" lon="-126.123158" />
      <trkpt lat="49.867114" lon="-126.124735" />
      <trkpt lat="49.86783" lon="-126.128081" />
      <trkpt lat="49.868282" lon="-126.129143" />
      <trkpt lat="49.868219" lon="-126.129508" />
      <trkpt lat="49.868019" lon="-126.130688" />
      <trkpt lat="49.867908" lon="-126.131288" />
      <trkpt lat="49.867728" lon="-126.131963" />
      <trkpt lat="49.867715" lon="-126.132608" />
      <trkpt lat="49.86779" lon="-126.133497" />
      <trkpt lat="49.867698" lon="-126.134563" />
      <trkpt lat="49.867499" lon="-126.136233" />
      <trkpt lat="49.867458" lon="-126.137048" />
      <trkpt lat="49.867555" lon="-126.138133" />
      <trkpt lat="49.867811" lon="-126.139185" />
      <trkpt lat="49.867687" lon="-126.139721" />
      <trkpt lat="49.867347" lon="-126.140589" />
      <trkpt lat="49.867085" lon="-126.141384" />
      <trkpt lat="49.86703" lon="-126.143444" />
      <trkpt lat="49.86714" lon="-126.144784" />
      <trkpt lat="49.867041" lon="-126.146365" />
      <trkpt lat="49.867341" lon="-126.148326" />
      <trkpt lat="49.868482" lon="-126.152628" />
      <trkpt lat="49.868958" lon="-126.154536" />
      <trkpt lat="49.869385" lon="-126.155935" />
      <trkpt lat="49.869657" lon="-126.156939" />
      <trkpt lat="49.8701" lon="-126.157907" />
      <trkpt lat="49.870512" lon="-126.158274" />
      <trkpt lat="49.870936" lon="-126.158559" />
      <trkpt lat="49.871462" lon="-126.158819" />
      <trkpt lat="49.872144" lon="-126.158724" />
      <trkpt lat="49.872437" lon="-126.159021" />
      <trkpt lat="49.872632" lon="-126.159418" />
      <trkpt lat="49.87291" lon="-126.160034" />
      <trkpt lat="49.873437" lon="-126.160494" />
      <trkpt lat="49.874007" lon="-126.161115" />
      <trkpt lat="49.874657" lon="-126.162449" />
      <trkpt lat="49.874871" lon="-126.163312" />
      <trkpt lat="49.874962" lon="-126.16419" />
      <trkpt lat="49.875483" lon="-126.166227" />
      <trkpt lat="49.875562" lon="-126.166418" />
      <trkpt lat="49.875657" lon="-126.166492" />
      <trkpt lat="49.87716" lon="-126.166865" />
      <trkpt lat="49.877571" lon="-126.167361" />
      <trkpt lat="49.878066" lon="-126.168099" />
      <trkpt lat="49.87872" lon="-126.168284" />
      <trkpt lat="49.879428" lon="-126.168732" />
      <trkpt lat="49.879814" lon="-126.169127" />
      <trkpt lat="49.88014" lon="-126.169247" />
      <trkpt lat="49.880775" lon="-126.169256" />
      <trkpt lat="49.881402" lon="-126.16912" />
      <trkpt lat="49.882137" lon="-126.169159" />
      <trkpt lat="49.882826" lon="-126.169485" />
      <trkpt lat="49.883631" lon="-126.170277" />
      <trkpt lat="49.883962" lon="-126.170576" />
      <trkpt lat="49.88435" lon="-126.170685" />
      <trkpt lat="49.88519" lon="-126.170451" />
      <trkpt lat="49.88555" lon="-126.170138" />
      <trkpt lat="49.886016" lon="-126.169816" />
      <trkpt lat="49.886381" lon="-126.169707" />
      <trkpt lat="49.887167" lon="-126.16955" />
      <trkpt lat="49.887833" lon="-126.169288" />
      <trkpt lat="49.888331" lon="-126.168891" />
      <trkpt lat="49.88865" lon="-126.16885" />
      <trkpt lat="49.888967" lon="-126.169095" />
      <trkpt lat="49.88941" lon="-126.169687" />
      <trkpt lat="49.890257" lon="-126.170848" />
      <trkpt lat="49.89176" lon="-126.171715" />
      <trkpt lat="49.891839" lon="-126.171762" />
      <trkpt lat="49.89317" lon="-126.172712" />
      <trkpt lat="49.895243" lon="-126.173775" />
      <trkpt lat="49.895581" lon="-126.17403" />
      <trkpt lat="49.895997" lon="-126.174644" />
      <trkpt lat="49.896439" lon="-126.174833" />
      <trkpt lat="49.898171" lon="-126.175574" />
      <trkpt lat="49.899154" lon="-126.175988" />
      <trkpt lat="49.900033" lon="-126.176065" />
      <trkpt lat="49.900945" lon="-126.176373" />
      <trkpt lat="49.901409" lon="-126.176517" />
      <trkpt lat="49.901533" lon="-126.176589" />
      <trkpt lat="49.90183" lon="-126.176795" />
      <trkpt lat="49.902483" lon="-126.17746" />
      <trkpt lat="49.90306" lon="-126.17797" />
      <trkpt lat="49.903612" lon="-126.178633" />
      <trkpt lat="49.904117" lon="-126.179407" />
      <trkpt lat="49.904901" lon="-126.180735" />
      <trkpt lat="49.905127" lon="-126.181011" />
      <trkpt lat="49.90534" lon="-126.181348" />
      <trkpt lat="49.905567" lon="-126.18177" />
      <trkpt lat="49.906291" lon="-126.182682" />
      <trkpt lat="49.906845" lon="-126.183268" />
      <trkpt lat="49.907528" lon="-126.18384" />
      <trkpt lat="49.908435" lon="-126.18504" />
      <trkpt lat="49.909202" lon="-126.185147" />
      <trkpt lat="49.909669" lon="-126.185171" />
      <trkpt lat="49.909955" lon="-126.185392" />
      <trkpt lat="49.910197" lon="-126.186263" />
      <trkpt lat="49.910471" lon="-126.187038" />
      <trkpt lat="49.911333" lon="-126.188055" />
      <trkpt lat="49.912077" lon="-126.188924" />
      <trkpt lat="49.913163" lon="-126.190245" />
      <trkpt lat="49.91379" lon="-126.191155" />
      <trkpt lat="49.914162" lon="-126.191626" />
      <trkpt lat="49.914404" lon="-126.192054" />
      <trkpt lat="49.914591" lon="-126.192258" />
      <trkpt lat="49.915185" lon="-126.192805" />
      <trkpt lat="49.915802" lon="-126.19359" />
      <trkpt lat="49.916449" lon="-126.194393" />
      <trkpt lat="49.916877" lon="-126.195177" />
      <trkpt lat="49.917264" lon="-126.196206" />
      <trkpt lat="49.91734" lon="-126.197183" />
      <trkpt lat="49.917554" lon="-126.198063" />
      <trkpt lat="49.917975" lon="-126.198857" />
      <trkpt lat="49.918328" lon="-126.199586" />
      <trkpt lat="49.918956" lon="-126.200707" />
      <trkpt lat="49.91944" lon="-126.201362" />
      <trkpt lat="49.919905" lon="-126.201868" />
      <trkpt lat="49.920801" lon="-126.202993" />
      <trkpt lat="49.921108" lon="-126.20355" />
      <trkpt lat="49.921616" lon="-126.20465" />
      <trkpt lat="49.922452" lon="-126.206377" />
      <trkpt lat="49.923067" lon="-126.207697" />
      <trkpt lat="49.923391" lon="-126.208663" />
      <trkpt lat="49.923826" lon="-126.210057" />
      <trkpt lat="49.923978" lon="-126.210712" />
      <trkpt lat="49.924676" lon="-126.211774" />
      <trkpt lat="49.925284" lon="-126.212514" />
      <trkpt lat="49.925822" lon="-126.212965" />
      <trkpt lat="49.926415" lon="-126.213168" />
      <trkpt lat="49.926637" lon="-126.213351" />
      <trkpt lat="49.927007" lon="-126.213475" />
      <trkpt lat="49.928661" lon="-126.214124" />
      <trkpt lat="49.929545" lon="-126.214446" />
      <trkpt lat="49.930339" lon="-126.214746" />
      <trkpt lat="49.930788" lon="-126.215132" />
      <trkpt lat="49.931323" lon="-126.215563" />
      <trkpt lat="49.932563" lon="-126.21686" />
      <trkpt lat="49.933263" lon="-126.217398" />
      <trkpt lat="49.934083" lon="-126.217879" />
      <trkpt lat="49.934442" lon="-126.218211" />
      <trkpt lat="49.935293" lon="-126.218846" />
      <trkpt lat="49.935761" lon="-126.219177" />
      <trkpt lat="49.936113" lon="-126.219531" />
      <trkpt lat="49.93713" lon="-126.220176" />
      <trkpt lat="49.937853" lon="-126.220486" />
      <trkpt lat="49.938551" lon="-126.220808" />
      <trkpt lat="49.938999" lon="-126.221108" />
      <trkpt lat="49.939414" lon="-126.221699" />
      <trkpt lat="49.939545" lon="-126.222009" />
      <trkpt lat="49.939628" lon="-126.222364" />
      <trkpt lat="49.939745" lon="-126.223426" />
      <trkpt lat="49.940028" lon="-126.225754" />
      <trkpt lat="49.940346" lon="-126.227846" />
      <trkpt lat="49.940429" lon="-126.228232" />
      <trkpt lat="49.940532" lon="-126.228586" />
      <trkpt lat="49.940822" lon="-126.229133" />
      <trkpt lat="49.941092" lon="-126.229509" />
      <trkpt lat="49.941319" lon="-126.229765" />
      <trkpt lat="49.94196" lon="-126.229973" />
      <trkpt lat="49.942113" lon="-126.230043" />
      <trkpt lat="49.943694" lon="-126.230786" />
      <trkpt lat="49.944012" lon="-126.231" />
      <trkpt lat="49.944281" lon="-126.231386" />
      <trkpt lat="49.944785" lon="-126.232234" />
      <trkpt lat="49.945124" lon="-126.23306" />
      <trkpt lat="49.945628" lon="-126.233747" />
      <trkpt lat="49.946044" lon="-126.233952" />
      <trkpt lat="49.946518" lon="-126.234047" />
      <trkpt lat="49.947002" lon="-126.23409" />
      <trkpt lat="49.947519" lon="-126.234326" />
      <trkpt lat="49.947947" lon="-126.234916" />
      <trkpt lat="49.948175" lon="-126.235399" />
      <trkpt lat="49.948265" lon="-126.235871" />
      <trkpt lat="49.948251" lon="-126.236289" />
      <trkpt lat="49.94812" lon="-126.237094" />
      <trkpt lat="49.948168" lon="-126.237974" />
      <trkpt lat="49.948334" lon="-126.238682" />
      <trkpt lat="49.949024" lon="-126.240023" />
      <trkpt lat="49.949411" lon="-126.240774" />
      <trkpt lat="49.949798" lon="-126.241472" />
      <trkpt lat="49.949956" lon="-126.241836" />
      <trkpt lat="49.950124" lon="-126.242803" />
      <trkpt lat="49.950232" lon="-126.243982" />
      <trkpt lat="49.950398" lon="-126.244969" />
      <trkpt lat="49.950598" lon="-126.24557" />
      <trkpt lat="49.951008" lon="-126.24614" />
      <trkpt lat="49.951296" lon="-126.246386" />
      <trkpt lat="49.951744" lon="-126.246643" />
      <trkpt lat="49.95209" lon="-126.246793" />
      <trkpt lat="49.952375" lon="-126.246816" />
      <trkpt lat="49.953265" lon="-126.246816" />
      <trkpt lat="49.95356" lon="-126.246932" />
      <trkpt lat="49.953809" lon="-126.247104" />
      <trkpt lat="49.954091" lon="-126.247501" />
      <trkpt lat="49.954644" lon="-126.248295" />
      <trkpt lat="49.954872" lon="-126.248488" />
      <trkpt lat="49.955079" lon="-126.248617" />
      <trkpt lat="49.955465" lon="-126.248735" />
      <trkpt lat="49.956183" lon="-126.248842" />
      <trkpt lat="49.956814" lon="-126.249423" />
      <trkpt lat="49.957529" lon="-126.250119" />
      <trkpt lat="49.957987" lon="-126.250239" />
      <trkpt lat="49.958199" lon="-126.250162" />
      <trkpt lat="49.958661" lon="-126.249808" />
      <trkpt lat="49.959179" lon="-126.249475" />
      <trkpt lat="49.959876" lon="-126.249197" />
      <trkpt lat="49.960338" lon="-126.249132" />
      <trkpt lat="49.960877" lon="-126.249239" />
      <trkpt lat="49.961657" lon="-126.249443" />
      <trkpt lat="49.962264" lon="-126.249636" />
      <trkpt lat="49.963039" lon="-126.250142" />
      <trkpt lat="49.963761" lon="-126.250913" />
      <trkpt lat="49.964597" lon="-126.252265" />
      <trkpt lat="49.965176" lon="-126.253509" />
      <trkpt lat="49.965859" lon="-126.255215" />
      <trkpt lat="49.966067" lon="-126.255741" />
      <trkpt lat="49.966281" lon="-126.256149" />
      <trkpt lat="49.966591" lon="-126.256556" />
      <trkpt lat="49.966787" lon="-126.25674" />
      <trkpt lat="49.967981" lon="-126.257523" />
      <trkpt lat="49.96822" lon="-126.257554" />
      <trkpt lat="49.968634" lon="-126.257393" />
      <trkpt lat="49.969068" lon="-126.257155" />
      <trkpt lat="49.969489" lon="-126.256985" />
      <trkpt lat="49.969779" lon="-126.25706" />
      <trkpt lat="49.970282" lon="-126.257573" />
      <trkpt lat="49.970759" lon="-126.25808" />
      <trkpt lat="49.971815" lon="-126.259244" />
      <trkpt lat="49.972188" lon="-126.259701" />
      <trkpt lat="49.972577" lon="-126.259871" />
      <trkpt lat="49.972878" lon="-126.259989" />
      <trkpt lat="49.973053" lon="-126.260056" />
      <trkpt lat="49.973275" lon="-126.260156" />
      <trkpt lat="49.97365" lon="-126.260333" />
      <trkpt lat="49.974057" lon="-126.260671" />
      <trkpt lat="49.975834" lon="-126.262564" />
      <trkpt lat="49.975989" lon="-126.26309" />
      <trkpt lat="49.975799" lon="-126.263725" />
      <trkpt lat="49.975534" lon="-126.264141" />
      <trkpt lat="49.975286" lon="-126.26471" />
      <trkpt lat="49.975161" lon="-126.265104" />
      <trkpt lat="49.975094" lon="-126.265542" />
      <trkpt lat="49.975063" lon="-126.265821" />
      <trkpt lat="49.975058" lon="-126.266003" />
      <trkpt lat="49.975076" lon="-126.266211" />
      <trkpt lat="49.975194" lon="-126.266507" />
      <trkpt lat="49.975548" lon="-126.267049" />
      <trkpt lat="49.976583" lon="-126.268755" />
      <trkpt lat="49.977265" lon="-126.269997" />
      <trkpt lat="49.977766" lon="-126.27097" />
      <trkpt lat="49.978249" lon="-126.272027" />
      <trkpt lat="49.978476" lon="-126.27264" />
      <trkpt lat="49.978345" lon="-126.273949" />
      <trkpt lat="49.977721" lon="-126.277069" />
      <trkpt lat="49.977227" lon="-126.277533" />
      <trkpt lat="49.976493" lon="-126.278271" />
      <trkpt lat="49.976272" lon="-126.278936" />
      <trkpt lat="49.976162" lon="-126.280202" />
      <trkpt lat="49.976313" lon="-126.281296" />
      <trkpt lat="49.976372" lon="-126.28223" />
      <trkpt lat="49.976414" lon="-126.282657" />
      <trkpt lat="49.976432" lon="-126.283045" />
      <trkpt lat="49.97652" lon="-126.284515" />
      <trkpt lat="49.976921" lon="-126.285309" />
      <trkpt lat="49.977806" lon="-126.286523" />
      <trkpt lat="49.978369" lon="-126.287433" />
      <trkpt lat="49.981332" lon="-126.291791" />
      <trkpt lat="49.982457" lon="-126.293304" />
      <trkpt lat="49.984276" lon="-126.296017" />
      <trkpt lat="49.984875" lon="-126.297057" />
      <trkpt lat="49.986524" lon="-126.299417" />
      <trkpt lat="49.988778" lon="-126.302732" />
      <trkpt lat="49.990332" lon="-126.305061" />
      <trkpt lat="49.991204" lon="-126.306329" />
      <trkpt lat="49.992424" lon="-126.308121" />
      <trkpt lat="49.994015" lon="-126.310414" />
      <trkpt lat="49.995808" lon="-126.312989" />
      <trkpt lat="49.996721" lon="-126.314257" />
      <trkpt lat="49.997043" lon="-126.314439" />
      <trkpt lat="49.997822" lon="-126.314534" />
      <trkpt lat="49.998305" lon="-126.314578" />
      <trkpt lat="49.99857" lon="-126.314697" />
      <trkpt lat="49.99887" lon="-126.315157" />
      <trkpt lat="49.99905" lon="-126.315651" />
      <trkpt lat="49.999505" lon="-126.316208" />
      <trkpt lat="50.001156" lon="-126.317712" />
      <trkpt lat="50.001988" lon="-126.317944" />
      <trkpt lat="50.002508" lon="-126.318071" />
      <trkpt lat="50.002433" lon="-126.31784" />
      <trkpt lat="50.002512" lon="-126.317496" />
      <trkpt lat="50.002867" lon="-126.31696" />
      <trkpt lat="50.002953" lon="-126.316734" />
      <trkpt lat="50.00278" lon="-126.31608" />
      <trkpt lat="50.002339" lon="-126.314792" />
      <trkpt lat="50.002304" lon="-126.313977" />
      <trkpt lat="50.002573" lon="-126.313527" />
      <trkpt lat="50.00273" lon="-126.313185" />
      <trkpt lat="50.003028" lon="-126.312357" />
      <trkpt lat="50.003249" lon="-126.311456" />
      <trkpt lat="50.003332" lon="-126.310512" />
      <trkpt lat="50.002877" lon="-126.308795" />
      <trkpt lat="50.002725" lon="-126.308229" />
      <trkpt lat="50.002422" lon="-126.3071" />
      <trkpt lat="50.002325" lon="-126.305705" />
      <trkpt lat="50.002808" lon="-126.301285" />
      <trkpt lat="50.003125" lon="-126.30062" />
      <trkpt lat="50.003402" lon="-126.300438" />
      <trkpt lat="50.00369" lon="-126.300373" />
      <trkpt lat="50.004146" lon="-126.300512" />
      <trkpt lat="50.005304" lon="-126.301006" />
      <trkpt lat="50.005483" lon="-126.301059" />
      <trkpt lat="50.005815" lon="-126.300813" />
      <trkpt lat="50.00607" lon="-126.300405" />
      <trkpt lat="50.006242" lon="-126.299976" />
      <trkpt lat="50.006311" lon="-126.299482" />
      <trkpt lat="50.006811" lon="-126.298279" />
      <trkpt lat="50.007459" lon="-126.29768" />
      <trkpt lat="50.007733" lon="-126.297679" />
      <trkpt lat="50.008126" lon="-126.297648" />
      <trkpt lat="50.009127" lon="-126.297898" />
      <trkpt lat="50.010286" lon="-126.299281" />
      <trkpt lat="50.011261" lon="-126.300997" />
      <trkpt lat="50.011518" lon="-126.302199" />
      <trkpt lat="50.011952" lon="-126.303265" />
      <trkpt lat="50.012372" lon="-126.304225" />
      <trkpt lat="50.012793" lon="-126.305559" />
      <trkpt lat="50.0131" lon="-126.306208" />
      <trkpt lat="50.013828" lon="-126.306831" />
      <trkpt lat="50.01424" lon="-126.307662" />
      <trkpt lat="50.015526" lon="-126.308775" />
      <trkpt lat="50.01424" lon="-126.307662" />
      <trkpt lat="50.013828" lon="-126.306831" />
      <trkpt lat="50.0131" lon="-126.306208" />
      <trkpt lat="50.012793" lon="-126.305559" />
      <trkpt lat="50.012372" lon="-126.304225" />
      <trkpt lat="50.011952" lon="-126.303265" />
      <trkpt lat="50.011518" lon="-126.302199" />
      <trkpt lat="50.011261" lon="-126.300997" />
      <trkpt lat="50.010286" lon="-126.299281" />
      <trkpt lat="50.009127" lon="-126.297898" />
      <trkpt lat="50.008126" lon="-126.297648" />
      <trkpt lat="50.007733" lon="-126.297679" />
      <trkpt lat="50.007459" lon="-126.29768" />
      <trkpt lat="50.006811" lon="-126.298279" />
      <trkpt lat="50.006311" lon="-126.299482" />
      <trkpt lat="50.006242" lon="-126.299976" />
      <trkpt lat="50.00607" lon="-126.300405" />
      <trkpt lat="50.005815" lon="-126.300813" />
      <trkpt lat="50.005483" lon="-126.301059" />
      <trkpt lat="50.005304" lon="-126.301006" />
      <trkpt lat="50.004146" lon="-126.300512" />
      <trkpt lat="50.00369" lon="-126.300373" />
      <trkpt lat="50.003402" lon="-126.300438" />
      <trkpt lat="50.003125" lon="-126.30062" />
      <trkpt lat="50.002808" lon="-126.301285" />
      <trkpt lat="50.002325" lon="-126.305705" />
      <trkpt lat="50.002422" lon="-126.3071" />
      <trkpt lat="50.002877" lon="-126.308795" />
      <trkpt lat="50.003332" lon="-126.310512" />
      <trkpt lat="50.003249" lon="-126.311456" />
      <trkpt lat="50.003028" lon="-126.312357" />
      <trkpt lat="50.00273" lon="-126.313185" />
      <trkpt lat="50.002573" lon="-126.313527" />
      <trkpt lat="50.002304" lon="-126.313977" />
      <trkpt lat="50.002339" lon="-126.314792" />
      <trkpt lat="50.00278" lon="-126.31608" />
      <trkpt lat="50.002953" lon="-126.316734" />
      <trkpt lat="50.002867" lon="-126.31696" />
      <trkpt lat="50.002512" lon="-126.317496" />
      <trkpt lat="50.002433" lon="-126.31784" />
      <trkpt lat="50.002508" lon="-126.318071" />
      <trkpt lat="50.003264" lon="-126.318811" />
      <trkpt lat="50.003545" lon="-126.318987" />
      <trkpt lat="50.004652" lon="-126.319338" />
      <trkpt lat="50.006087" lon="-126.320695" />
      <trkpt lat="50.007" lon="-126.322068" />
      <trkpt lat="50.007221" lon="-126.3224" />
      <trkpt lat="50.007346" lon="-126.322764" />
      <trkpt lat="50.007512" lon="-126.323633" />
      <trkpt lat="50.007874" lon="-126.324802" />
      <trkpt lat="50.008153" lon="-126.32565" />
      <trkpt lat="50.008587" lon="-126.326962" />
      <trkpt lat="50.008787" lon="-126.328118" />
      <trkpt lat="50.008932" lon="-126.328403" />
      <trkpt lat="50.010042" lon="-126.329545" />
      <trkpt lat="50.01105" lon="-126.330252" />
      <trkpt lat="50.011821" lon="-126.3308" />
      <trkpt lat="50.012927" lon="-126.331635" />
      <trkpt lat="50.013198" lon="-126.331926" />
      <trkpt lat="50.014681" lon="-126.335067" />
      <trkpt lat="50.015382" lon="-126.335721" />
      <trkpt lat="50.015475" lon="-126.335918" />
      <trkpt lat="50.015647" lon="-126.336958" />
      <trkpt lat="50.015876" lon="-126.337224" />
      <trkpt lat="50.016268" lon="-126.337495" />
      <trkpt lat="50.016702" lon="-126.337964" />
      <trkpt lat="50.017172" lon="-126.339067" />
      <trkpt lat="50.017357" lon="-126.339501" />
      <trkpt lat="50.017712" lon="-126.339928" />
      <trkpt lat="50.01845" lon="-126.340658" />
      <trkpt lat="50.018763" lon="-126.341325" />
      <trkpt lat="50.019046" lon="-126.342237" />
      <trkpt lat="50.019491" lon="-126.342807" />
      <trkpt lat="50.019646" lon="-126.343128" />
      <trkpt lat="50.019756" lon="-126.343578" />
      <trkpt lat="50.019749" lon="-126.34404" />
      <trkpt lat="50.019859" lon="-126.344501" />
      <trkpt lat="50.020073" lon="-126.34493" />
      <trkpt lat="50.020395" lon="-126.345106" />
      <trkpt lat="50.02243" lon="-126.347347" />
      <trkpt lat="50.023092" lon="-126.348106" />
      <trkpt lat="50.023729" lon="-126.348876" />
      <trkpt lat="50.024133" lon="-126.350209" />
      <trkpt lat="50.024427" lon="-126.350397" />
      <trkpt lat="50.02423" lon="-126.350724" />
      <trkpt lat="50.024176" lon="-126.351052" />
      <trkpt lat="50.023941" lon="-126.352505" />
      <trkpt lat="50.024071" lon="-126.35318" />
      <trkpt lat="50.024386" lon="-126.353843" />
      <trkpt lat="50.024843" lon="-126.354221" />
      <trkpt lat="50.025029" lon="-126.354446" />
      <trkpt lat="50.025147" lon="-126.354774" />
      <trkpt lat="50.025395" lon="-126.356109" />
      <trkpt lat="50.025456" lon="-126.357559" />
      <trkpt lat="50.02565" lon="-126.358051" />
      <trkpt lat="50.025968" lon="-126.358528" />
      <trkpt lat="50.027005" lon="-126.359555" />
      <trkpt lat="50.027952" lon="-126.359934" />
      <trkpt lat="50.028271" lon="-126.360164" />
      <trkpt lat="50.028853" lon="-126.360927" />
      <trkpt lat="50.029316" lon="-126.361538" />
      <trkpt lat="50.029559" lon="-126.362158" />
      <trkpt lat="50.029944" lon="-126.363555" />
      <trkpt lat="50.030264" lon="-126.364445" />
      <trkpt lat="50.030711" lon="-126.365215" />
      <trkpt lat="50.031088" lon="-126.365658" />
      <trkpt lat="50.03126" lon="-126.366112" />
      <trkpt lat="50.031356" lon="-126.366913" />
      <trkpt lat="50.031324" lon="-126.367449" />
      <trkpt lat="50.031319" lon="-126.36794" />
      <trkpt lat="50.03137" lon="-126.368394" />
      <trkpt lat="50.031508" lon="-126.368947" />
      <trkpt lat="50.031742" lon="-126.369971" />
      <trkpt lat="50.031938" lon="-126.371046" />
      <trkpt lat="50.031975" lon="-126.371465" />
      <trkpt lat="50.032042" lon="-126.372562" />
      <trkpt lat="50.032148" lon="-126.373013" />
      <trkpt lat="50.033825" lon="-126.376184" />
      <trkpt lat="50.033982" lon="-126.376784" />
      <trkpt lat="50.034261" lon="-126.377683" />
      <trkpt lat="50.034489" lon="-126.378129" />
      <trkpt lat="50.034749" lon="-126.378395" />
      <trkpt lat="50.035066" lon="-126.378623" />
      <trkpt lat="50.035916" lon="-126.378928" />
      <trkpt lat="50.036206" lon="-126.379133" />
      <trkpt lat="50.036453" lon="-126.379443" />
      <trkpt lat="50.036577" lon="-126.37981" />
      <trkpt lat="50.036669" lon="-126.380279" />
      <trkpt lat="50.036673" lon="-126.380793" />
      <trkpt lat="50.036584" lon="-126.38193" />
      <trkpt lat="50.03661" lon="-126.382537" />
      <trkpt lat="50.036769" lon="-126.383128" />
      <trkpt lat="50.036983" lon="-126.383536" />
      <trkpt lat="50.037311" lon="-126.383831" />
      <trkpt lat="50.038113" lon="-126.384133" />
      <trkpt lat="50.038361" lon="-126.384271" />
      <trkpt lat="50.038562" lon="-126.384554" />
      <trkpt lat="50.038647" lon="-126.385032" />
      <trkpt lat="50.038595" lon="-126.385701" />
      <trkpt lat="50.038427" lon="-126.386451" />
      <trkpt lat="50.03847" lon="-126.386952" />
      <trkpt lat="50.038648" lon="-126.387451" />
      <trkpt lat="50.038812" lon="-126.387625" />
      <trkpt lat="50.039132" lon="-126.387868" />
      <trkpt lat="50.039645" lon="-126.38778" />
      <trkpt lat="50.040436" lon="-126.388575" />
      <trkpt lat="50.040818" lon="-126.389573" />
      <trkpt lat="50.040891" lon="-126.390119" />
      <trkpt lat="50.040915" lon="-126.390339" />
      <trkpt lat="50.040937" lon="-126.390441" />
      <trkpt lat="50.04106" lon="-126.391773" />
      <trkpt lat="50.041218" lon="-126.392309" />
      <trkpt lat="50.041493" lon="-126.392845" />
      <trkpt lat="50.042141" lon="-126.393607" />
      <trkpt lat="50.042379" lon="-126.394038" />
      <trkpt lat="50.042561" lon="-126.394486" />
      <trkpt lat="50.043126" lon="-126.395356" />
      <trkpt lat="50.043813" lon="-126.396003" />
      <trkpt lat="50.044077" lon="-126.396235" />
      <trkpt lat="50.044325" lon="-126.396675" />
      <trkpt lat="50.044732" lon="-126.397169" />
      <trkpt lat="50.045273" lon="-126.397582" />
      <trkpt lat="50.046137" lon="-126.397796" />
      <trkpt lat="50.046433" lon="-126.398156" />
      <trkpt lat="50.046909" lon="-126.39895" />
      <trkpt lat="50.047446" lon="-126.399432" />
      <trkpt lat="50.048868" lon="-126.401969" />
      <trkpt lat="50.049093" lon="-126.402147" />
      <trkpt lat="50.049844" lon="-126.402479" />
      <trkpt lat="50.05008" lon="-126.402638" />
      <trkpt lat="50.051153" lon="-126.404046" />
      <trkpt lat="50.051445" lon="-126.404165" />
      <trkpt lat="50.052544" lon="-126.404196" />
      <trkpt lat="50.052778" lon="-126.404345" />
      <trkpt lat="50.053088" lon="-126.404722" />
      <trkpt lat="50.053633" lon="-126.40558" />
      <trkpt lat="50.054058" lon="-126.406036" />
      <trkpt lat="50.054749" lon="-126.406792" />
      <trkpt lat="50.055245" lon="-126.407157" />
      <trkpt lat="50.056092" lon="-126.407661" />
      <trkpt lat="50.056585" lon="-126.408208" />
      <trkpt lat="50.057126" lon="-126.40907" />
      <trkpt lat="50.057553" lon="-126.409229" />
      <trkpt lat="50.058259" lon="-126.409326" />
      <trkpt lat="50.058585" lon="-126.409657" />
      <trkpt lat="50.059412" lon="-126.411223" />
      <trkpt lat="50.060678" lon="-126.412309" />
      <trkpt lat="50.060872" lon="-126.412575" />
      <trkpt lat="50.061334" lon="-126.413509" />
      <trkpt lat="50.061802" lon="-126.414067" />
      <trkpt lat="50.062518" lon="-126.415333" />
      <trkpt lat="50.063028" lon="-126.415938" />
      <trkpt lat="50.063739" lon="-126.416538" />
      <trkpt lat="50.063944" lon="-126.416878" />
      <trkpt lat="50.064302" lon="-126.41839" />
      <trkpt lat="50.064612" lon="-126.418948" />
      <trkpt lat="50.06491" lon="-126.419677" />
      <trkpt lat="50.065032" lon="-126.420032" />
      <trkpt lat="50.065273" lon="-126.420397" />
      <trkpt lat="50.065643" lon="-126.420556" />
      <trkpt lat="50.066686" lon="-126.420907" />
      <trkpt lat="50.066933" lon="-126.421126" />
      <trkpt lat="50.067856" lon="-126.422532" />
      <trkpt lat="50.068234" lon="-126.422768" />
      <trkpt lat="50.069683" lon="-126.424012" />
      <trkpt lat="50.071766" lon="-126.427248" />
      <trkpt lat="50.073197" lon="-126.428525" />
      <trkpt lat="50.073743" lon="-126.429001" />
      <trkpt lat="50.074666" lon="-126.429677" />
      <trkpt lat="50.075065" lon="-126.42987" />
      <trkpt lat="50.076403" lon="-126.430967" />
      <trkpt lat="50.077865" lon="-126.43268" />
      <trkpt lat="50.078226" lon="-126.432874" />
      <trkpt lat="50.078589" lon="-126.432921" />
      <trkpt lat="50.078919" lon="-126.432769" />
      <trkpt lat="50.079011" lon="-126.432982" />
      <trkpt lat="50.079701" lon="-126.434223" />
      <trkpt lat="50.080345" lon="-126.435865" />
      <trkpt lat="50.080703" lon="-126.437016" />
      <trkpt lat="50.081262" lon="-126.437724" />
      <trkpt lat="50.081637" lon="-126.438081" />
      <trkpt lat="50.082205" lon="-126.441983" />
      <trkpt lat="50.082185" lon="-126.442938" />
      <trkpt lat="50.082377" lon="-126.443732" />
      <trkpt lat="50.082661" lon="-126.444427" />
      <trkpt lat="50.082894" lon="-126.444891" />
      <trkpt lat="50.082973" lon="-126.445266" />
      <trkpt lat="50.082957" lon="-126.446753" />
      <trkpt lat="50.08263" lon="-126.447843" />
      <trkpt lat="50.082304" lon="-126.448116" />
      <trkpt lat="50.081546" lon="-126.448298" />
      <trkpt lat="50.081173" lon="-126.448661" />
      <trkpt lat="50.080555" lon="-126.449951" />
      <trkpt lat="50.079809" lon="-126.450569" />
      <trkpt lat="50.079051" lon="-126.450787" />
      <trkpt lat="50.076349" lon="-126.449576" />
      <trkpt lat="50.075974" lon="-126.449568" />
      <trkpt lat="50.07539" lon="-126.449769" />
      <trkpt lat="50.074618" lon="-126.450116" />
      <trkpt lat="50.07413" lon="-126.450187" />
      <trkpt lat="50.073422" lon="-126.45018" />
      <trkpt lat="50.072393" lon="-126.449842" />
      <trkpt lat="50.071273" lon="-126.450387" />
      <trkpt lat="50.070671" lon="-126.450861" />
      <trkpt lat="50.069897" lon="-126.450928" />
      <trkpt lat="50.069812" lon="-126.45118" />
      <trkpt lat="50.069627" lon="-126.451717" />
      <trkpt lat="50.069421" lon="-126.452387" />
      <trkpt lat="50.069198" lon="-126.453785" />
      <trkpt lat="50.068844" lon="-126.45549" />
      <trkpt lat="50.068792" lon="-126.455737" />
      <trkpt lat="50.068758" lon="-126.455957" />
      <trkpt lat="50.068806" lon="-126.456247" />
      <trkpt lat="50.068988" lon="-126.456735" />
      <trkpt lat="50.070992" lon="-126.458737" />
      <trkpt lat="50.071367" lon="-126.459082" />
      <trkpt lat="50.072222" lon="-126.459868" />
      <trkpt lat="50.073062" lon="-126.460683" />
      <trkpt lat="50.077413" lon="-126.46501" />
      <trkpt lat="50.077967" lon="-126.465619" />
      <trkpt lat="50.078234" lon="-126.466115" />
      <trkpt lat="50.078397" lon="-126.466668" />
      <trkpt lat="50.07847" lon="-126.467416" />
      <trkpt lat="50.078567" lon="-126.467609" />
      <trkpt lat="50.078734" lon="-126.467744" />
      <trkpt lat="50.079738" lon="-126.468393" />
      <trkpt lat="50.080502" lon="-126.468807" />
      <trkpt lat="50.081266" lon="-126.469014" />
      <trkpt lat="50.081648" lon="-126.469068" />
      <trkpt lat="50.08214" lon="-126.469036" />
      <trkpt lat="50.082546" lon="-126.468907" />
      <trkpt lat="50.082957" lon="-126.468629" />
      <trkpt lat="50.083198" lon="-126.468484" />
      <trkpt lat="50.0841" lon="-126.468661" />
      <trkpt lat="50.08435" lon="-126.468569" />
      <trkpt lat="50.084671" lon="-126.468356" />
      <trkpt lat="50.086201" lon="-126.466823" />
      <trkpt lat="50.086454" lon="-126.466638" />
      <trkpt lat="50.086631" lon="-126.466498" />
      <trkpt lat="50.086889" lon="-126.4663" />
      <trkpt lat="50.09128" lon="-126.464166" />
      <trkpt lat="50.092321" lon="-126.464295" />
      <trkpt lat="50.093215" lon="-126.464832" />
      <trkpt lat="50.093556" lon="-126.465147" />
      <trkpt lat="50.094199" lon="-126.465959" />
      <trkpt lat="50.094892" lon="-126.467357" />
      <trkpt lat="50.095972" lon="-126.469975" />
      <trkpt lat="50.097143" lon="-126.472571" />
      <trkpt lat="50.097928" lon="-126.47457" />
      <trkpt lat="50.098879" lon="-126.476541" />
      <trkpt lat="50.099221" lon="-126.477281" />
      <trkpt lat="50.099579" lon="-126.477495" />
      <trkpt lat="50.100558" lon="-126.478004" />
      <trkpt lat="50.102373" lon="-126.47876" />
      <trkpt lat="50.10387" lon="-126.480157" />
      <trkpt lat="50.104688" lon="-126.480449" />
      <trkpt lat="50.10509" lon="-126.480867" />
      <trkpt lat="50.105621" lon="-126.481197" />
      <trkpt lat="50.106268" lon="-126.481695" />
      <trkpt lat="50.106811" lon="-126.482098" />
      <trkpt lat="50.107093" lon="-126.482291" />
      <trkpt lat="50.107399" lon="-126.482328" />
      <trkpt lat="50.108167" lon="-126.482441" />
      <trkpt lat="50.108785" lon="-126.48273" />
      <trkpt lat="50.109598" lon="-126.483707" />
      <trkpt lat="50.110056" lon="-126.483872" />
      <trkpt lat="50.110606" lon="-126.483957" />
      <trkpt lat="50.110953" lon="-126.484169" />
      <trkpt lat="50.111466" lon="-126.484636" />
      <trkpt lat="50.112364" lon="-126.485113" />
      <trkpt lat="50.113692" lon="-126.486025" />
      <trkpt lat="50.114142" lon="-126.486272" />
      <trkpt lat="50.115624" lon="-126.487102" />
      <trkpt lat="50.116519" lon="-126.487547" />
      <trkpt lat="50.116795" lon="-126.487806" />
      <trkpt lat="50.117132" lon="-126.488353" />
      <trkpt lat="50.117389" lon="-126.488841" />
      <trkpt lat="50.11762" lon="-126.489115" />
      <trkpt lat="50.119351" lon="-126.490851" />
      <trkpt lat="50.120352" lon="-126.491771" />
      <trkpt lat="50.120696" lon="-126.492329" />
      <trkpt lat="50.121053" lon="-126.492934" />
      <trkpt lat="50.121258" lon="-126.49321" />
      <trkpt lat="50.122064" lon="-126.49376" />
      <trkpt lat="50.123286" lon="-126.494783" />
      <trkpt lat="50.124123" lon="-126.495606" />
      <trkpt lat="50.124712" lon="-126.496264" />
      <trkpt lat="50.124869" lon="-126.496464" />
      <trkpt lat="50.125409" lon="-126.497579" />
      <trkpt lat="50.125627" lon="-126.498578" />
      <trkpt lat="50.125807" lon="-126.500425" />
      <trkpt lat="50.125848" lon="-126.501003" />
      <trkpt lat="50.125936" lon="-126.501503" />
      <trkpt lat="50.126249" lon="-126.502248" />
      <trkpt lat="50.12637" lon="-126.502419" />
      <trkpt lat="50.126781" lon="-126.5026" />
      <trkpt lat="50.128316" lon="-126.503178" />
      <trkpt lat="50.128929" lon="-126.503436" />
      <trkpt lat="50.129919" lon="-126.504822" />
      <trkpt lat="50.130157" lon="-126.505" />
      <trkpt lat="50.132634" lon="-126.505888" />
      <trkpt lat="50.133322" lon="-126.506103" />
      <trkpt lat="50.134487" lon="-126.506535" />
      <trkpt lat="50.134926" lon="-126.50686" />
      <trkpt lat="50.135331" lon="-126.507268" />
      <trkpt lat="50.135613" lon="-126.507697" />
      <trkpt lat="50.135943" lon="-126.50833" />
      <trkpt lat="50.13697" lon="-126.510869" />
      <trkpt lat="50.137154" lon="-126.511592" />
      <trkpt lat="50.137188" lon="-126.511989" />
      <trkpt lat="50.137182" lon="-126.5124" />
      <trkpt lat="50.137113" lon="-126.512922" />
      <trkpt lat="50.13681" lon="-126.514349" />
      <trkpt lat="50.136648" lon="-126.514845" />
      <trkpt lat="50.136584" lon="-126.515751" />
      <trkpt lat="50.13659" lon="-126.516666" />
      <trkpt lat="50.136666" lon="-126.517181" />
      <trkpt lat="50.136789" lon="-126.517514" />
      <trkpt lat="50.137064" lon="-126.51773" />
      <trkpt lat="50.137738" lon="-126.518426" />
      <trkpt lat="50.138097" lon="-126.51892" />
      <trkpt lat="50.13955" lon="-126.52141" />
      <trkpt lat="50.140056" lon="-126.522224" />
      <trkpt lat="50.140493" lon="-126.522533" />
      <trkpt lat="50.14086" lon="-126.522642" />
      <trkpt lat="50.14119" lon="-126.522964" />
      <trkpt lat="50.141802" lon="-126.524102" />
      <trkpt lat="50.142263" lon="-126.524572" />
      <trkpt lat="50.143308" lon="-126.52629" />
      <trkpt lat="50.144316" lon="-126.527055" />
      <trkpt lat="50.144918" lon="-126.527097" />
      <trkpt lat="50.145465" lon="-126.527497" />
      <trkpt lat="50.145944" lon="-126.528127" />
      <trkpt lat="50.146553" lon="-126.528404" />
      <trkpt lat="50.147363" lon="-126.52846" />
      <trkpt lat="50.148213" lon="-126.529041" />
      <trkpt lat="50.149575" lon="-126.530749" />
      <trkpt lat="50.150157" lon="-126.531331" />
      <trkpt lat="50.150472" lon="-126.531429" />
      <trkpt lat="50.150941" lon="-126.531461" />
      <trkpt lat="50.152544" lon="-126.530459" />
      <trkpt lat="50.153119" lon="-126.530346" />
      <trkpt lat="50.153633" lon="-126.530386" />
      <trkpt lat="50.157983" lon="-126.533437" />
      <trkpt lat="50.158405" lon="-126.533951" />
      <trkpt lat="50.159478" lon="-126.535904" />
      <trkpt lat="50.159773" lon="-126.536161" />
      <trkpt lat="50.160122" lon="-126.536255" />
      <trkpt lat="50.160625" lon="-126.536261" />
      <trkpt lat="50.160811" lon="-126.536322" />
      <trkpt lat="50.1611" lon="-126.536635" />
      <trkpt lat="50.16131" lon="-126.537" />
      <trkpt lat="50.162235" lon="-126.539059" />
      <trkpt lat="50.163525" lon="-126.540656" />
      <trkpt lat="50.164848" lon="-126.542143" />
      <trkpt lat="50.165024" lon="-126.542308" />
      <trkpt lat="50.165515" lon="-126.542624" />
      <trkpt lat="50.165897" lon="-126.542952" />
      <trkpt lat="50.16657" lon="-126.543639" />
      <trkpt lat="50.167161" lon="-126.544164" />
      <trkpt lat="50.168781" lon="-126.545557" />
      <trkpt lat="50.169494" lon="-126.546452" />
      <trkpt lat="50.171285" lon="-126.551153" />
      <trkpt lat="50.171933" lon="-126.551488" />
      <trkpt lat="50.172851" lon="-126.552651" />
      <trkpt lat="50.173112" lon="-126.552898" />
      <trkpt lat="50.173219" lon="-126.553091" />
      <trkpt lat="50.17411" lon="-126.553737" />
      <trkpt lat="50.17448" lon="-126.55396" />
      <trkpt lat="50.175277" lon="-126.554293" />
      <trkpt lat="50.176422" lon="-126.554994" />
      <trkpt lat="50.177228" lon="-126.555398" />
      <trkpt lat="50.177513" lon="-126.555692" />
      <trkpt lat="50.177791" lon="-126.556138" />
      <trkpt lat="50.178231" lon="-126.557087" />
      <trkpt lat="50.178686" lon="-126.558302" />
      <trkpt lat="50.179795" lon="-126.560203" />
      <trkpt lat="50.18043" lon="-126.56132" />
      <trkpt lat="50.180611" lon="-126.561712" />
      <trkpt lat="50.180806" lon="-126.56193" />
      <trkpt lat="50.181003" lon="-126.562658" />
      <trkpt lat="50.18214" lon="-126.564374" />
      <trkpt lat="50.183174" lon="-126.564499" />
      <trkpt lat="50.184041" lon="-126.565011" />
      <trkpt lat="50.184304" lon="-126.565311" />
      <trkpt lat="50.185045" lon="-126.566833" />
      <trkpt lat="50.185321" lon="-126.567307" />
      <trkpt lat="50.185627" lon="-126.567733" />
      <trkpt lat="50.185905" lon="-126.567972" />
      <trkpt lat="50.186294" lon="-126.568179" />
      <trkpt lat="50.186455" lon="-126.568326" />
      <trkpt lat="50.186585" lon="-126.568894" />
      <trkpt lat="50.186743" lon="-126.569431" />
      <trkpt lat="50.186901" lon="-126.569688" />
      <trkpt lat="50.187121" lon="-126.569957" />
      <trkpt lat="50.187231" lon="-126.570193" />
      <trkpt lat="50.187293" lon="-126.57044" />
      <trkpt lat="50.187176" lon="-126.572264" />
      <trkpt lat="50.187221" lon="-126.57244" />
      <trkpt lat="50.187289" lon="-126.572601" />
      <trkpt lat="50.187358" lon="-126.572703" />
      <trkpt lat="50.187928" lon="-126.573127" />
      <trkpt lat="50.188024" lon="-126.57324" />
      <trkpt lat="50.1882" lon="-126.573733" />
      <trkpt lat="50.188358" lon="-126.574399" />
      <trkpt lat="50.188413" lon="-126.574967" />
      <trkpt lat="50.188371" lon="-126.575225" />
      <trkpt lat="50.187861" lon="-126.577981" />
      <trkpt lat="50.187787" lon="-126.578583" />
      <trkpt lat="50.187735" lon="-126.57933" />
      <trkpt lat="50.187719" lon="-126.579981" />
      <trkpt lat="50.187718" lon="-126.580627" />
      <trkpt lat="50.187794" lon="-126.581158" />
      <trkpt lat="50.187932" lon="-126.581683" />
      <trkpt lat="50.188113" lon="-126.582166" />
      <trkpt lat="50.188309" lon="-126.582617" />
      <trkpt lat="50.188498" lon="-126.582824" />
      <trkpt lat="50.188426" lon="-126.58325" />
      <trkpt lat="50.188371" lon="-126.583733" />
      <trkpt lat="50.18833" lon="-126.584399" />
      <trkpt lat="50.188523" lon="-126.586125" />
      <trkpt lat="50.188876" lon="-126.588684" />
      <trkpt lat="50.189072" lon="-126.590095" />
      <trkpt lat="50.189087" lon="-126.590272" />
      <trkpt lat="50.189175" lon="-126.590663" />
      <trkpt lat="50.189402" lon="-126.591318" />
      <trkpt lat="50.189525" lon="-126.592884" />
      <trkpt lat="50.18945" lon="-126.593474" />
      <trkpt lat="50.189281" lon="-126.593875" />
      <trkpt lat="50.188337" lon="-126.595191" />
      <trkpt lat="50.188042" lon="-126.595835" />
      <trkpt lat="50.187753" lon="-126.596596" />
      <trkpt lat="50.18765" lon="-126.597165" />
      <trkpt lat="50.187465" lon="-126.598088" />
      <trkpt lat="50.187238" lon="-126.598753" />
      <trkpt lat="50.186839" lon="-126.601059" />
      <trkpt lat="50.186929" lon="-126.601703" />
      <trkpt lat="50.187083" lon="-126.602372" />
      <trkpt lat="50.187808" lon="-126.603399" />
      <trkpt lat="50.188248" lon="-126.604836" />
      <trkpt lat="50.188337" lon="-126.606263" />
      <trkpt lat="50.188282" lon="-126.607239" />
      <trkpt lat="50.188124" lon="-126.608044" />
      <trkpt lat="50.187973" lon="-126.608591" />
      <trkpt lat="50.18779" lon="-126.608941" />
      <trkpt lat="50.187009" lon="-126.610018" />
      <trkpt lat="50.186778" lon="-126.610296" />
      <trkpt lat="50.186534" lon="-126.610413" />
      <trkpt lat="50.18629" lon="-126.61049" />
      <trkpt lat="50.186004" lon="-126.610529" />
      <trkpt lat="50.185635" lon="-126.610876" />
      <trkpt lat="50.185104" lon="-126.61162" />
      <trkpt lat="50.184482" lon="-126.613127" />
      <trkpt lat="50.184273" lon="-126.612253" />
      <trkpt lat="50.183909" lon="-126.611309" />
      <trkpt lat="50.182944" lon="-126.61049" />
      <trkpt lat="50.182092" lon="-126.610158" />
      <trkpt lat="50.181038" lon="-126.609803" />
      <trkpt lat="50.180206" lon="-126.609428" />
      <trkpt lat="50.179661" lon="-126.609472" />
      <trkpt lat="50.179351" lon="-126.609718" />
      <trkpt lat="50.178925" lon="-126.609932" />
      <trkpt lat="50.178011" lon="-126.609943" />
      <trkpt lat="50.1774" lon="-126.609943" />
      <trkpt lat="50.176706" lon="-126.609686" />
      <trkpt lat="50.176328" lon="-126.609439" />
      <trkpt lat="50.176046" lon="-126.608924" />
      <trkpt lat="50.175641" lon="-126.608291" />
      <trkpt lat="50.175159" lon="-126.607486" />
      <trkpt lat="50.174645" lon="-126.607217" />
      <trkpt lat="50.174315" lon="-126.607207" />
      <trkpt lat="50.173985" lon="-126.607432" />
      <trkpt lat="50.17382" lon="-126.607989" />
      <trkpt lat="50.172803" lon="-126.608547" />
      <trkpt lat="50.171181" lon="-126.609406" />
      <trkpt lat="50.170769" lon="-126.609331" />
      <trkpt lat="50.17004" lon="-126.609353" />
      <trkpt lat="50.169275" lon="-126.609498" />
      <trkpt lat="50.168861" lon="-126.609818" />
      <trkpt lat="50.167246" lon="-126.610751" />
      <trkpt lat="50.166412" lon="-126.610822" />
      <trkpt lat="50.165354" lon="-126.610522" />
      <trkpt lat="50.164325" lon="-126.610719" />
      <trkpt lat="50.163787" lon="-126.61064" />
      <trkpt lat="50.162655" lon="-126.609861" />
      <trkpt lat="50.160332" lon="-126.608423" />
      <trkpt lat="50.160061" lon="-126.608001" />
      <trkpt lat="50.159535" lon="-126.606578" />
      <trkpt lat="50.159127" lon="-126.605941" />
      <trkpt lat="50.158412" lon="-126.605385" />
      <trkpt lat="50.157333" lon="-126.604739" />
      <trkpt lat="50.156075" lon="-126.604269" />
      <trkpt lat="50.155642" lon="-126.603838" />
      <trkpt lat="50.155188" lon="-126.603024" />
      <trkpt lat="50.154342" lon="-126.60239" />
      <trkpt lat="50.153387" lon="-126.601875" />
      <trkpt lat="50.152308" lon="-126.601243" />
      <trkpt lat="50.150296" lon="-126.599057" />
      <trkpt lat="50.150073" lon="-126.598957" />
      <trkpt lat="50.149627" lon="-126.598894" />
      <trkpt lat="50.148584" lon="-126.599078" />
      <trkpt lat="50.148327" lon="-126.599064" />
      <trkpt lat="50.148004" lon="-126.598914" />
      <trkpt lat="50.147498" lon="-126.598488" />
      <trkpt lat="50.147083" lon="-126.597809" />
      <trkpt lat="50.146711" lon="-126.596791" />
      <trkpt lat="50.146436" lon="-126.596189" />
      <trkpt lat="50.145999" lon="-126.595741" />
      <trkpt lat="50.143411" lon="-126.593572" />
      <trkpt lat="50.142779" lon="-126.593272" />
      <trkpt lat="50.141018" lon="-126.593486" />
      <trkpt lat="50.140406" lon="-126.593453" />
      <trkpt lat="50.139942" lon="-126.593166" />
      <trkpt lat="50.13802" lon="-126.592059" />
      <trkpt lat="50.136989" lon="-126.592112" />
      <trkpt lat="50.135699" lon="-126.592308" />
      <trkpt lat="50.134112" lon="-126.593066" />
      <trkpt lat="50.133963" lon="-126.593138" />
      <trkpt lat="50.1316" lon="-126.594282" />
      <trkpt lat="50.129823" lon="-126.594302" />
      <trkpt lat="50.129176" lon="-126.594107" />
      <trkpt lat="50.128695" lon="-126.593871" />
      <trkpt lat="50.127429" lon="-126.593035" />
      <trkpt lat="50.1267" lon="-126.593399" />
      <trkpt lat="50.126164" lon="-126.593571" />
      <trkpt lat="50.125534" lon="-126.594883" />
      <trkpt lat="50.124722" lon="-126.595849" />
      <trkpt lat="50.123969" lon="-126.597991" />
      <trkpt lat="50.12336" lon="-126.598745" />
      <trkpt lat="50.122298" lon="-126.599579" />
      <trkpt lat="50.122078" lon="-126.599987" />
      <trkpt lat="50.120165" lon="-126.600588" />
      <trkpt lat="50.118253" lon="-126.600631" />
      <trkpt lat="50.116437" lon="-126.600266" />
      <trkpt lat="50.114937" lon="-126.599472" />
      <trkpt lat="50.113616" lon="-126.599171" />
      <trkpt lat="50.112821" lon="-126.599411" />
      <trkpt lat="50.112309" lon="-126.600116" />
      <trkpt lat="50.112821" lon="-126.599411" />
      <trkpt lat="50.113616" lon="-126.599171" />
      <trkpt lat="50.114937" lon="-126.599472" />
      <trkpt lat="50.116437" lon="-126.600266" />
      <trkpt lat="50.118253" lon="-126.600631" />
      <trkpt lat="50.120005" lon="-126.600592" />
      <trkpt lat="50.120165" lon="-126.600588" />
      <trkpt lat="50.122078" lon="-126.599987" />
      <trkpt lat="50.122298" lon="-126.599579" />
      <trkpt lat="50.12336" lon="-126.598745" />
      <trkpt lat="50.123969" lon="-126.597991" />
      <trkpt lat="50.124722" lon="-126.595849" />
      <trkpt lat="50.125534" lon="-126.594883" />
      <trkpt lat="50.126164" lon="-126.593571" />
      <trkpt lat="50.1267" lon="-126.593399" />
      <trkpt lat="50.127429" lon="-126.593035" />
      <trkpt lat="50.128695" lon="-126.593871" />
      <trkpt lat="50.129176" lon="-126.594107" />
      <trkpt lat="50.129823" lon="-126.594302" />
      <trkpt lat="50.1316" lon="-126.594282" />
      <trkpt lat="50.133963" lon="-126.593138" />
      <trkpt lat="50.134112" lon="-126.593066" />
      <trkpt lat="50.135699" lon="-126.592308" />
      <trkpt lat="50.136989" lon="-126.592112" />
      <trkpt lat="50.13802" lon="-126.592059" />
      <trkpt lat="50.139942" lon="-126.593166" />
      <trkpt lat="50.140406" lon="-126.593453" />
      <trkpt lat="50.141018" lon="-126.593486" />
      <trkpt lat="50.142779" lon="-126.593272" />
      <trkpt lat="50.143411" lon="-126.593572" />
      <trkpt lat="50.145999" lon="-126.595741" />
      <trkpt lat="50.146436" lon="-126.596189" />
      <trkpt lat="50.146711" lon="-126.596791" />
      <trkpt lat="50.147083" lon="-126.597809" />
      <trkpt lat="50.147498" lon="-126.598488" />
      <trkpt lat="50.148004" lon="-126.598914" />
      <trkpt lat="50.148327" lon="-126.599064" />
      <trkpt lat="50.148584" lon="-126.599078" />
      <trkpt lat="50.149627" lon="-126.598894" />
      <trkpt lat="50.150073" lon="-126.598957" />
      <trkpt lat="50.150296" lon="-126.599057" />
      <trkpt lat="50.152308" lon="-126.601243" />
      <trkpt lat="50.153387" lon="-126.601875" />
      <trkpt lat="50.154342" lon="-126.60239" />
      <trkpt lat="50.155188" lon="-126.603024" />
      <trkpt lat="50.155642" lon="-126.603838" />
      <trkpt lat="50.156075" lon="-126.604269" />
      <trkpt lat="50.157333" lon="-126.604739" />
      <trkpt lat="50.158412" lon="-126.605385" />
      <trkpt lat="50.159127" lon="-126.605941" />
      <trkpt lat="50.159535" lon="-126.606578" />
      <trkpt lat="50.160061" lon="-126.608001" />
      <trkpt lat="50.160332" lon="-126.608423" />
      <trkpt lat="50.162655" lon="-126.609861" />
      <trkpt lat="50.163787" lon="-126.61064" />
      <trkpt lat="50.164325" lon="-126.610719" />
      <trkpt lat="50.165354" lon="-126.610522" />
      <trkpt lat="50.166412" lon="-126.610822" />
      <trkpt lat="50.167246" lon="-126.610751" />
      <trkpt lat="50.168861" lon="-126.609818" />
      <trkpt lat="50.169275" lon="-126.609498" />
      <trkpt lat="50.17004" lon="-126.609353" />
      <trkpt lat="50.170769" lon="-126.609331" />
      <trkpt lat="50.171181" lon="-126.609406" />
      <trkpt lat="50.172803" lon="-126.608547" />
      <trkpt lat="50.17382" lon="-126.607989" />
      <trkpt lat="50.173985" lon="-126.607432" />
      <trkpt lat="50.174315" lon="-126.607207" />
      <trkpt lat="50.174645" lon="-126.607217" />
      <trkpt lat="50.175159" lon="-126.607486" />
      <trkpt lat="50.175641" lon="-126.608291" />
      <trkpt lat="50.176046" lon="-126.608924" />
      <trkpt lat="50.176328" lon="-126.609439" />
      <trkpt lat="50.176706" lon="-126.609686" />
      <trkpt lat="50.1774" lon="-126.609943" />
      <trkpt lat="50.178011" lon="-126.609943" />
      <trkpt lat="50.178925" lon="-126.609932" />
      <trkpt lat="50.179351" lon="-126.609718" />
      <trkpt lat="50.179661" lon="-126.609472" />
      <trkpt lat="50.180206" lon="-126.609428" />
      <trkpt lat="50.181038" lon="-126.609803" />
      <trkpt lat="50.182092" lon="-126.610158" />
      <trkpt lat="50.182944" lon="-126.61049" />
      <trkpt lat="50.183909" lon="-126.611309" />
      <trkpt lat="50.184273" lon="-126.612253" />
      <trkpt lat="50.184482" lon="-126.613127" />
      <trkpt lat="50.184483" lon="-126.613697" />
      <trkpt lat="50.184305" lon="-126.614513" />
      <trkpt lat="50.183947" lon="-126.615564" />
      <trkpt lat="50.183826" lon="-126.617188" />
      <trkpt lat="50.183771" lon="-126.617671" />
      <trkpt lat="50.183455" lon="-126.619034" />
      <trkpt lat="50.183428" lon="-126.619506" />
      <trkpt lat="50.183668" lon="-126.620547" />
      <trkpt lat="50.184087" lon="-126.621491" />
      <trkpt lat="50.184719" lon="-126.622231" />
      <trkpt lat="50.185481" lon="-126.622941" />
      <trkpt lat="50.185812" lon="-126.623068" />
      <trkpt lat="50.186602" lon="-126.622907" />
      <trkpt lat="50.18696" lon="-126.623093" />
      <trkpt lat="50.187231" lon="-126.623215" />
      <trkpt lat="50.187419" lon="-126.623207" />
      <trkpt lat="50.18858" lon="-126.622928" />
      <trkpt lat="50.189213" lon="-126.62287" />
      <trkpt lat="50.189848" lon="-126.623027" />
      <trkpt lat="50.190199" lon="-126.62331" />
      <trkpt lat="50.190795" lon="-126.623989" />
      <trkpt lat="50.19143" lon="-126.624446" />
      <trkpt lat="50.191642" lon="-126.624443" />
      <trkpt lat="50.191869" lon="-126.624442" />
      <trkpt lat="50.192173" lon="-126.624238" />
      <trkpt lat="50.19254" lon="-126.623831" />
      <trkpt lat="50.1931" lon="-126.623373" />
      <trkpt lat="50.195378" lon="-126.622105" />
      <trkpt lat="50.195636" lon="-126.621885" />
      <trkpt lat="50.195874" lon="-126.62154" />
      <trkpt lat="50.196195" lon="-126.620779" />
      <trkpt lat="50.19671" lon="-126.61962" />
      <trkpt lat="50.197048" lon="-126.619205" />
      <trkpt lat="50.198926" lon="-126.617868" />
      <trkpt lat="50.200007" lon="-126.617047" />
      <trkpt lat="50.200801" lon="-126.616443" />
      <trkpt lat="50.201982" lon="-126.615132" />
      <trkpt lat="50.202271" lon="-126.614888" />
      <trkpt lat="50.202577" lon="-126.614806" />
      <trkpt lat="50.202851" lon="-126.614841" />
      <trkpt lat="50.20363" lon="-126.614915" />
      <trkpt lat="50.203839" lon="-126.614935" />
      <trkpt lat="50.204113" lon="-126.614911" />
      <trkpt lat="50.204364" lon="-126.614822" />
      <trkpt lat="50.20453" lon="-126.614671" />
      <trkpt lat="50.204702" lon="-126.614413" />
      <trkpt lat="50.204913" lon="-126.614048" />
      <trkpt lat="50.205396" lon="-126.612947" />
      <trkpt lat="50.205874" lon="-126.611884" />
      <trkpt lat="50.20598" lon="-126.611545" />
      <trkpt lat="50.206145" lon="-126.610717" />
      <trkpt lat="50.206282" lon="-126.609626" />
      <trkpt lat="50.206349" lon="-126.60893" />
      <trkpt lat="50.206354" lon="-126.608298" />
      <trkpt lat="50.206361" lon="-126.608025" />
      <trkpt lat="50.206204" lon="-126.606912" />
      <trkpt lat="50.206185" lon="-126.60667" />
      <trkpt lat="50.206196" lon="-126.606263" />
      <trkpt lat="50.206266" lon="-126.605855" />
      <trkpt lat="50.206379" lon="-126.605587" />
      <trkpt lat="50.206741" lon="-126.604977" />
      <trkpt lat="50.20677" lon="-126.604929" />
      <trkpt lat="50.206945" lon="-126.604562" />
      <trkpt lat="50.20696" lon="-126.604531" />
      <trkpt lat="50.20698" lon="-126.604489" />
      <trkpt lat="50.207048" lon="-126.604265" />
      <trkpt lat="50.207061" lon="-126.604224" />
      <trkpt lat="50.207316" lon="-126.603987" />
      <trkpt lat="50.207681" lon="-126.603602" />
      <trkpt lat="50.20802" lon="-126.603262" />
      <trkpt lat="50.208363" lon="-126.602994" />
      <trkpt lat="50.208591" lon="-126.602823" />
      <trkpt lat="50.208763" lon="-126.602718" />
      <trkpt lat="50.208814" lon="-126.602672" />
      <trkpt lat="50.208962" lon="-126.602747" />
      <trkpt lat="50.209012" lon="-126.602772" />
      <trkpt lat="50.209145" lon="-126.60284" />
      <trkpt lat="50.20942" lon="-126.602979" />
      <trkpt lat="50.209712" lon="-126.603127" />
      <trkpt lat="50.210364" lon="-126.603457" />
      <trkpt lat="50.210497" lon="-126.603524" />
      <trkpt lat="50.21136" lon="-126.60396" />
      <trkpt lat="50.211374" lon="-126.603889" />
      <trkpt lat="50.211391" lon="-126.603798" />
      <trkpt lat="50.211418" lon="-126.603657" />
      <trkpt lat="50.211097" lon="-126.603489" />
      <trkpt lat="50.210909" lon="-126.603391" />
      <trkpt lat="50.210742" lon="-126.603247" />
      <trkpt lat="50.210667" lon="-126.603131" />
      <trkpt lat="50.210565" lon="-126.602972" />
      <trkpt lat="50.210491" lon="-126.602713" />
      <trkpt lat="50.210468" lon="-126.602631" />
      <trkpt lat="50.210416" lon="-126.602026" />
      <trkpt lat="50.210379" lon="-126.601586" />
      <trkpt lat="50.210279" lon="-126.601107" />
      <trkpt lat="50.209859" lon="-126.599996" />
      <trkpt lat="50.20983" lon="-126.599917" />
      <trkpt lat="50.20975" lon="-126.599433" />
      <trkpt lat="50.209744" lon="-126.599399" />
      <trkpt lat="50.209744" lon="-126.599181" />
      <trkpt lat="50.209743" lon="-126.598972" />
      <trkpt lat="50.209742" lon="-126.598813" />
      <trkpt lat="50.20975" lon="-126.598772" />
      <trkpt lat="50.209829" lon="-126.598356" />
      <trkpt lat="50.209963" lon="-126.597985" />
      <trkpt lat="50.210121" lon="-126.597733" />
      <trkpt lat="50.21029" lon="-126.597367" />
      <trkpt lat="50.210893" lon="-126.596499" />
      <trkpt lat="50.210911" lon="-126.59647" />
      <trkpt lat="50.210937" lon="-126.596428" />
      <trkpt lat="50.211001" lon="-126.596325" />
      <trkpt lat="50.21126" lon="-126.595967" />
      <trkpt lat="50.211373" lon="-126.59581" />
      <trkpt lat="50.211778" lon="-126.595421" />
      <trkpt lat="50.212084" lon="-126.595258" />
      <trkpt lat="50.212459" lon="-126.595159" />
      <trkpt lat="50.212641" lon="-126.595175" />
      <trkpt lat="50.213209" lon="-126.595268" />
      <trkpt lat="50.213274" lon="-126.595274" />
      <trkpt lat="50.213918" lon="-126.595373" />
      <trkpt lat="50.214628" lon="-126.59539" />
      <trkpt lat="50.214961" lon="-126.595373" />
      <trkpt lat="50.215312" lon="-126.595293" />
      <trkpt lat="50.215382" lon="-126.595259" />
      <trkpt lat="50.215632" lon="-126.595139" />
      <trkpt lat="50.215799" lon="-126.595936" />
      <trkpt lat="50.215937" lon="-126.596835" />
      <trkpt lat="50.215995" lon="-126.597854" />
      <trkpt lat="50.215897" lon="-126.598644" />
      <trkpt lat="50.215906" lon="-126.59893" />
    </trkseg>
  </trk>
</gpx>
