<?xml version="1.0" encoding="UTF-8"?>
<gpx version="1.1"
  creator="BC Backroads research map"
  xmlns="http://www.topografix.com/GPX/1/1"
  xmlns:xsi="http://www.w3.org/2001/XMLSchema-instance"
  xmlns:bcbr="https://konradstaniszewski.com/ns/bc-backroads/1"
  xsi:schemaLocation="http://www.topografix.com/GPX/1/1 http://www.topografix.com/GPX/1/1/gpx.xsd">
  <metadata>
    <name>RI-04 · Gray Creek Pass</name>
    <desc>Iconic 2,072 m Kootenay crossing; latest notice scheduled repair completion but did not explicitly confirm through reopening. Coarse corridor geometry; not a turn-by-turn track. Verify land access, closures, gates, weather and field signage.</desc>
    <time>2026-09-09T00:00:00Z</time>
  </metadata>
  <trk>
    <name>Gray Creek Pass</name>
    <type>candidate</type>
    <extensions>
      <bcbr:routeId>RI-04</bcbr:routeId>
      <bcbr:geometryPolicy>overview</bcbr:geometryPolicy>
      <bcbr:geometrySource>Coarse corridor overview</bcbr:geometrySource>
      <bcbr:pointCount>4</bcbr:pointCount>
    </extensions>
    <trkseg>
      <trkpt lat="49.62" lon="-116.78" />
      <trkpt lat="49.58" lon="-116.53" />
      <trkpt lat="49.61" lon="-116.25" />
      <trkpt lat="49.67" lon="-115.985" />
    </trkseg>
  </trk>
</gpx>
