<?xml version="1.0" encoding="UTF-8"?>
<gpx version="1.1"
  creator="BC Backroads research map"
  xmlns="http://www.topografix.com/GPX/1/1"
  xmlns:xsi="http://www.w3.org/2001/XMLSchema-instance"
  xmlns:bcbr="https://konradstaniszewski.com/ns/bc-backroads/1"
  xsi:schemaLocation="http://www.topografix.com/GPX/1/1 http://www.topografix.com/GPX/1/1/gpx.xsd">
  <metadata>
    <name>RI-09 · Harrison–Pemberton TCAT link</name>
    <desc>Coastal link reused by Interior-scale itineraries; kept as a separate inventory record to preserve research provenance. Coarse corridor geometry; not a turn-by-turn track. Verify land access, closures, gates, weather and field signage.</desc>
    <time>2026-09-09T00:00:00Z</time>
  </metadata>
  <trk>
    <name>Harrison–Pemberton TCAT link</name>
    <type>primary</type>
    <extensions>
      <bcbr:routeId>RI-09</bcbr:routeId>
      <bcbr:geometryPolicy>overview</bcbr:geometryPolicy>
      <bcbr:geometrySource>Coarse corridor overview</bcbr:geometrySource>
      <bcbr:pointCount>4</bcbr:pointCount>
    </extensions>
    <trkseg>
      <trkpt lat="49.303" lon="-121.783" />
      <trkpt lat="49.786" lon="-122.02" />
      <trkpt lat="50.196" lon="-122.53" />
      <trkpt lat="50.32" lon="-122.805" />
    </trkseg>
  </trk>
</gpx>
