<?xml version="1.0" encoding="UTF-8"?>
<gpx version="1.1"
  creator="BC Backroads research map"
  xmlns="http://www.topografix.com/GPX/1/1"
  xmlns:xsi="http://www.w3.org/2001/XMLSchema-instance"
  xmlns:bcbr="https://konradstaniszewski.com/ns/bc-backroads/1"
  xsi:schemaLocation="http://www.topografix.com/GPX/1/1 http://www.topografix.com/GPX/1/1/gpx.xsd">
  <metadata>
    <name>VI-10 · Holberg–Port Hardy</name>
    <desc>North-Island dirt connector with deeper loose gravel and shared camper, shuttle and logging traffic. Road geometry derived from OpenStreetMap contributors under ODbL; route selection is an independently authored research overview. Verify land access, closures, gates, weather and field signage.</desc>
    <copyright author="OpenStreetMap contributors">
      <year>2026</year>
      <license>https://opendatacommons.org/licenses/odbl/1-0/</license>
    </copyright>
    <time>2026-09-09T00:00:00Z</time>
  </metadata>
  <trk>
    <name>Holberg–Port Hardy</name>
    <type>primary</type>
    <extensions>
      <bcbr:routeId>VI-10</bcbr:routeId>
      <bcbr:geometryPolicy>link-only</bcbr:geometryPolicy>
      <bcbr:geometrySource>OpenStreetMap road routing</bcbr:geometrySource>
      <bcbr:geometryUpdatedAt>2026-09-09</bcbr:geometryUpdatedAt>
      <bcbr:pointCount>1709</bcbr:pointCount>
    </extensions>
    <trkseg>
      <trkpt lat="50.659356" lon="-128.037012" />
      <trkpt lat="50.659378" lon="-128.035419" />
      <trkpt lat="50.65933" lon="-128.03456" />
      <trkpt lat="50.659215" lon="-128.034026" />
      <trkpt lat="50.658847" lon="-128.033425" />
      <trkpt lat="50.658126" lon="-128.032715" />
      <trkpt lat="50.657058" lon="-128.031631" />
      <trkpt lat="50.655906" lon="-128.03057" />
      <trkpt lat="50.654783" lon="-128.029228" />
      <trkpt lat="50.654437" lon="-128.028874" />
      <trkpt lat="50.653647" lon="-128.027995" />
      <trkpt lat="50.652805" lon="-128.027169" />
      <trkpt lat="50.652345" lon="-128.026707" />
      <trkpt lat="50.651589" lon="-128.025409" />
      <trkpt lat="50.651263" lon="-128.024819" />
      <trkpt lat="50.651004" lon="-128.024089" />
      <trkpt lat="50.651359" lon="-128.023791" />
      <trkpt lat="50.651875" lon="-128.023821" />
      <trkpt lat="50.652222" lon="-128.023638" />
      <trkpt lat="50.65261" lon="-128.022684" />
      <trkpt lat="50.652984" lon="-128.021632" />
      <trkpt lat="50.653509" lon="-128.019969" />
      <trkpt lat="50.653769" lon="-128.01892" />
      <trkpt lat="50.653904" lon="-128.018476" />
      <trkpt lat="50.654155" lon="-128.017663" />
      <trkpt lat="50.654255" lon="-128.017365" />
      <trkpt lat="50.654419" lon="-128.016887" />
      <trkpt lat="50.654573" lon="-128.016422" />
      <trkpt lat="50.654778" lon="-128.015816" />
      <trkpt lat="50.654886" lon="-128.015442" />
      <trkpt lat="50.654905" lon="-128.015372" />
      <trkpt lat="50.654438" lon="-128.015078" />
      <trkpt lat="50.654414" lon="-128.014981" />
      <trkpt lat="50.654449" lon="-128.014856" />
      <trkpt lat="50.65452" lon="-128.014693" />
      <trkpt lat="50.654645" lon="-128.014548" />
      <trkpt lat="50.654792" lon="-128.014058" />
      <trkpt lat="50.654757" lon="-128.013862" />
      <trkpt lat="50.655003" lon="-128.013094" />
      <trkpt lat="50.655218" lon="-128.012518" />
      <trkpt lat="50.655073" lon="-128.012348" />
      <trkpt lat="50.654912" lon="-128.012057" />
      <trkpt lat="50.654773" lon="-128.011619" />
      <trkpt lat="50.6546" lon="-128.011251" />
      <trkpt lat="50.654487" lon="-128.011001" />
      <trkpt lat="50.654303" lon="-128.010566" />
      <trkpt lat="50.654175" lon="-128.010089" />
      <trkpt lat="50.654135" lon="-128.009701" />
      <trkpt lat="50.654136" lon="-128.009259" />
      <trkpt lat="50.654145" lon="-128.008773" />
      <trkpt lat="50.654152" lon="-128.008643" />
      <trkpt lat="50.653998" lon="-128.008261" />
      <trkpt lat="50.653913" lon="-128.007913" />
      <trkpt lat="50.653874" lon="-128.007691" />
      <trkpt lat="50.653879" lon="-128.0075" />
      <trkpt lat="50.653934" lon="-128.007353" />
      <trkpt lat="50.654209" lon="-128.007042" />
      <trkpt lat="50.654366" lon="-128.006904" />
      <trkpt lat="50.654483" lon="-128.006862" />
      <trkpt lat="50.654605" lon="-128.006867" />
      <trkpt lat="50.6547" lon="-128.006921" />
      <trkpt lat="50.655169" lon="-128.00725" />
      <trkpt lat="50.655397" lon="-128.007411" />
      <trkpt lat="50.656282" lon="-128.008205" />
      <trkpt lat="50.656328" lon="-128.008245" />
      <trkpt lat="50.656479" lon="-128.008361" />
      <trkpt lat="50.656768" lon="-128.008456" />
      <trkpt lat="50.657027" lon="-128.008498" />
      <trkpt lat="50.657315" lon="-128.008537" />
      <trkpt lat="50.65769" lon="-128.008977" />
      <trkpt lat="50.657751" lon="-128.009062" />
      <trkpt lat="50.658176" lon="-128.009731" />
      <trkpt lat="50.658587" lon="-128.010263" />
      <trkpt lat="50.659031" lon="-128.011028" />
      <trkpt lat="50.659778" lon="-128.011835" />
      <trkpt lat="50.65993" lon="-128.012021" />
      <trkpt lat="50.660262" lon="-128.012372" />
      <trkpt lat="50.660807" lon="-128.013028" />
      <trkpt lat="50.661079" lon="-128.013381" />
      <trkpt lat="50.661497" lon="-128.013871" />
      <trkpt lat="50.661709" lon="-128.01409" />
      <trkpt lat="50.662334" lon="-128.014649" />
      <trkpt lat="50.662731" lon="-128.014862" />
      <trkpt lat="50.663167" lon="-128.015056" />
      <trkpt lat="50.663336" lon="-128.015168" />
      <trkpt lat="50.663716" lon="-128.015511" />
      <trkpt lat="50.664086" lon="-128.015847" />
      <trkpt lat="50.664431" lon="-128.016297" />
      <trkpt lat="50.665159" lon="-128.017573" />
      <trkpt lat="50.665439" lon="-128.018499" />
      <trkpt lat="50.665716" lon="-128.019064" />
      <trkpt lat="50.665945" lon="-128.019291" />
      <trkpt lat="50.666187" lon="-128.019419" />
      <trkpt lat="50.66633" lon="-128.019433" />
      <trkpt lat="50.666464" lon="-128.019446" />
      <trkpt lat="50.666623" lon="-128.019384" />
      <trkpt lat="50.666808" lon="-128.019202" />
      <trkpt lat="50.666843" lon="-128.019167" />
      <trkpt lat="50.666996" lon="-128.018896" />
      <trkpt lat="50.667106" lon="-128.01851" />
      <trkpt lat="50.667176" lon="-128.018053" />
      <trkpt lat="50.667191" lon="-128.017225" />
      <trkpt lat="50.667166" lon="-128.016121" />
      <trkpt lat="50.667124" lon="-128.015781" />
      <trkpt lat="50.667032" lon="-128.015392" />
      <trkpt lat="50.666812" lon="-128.014661" />
      <trkpt lat="50.666806" lon="-128.014369" />
      <trkpt lat="50.666942" lon="-128.013453" />
      <trkpt lat="50.666957" lon="-128.013349" />
      <trkpt lat="50.66697" lon="-128.011853" />
      <trkpt lat="50.666995" lon="-128.011445" />
      <trkpt lat="50.667011" lon="-128.011349" />
      <trkpt lat="50.66702" lon="-128.010873" />
      <trkpt lat="50.666964" lon="-128.009359" />
      <trkpt lat="50.667045" lon="-128.008989" />
      <trkpt lat="50.667118" lon="-128.008469" />
      <trkpt lat="50.667199" lon="-128.008032" />
      <trkpt lat="50.66728" lon="-128.007693" />
      <trkpt lat="50.667377" lon="-128.007544" />
      <trkpt lat="50.66746" lon="-128.007383" />
      <trkpt lat="50.667669" lon="-128.007186" />
      <trkpt lat="50.668173" lon="-128.006921" />
      <trkpt lat="50.668561" lon="-128.00673" />
      <trkpt lat="50.668821" lon="-128.006585" />
      <trkpt lat="50.669121" lon="-128.006537" />
      <trkpt lat="50.669363" lon="-128.00666" />
      <trkpt lat="50.66951" lon="-128.006765" />
      <trkpt lat="50.670042" lon="-128.007385" />
      <trkpt lat="50.67056" lon="-128.008101" />
      <trkpt lat="50.670833" lon="-128.008362" />
      <trkpt lat="50.671124" lon="-128.008531" />
      <trkpt lat="50.671735" lon="-128.008765" />
      <trkpt lat="50.672455" lon="-128.008918" />
      <trkpt lat="50.672882" lon="-128.008912" />
      <trkpt lat="50.673776" lon="-128.008779" />
      <trkpt lat="50.67416" lon="-128.008615" />
      <trkpt lat="50.674547" lon="-128.008493" />
      <trkpt lat="50.675106" lon="-128.008243" />
      <trkpt lat="50.675396" lon="-128.008189" />
      <trkpt lat="50.675648" lon="-128.008186" />
      <trkpt lat="50.675891" lon="-128.008265" />
      <trkpt lat="50.676444" lon="-128.008524" />
      <trkpt lat="50.676679" lon="-128.008672" />
      <trkpt lat="50.676867" lon="-128.00885" />
      <trkpt lat="50.678444" lon="-128.010629" />
      <trkpt lat="50.679171" lon="-128.011245" />
      <trkpt lat="50.68031" lon="-128.01189" />
      <trkpt lat="50.681122" lon="-128.012204" />
      <trkpt lat="50.682132" lon="-128.012495" />
      <trkpt lat="50.682572" lon="-128.012483" />
      <trkpt lat="50.682708" lon="-128.012419" />
      <trkpt lat="50.682896" lon="-128.012218" />
      <trkpt lat="50.682995" lon="-128.011629" />
      <trkpt lat="50.683016" lon="-128.010987" />
      <trkpt lat="50.683077" lon="-128.010016" />
      <trkpt lat="50.683175" lon="-128.009158" />
      <trkpt lat="50.683253" lon="-128.008652" />
      <trkpt lat="50.683432" lon="-128.007817" />
      <trkpt lat="50.683572" lon="-128.007105" />
      <trkpt lat="50.684393" lon="-128.004451" />
      <trkpt lat="50.684483" lon="-128.003936" />
      <trkpt lat="50.68449" lon="-128.003772" />
      <trkpt lat="50.684533" lon="-128.002686" />
      <trkpt lat="50.684521" lon="-128" />
      <trkpt lat="50.68452" lon="-127.999869" />
      <trkpt lat="50.684551" lon="-127.998621" />
      <trkpt lat="50.684762" lon="-127.996321" />
      <trkpt lat="50.684779" lon="-127.995868" />
      <trkpt lat="50.68474" lon="-127.995539" />
      <trkpt lat="50.684536" lon="-127.994714" />
      <trkpt lat="50.684416" lon="-127.993901" />
      <trkpt lat="50.684285" lon="-127.993555" />
      <trkpt lat="50.684118" lon="-127.993223" />
      <trkpt lat="50.683864" lon="-127.992807" />
      <trkpt lat="50.683577" lon="-127.992447" />
      <trkpt lat="50.683156" lon="-127.992008" />
      <trkpt lat="50.682824" lon="-127.991727" />
      <trkpt lat="50.682512" lon="-127.99158" />
      <trkpt lat="50.682274" lon="-127.991563" />
      <trkpt lat="50.682026" lon="-127.991623" />
      <trkpt lat="50.68138" lon="-127.992028" />
      <trkpt lat="50.681105" lon="-127.992097" />
      <trkpt lat="50.680812" lon="-127.992064" />
      <trkpt lat="50.680545" lon="-127.991948" />
      <trkpt lat="50.680289" lon="-127.991773" />
      <trkpt lat="50.680058" lon="-127.991508" />
      <trkpt lat="50.67984" lon="-127.991159" />
      <trkpt lat="50.679455" lon="-127.990531" />
      <trkpt lat="50.679317" lon="-127.990263" />
      <trkpt lat="50.678985" lon="-127.989993" />
      <trkpt lat="50.678936" lon="-127.989977" />
      <trkpt lat="50.678837" lon="-127.98995" />
      <trkpt lat="50.678632" lon="-127.989881" />
      <trkpt lat="50.678244" lon="-127.989682" />
      <trkpt lat="50.677942" lon="-127.989451" />
      <trkpt lat="50.677092" lon="-127.988792" />
      <trkpt lat="50.676834" lon="-127.988609" />
      <trkpt lat="50.676606" lon="-127.988534" />
      <trkpt lat="50.675844" lon="-127.988454" />
      <trkpt lat="50.675525" lon="-127.988362" />
      <trkpt lat="50.67526" lon="-127.988196" />
      <trkpt lat="50.675097" lon="-127.987992" />
      <trkpt lat="50.675025" lon="-127.987568" />
      <trkpt lat="50.674831" lon="-127.987059" />
      <trkpt lat="50.674678" lon="-127.986801" />
      <trkpt lat="50.674349" lon="-127.986356" />
      <trkpt lat="50.673927" lon="-127.985895" />
      <trkpt lat="50.673611" lon="-127.985594" />
      <trkpt lat="50.673424" lon="-127.98553" />
      <trkpt lat="50.673047" lon="-127.985627" />
      <trkpt lat="50.672843" lon="-127.985605" />
      <trkpt lat="50.672639" lon="-127.985503" />
      <trkpt lat="50.672509" lon="-127.98523" />
      <trkpt lat="50.672411" lon="-127.984854" />
      <trkpt lat="50.67239" lon="-127.984495" />
      <trkpt lat="50.67253" lon="-127.983588" />
      <trkpt lat="50.672985" lon="-127.981528" />
      <trkpt lat="50.673441" lon="-127.979629" />
      <trkpt lat="50.67375" lon="-127.978674" />
      <trkpt lat="50.673951" lon="-127.978326" />
      <trkpt lat="50.674151" lon="-127.978009" />
      <trkpt lat="50.674797" lon="-127.977516" />
      <trkpt lat="50.675705" lon="-127.976834" />
      <trkpt lat="50.676264" lon="-127.976427" />
      <trkpt lat="50.676429" lon="-127.976201" />
      <trkpt lat="50.676548" lon="-127.975997" />
      <trkpt lat="50.676653" lon="-127.97567" />
      <trkpt lat="50.676687" lon="-127.975397" />
      <trkpt lat="50.676657" lon="-127.975091" />
      <trkpt lat="50.676538" lon="-127.974694" />
      <trkpt lat="50.676382" lon="-127.974334" />
      <trkpt lat="50.676297" lon="-127.974007" />
      <trkpt lat="50.676259" lon="-127.973621" />
      <trkpt lat="50.676235" lon="-127.973036" />
      <trkpt lat="50.676232" lon="-127.972199" />
      <trkpt lat="50.676276" lon="-127.97103" />
      <trkpt lat="50.676348" lon="-127.97022" />
      <trkpt lat="50.676409" lon="-127.969319" />
      <trkpt lat="50.676358" lon="-127.968975" />
      <trkpt lat="50.676297" lon="-127.968616" />
      <trkpt lat="50.676217" lon="-127.968283" />
      <trkpt lat="50.676093" lon="-127.967913" />
      <trkpt lat="50.675885" lon="-127.967253" />
      <trkpt lat="50.675504" lon="-127.966175" />
      <trkpt lat="50.67512" lon="-127.965397" />
      <trkpt lat="50.674831" lon="-127.96477" />
      <trkpt lat="50.674661" lon="-127.96448" />
      <trkpt lat="50.674386" lon="-127.964265" />
      <trkpt lat="50.673523" lon="-127.963563" />
      <trkpt lat="50.673223" lon="-127.963101" />
      <trkpt lat="50.673074" lon="-127.962844" />
      <trkpt lat="50.672822" lon="-127.962372" />
      <trkpt lat="50.672625" lon="-127.961953" />
      <trkpt lat="50.672482" lon="-127.961733" />
      <trkpt lat="50.672118" lon="-127.961363" />
      <trkpt lat="50.67152" lon="-127.960784" />
      <trkpt lat="50.671153" lon="-127.960446" />
      <trkpt lat="50.670806" lon="-127.960183" />
      <trkpt lat="50.670476" lon="-127.959786" />
      <trkpt lat="50.670031" lon="-127.959137" />
      <trkpt lat="50.669725" lon="-127.958703" />
      <trkpt lat="50.669422" lon="-127.958343" />
      <trkpt lat="50.669167" lon="-127.957984" />
      <trkpt lat="50.668766" lon="-127.957538" />
      <trkpt lat="50.668538" lon="-127.957222" />
      <trkpt lat="50.668416" lon="-127.956873" />
      <trkpt lat="50.668307" lon="-127.956508" />
      <trkpt lat="50.668171" lon="-127.956197" />
      <trkpt lat="50.667597" lon="-127.955221" />
      <trkpt lat="50.667046" lon="-127.954347" />
      <trkpt lat="50.666757" lon="-127.953837" />
      <trkpt lat="50.666546" lon="-127.953225" />
      <trkpt lat="50.666352" lon="-127.952399" />
      <trkpt lat="50.666141" lon="-127.951369" />
      <trkpt lat="50.665961" lon="-127.950779" />
      <trkpt lat="50.66573" lon="-127.95013" />
      <trkpt lat="50.665553" lon="-127.949771" />
      <trkpt lat="50.665285" lon="-127.949406" />
      <trkpt lat="50.664995" lon="-127.949159" />
      <trkpt lat="50.664766" lon="-127.948978" />
      <trkpt lat="50.664115" lon="-127.948478" />
      <trkpt lat="50.663986" lon="-127.948295" />
      <trkpt lat="50.66388" lon="-127.947995" />
      <trkpt lat="50.663748" lon="-127.947351" />
      <trkpt lat="50.663625" lon="-127.94652" />
      <trkpt lat="50.663428" lon="-127.945586" />
      <trkpt lat="50.663078" lon="-127.944084" />
      <trkpt lat="50.662962" lon="-127.943832" />
      <trkpt lat="50.662833" lon="-127.943698" />
      <trkpt lat="50.662411" lon="-127.943505" />
      <trkpt lat="50.662183" lon="-127.943328" />
      <trkpt lat="50.662017" lon="-127.943044" />
      <trkpt lat="50.661854" lon="-127.942523" />
      <trkpt lat="50.661671" lon="-127.941687" />
      <trkpt lat="50.661547" lon="-127.940898" />
      <trkpt lat="50.661432" lon="-127.940458" />
      <trkpt lat="50.661296" lon="-127.94019" />
      <trkpt lat="50.660952" lon="-127.9396" />
      <trkpt lat="50.660269" lon="-127.938366" />
      <trkpt lat="50.659579" lon="-127.937256" />
      <trkpt lat="50.659334" lon="-127.936794" />
      <trkpt lat="50.659245" lon="-127.936537" />
      <trkpt lat="50.659225" lon="-127.936306" />
      <trkpt lat="50.659228" lon="-127.935877" />
      <trkpt lat="50.659361" lon="-127.934257" />
      <trkpt lat="50.659432" lon="-127.933323" />
      <trkpt lat="50.659446" lon="-127.932943" />
      <trkpt lat="50.659375" lon="-127.932519" />
      <trkpt lat="50.659167" lon="-127.931907" />
      <trkpt lat="50.658776" lon="-127.930883" />
      <trkpt lat="50.65862" lon="-127.930491" />
      <trkpt lat="50.658565" lon="-127.93011" />
      <trkpt lat="50.65843" lon="-127.928688" />
      <trkpt lat="50.658375" lon="-127.927932" />
      <trkpt lat="50.65831" lon="-127.92746" />
      <trkpt lat="50.658167" lon="-127.927015" />
      <trkpt lat="50.657973" lon="-127.926516" />
      <trkpt lat="50.657446" lon="-127.925422" />
      <trkpt lat="50.657324" lon="-127.924885" />
      <trkpt lat="50.657283" lon="-127.924612" />
      <trkpt lat="50.657208" lon="-127.924134" />
      <trkpt lat="50.657147" lon="-127.923807" />
      <trkpt lat="50.657062" lon="-127.92348" />
      <trkpt lat="50.656708" lon="-127.922616" />
      <trkpt lat="50.656589" lon="-127.922021" />
      <trkpt lat="50.656198" lon="-127.920299" />
      <trkpt lat="50.655998" lon="-127.919473" />
      <trkpt lat="50.655712" lon="-127.918775" />
      <trkpt lat="50.655385" lon="-127.91796" />
      <trkpt lat="50.655321" lon="-127.917616" />
      <trkpt lat="50.655365" lon="-127.917268" />
      <trkpt lat="50.655498" lon="-127.916941" />
      <trkpt lat="50.655787" lon="-127.916624" />
      <trkpt lat="50.656195" lon="-127.916243" />
      <trkpt lat="50.65661" lon="-127.915862" />
      <trkpt lat="50.656753" lon="-127.915632" />
      <trkpt lat="50.656732" lon="-127.915428" />
      <trkpt lat="50.656542" lon="-127.914548" />
      <trkpt lat="50.656406" lon="-127.913904" />
      <trkpt lat="50.65627" lon="-127.913582" />
      <trkpt lat="50.656106" lon="-127.913384" />
      <trkpt lat="50.655848" lon="-127.913196" />
      <trkpt lat="50.65528" lon="-127.912568" />
      <trkpt lat="50.655049" lon="-127.912166" />
      <trkpt lat="50.654889" lon="-127.911769" />
      <trkpt lat="50.654692" lon="-127.910777" />
      <trkpt lat="50.654443" lon="-127.90987" />
      <trkpt lat="50.654382" lon="-127.909398" />
      <trkpt lat="50.654379" lon="-127.908797" />
      <trkpt lat="50.65443" lon="-127.908089" />
      <trkpt lat="50.654505" lon="-127.907118" />
      <trkpt lat="50.654576" lon="-127.906512" />
      <trkpt lat="50.654569" lon="-127.905879" />
      <trkpt lat="50.654522" lon="-127.905123" />
      <trkpt lat="50.654437" lon="-127.904227" />
      <trkpt lat="50.654559" lon="-127.903492" />
      <trkpt lat="50.654715" lon="-127.902864" />
      <trkpt lat="50.654695" lon="-127.902365" />
      <trkpt lat="50.654777" lon="-127.901883" />
      <trkpt lat="50.654957" lon="-127.90162" />
      <trkpt lat="50.655144" lon="-127.901459" />
      <trkpt lat="50.655348" lon="-127.9014" />
      <trkpt lat="50.655566" lon="-127.901453" />
      <trkpt lat="50.656171" lon="-127.901915" />
      <trkpt lat="50.656392" lon="-127.901931" />
      <trkpt lat="50.656753" lon="-127.901824" />
      <trkpt lat="50.657283" lon="-127.901695" />
      <trkpt lat="50.657936" lon="-127.901534" />
      <trkpt lat="50.658422" lon="-127.90148" />
      <trkpt lat="50.658739" lon="-127.901341" />
      <trkpt lat="50.659439" lon="-127.901137" />
      <trkpt lat="50.65967" lon="-127.900933" />
      <trkpt lat="50.660021" lon="-127.900574" />
      <trkpt lat="50.660483" lon="-127.900418" />
      <trkpt lat="50.66068" lon="-127.900236" />
      <trkpt lat="50.660986" lon="-127.899753" />
      <trkpt lat="50.661214" lon="-127.899141" />
      <trkpt lat="50.661343" lon="-127.89853" />
      <trkpt lat="50.661534" lon="-127.897291" />
      <trkpt lat="50.661694" lon="-127.896416" />
      <trkpt lat="50.661779" lon="-127.89618" />
      <trkpt lat="50.661979" lon="-127.895783" />
      <trkpt lat="50.662214" lon="-127.895139" />
      <trkpt lat="50.662424" lon="-127.894045" />
      <trkpt lat="50.662329" lon="-127.893444" />
      <trkpt lat="50.662214" lon="-127.893154" />
      <trkpt lat="50.66188" lon="-127.892639" />
      <trkpt lat="50.661153" lon="-127.892189" />
      <trkpt lat="50.660765" lon="-127.891974" />
      <trkpt lat="50.660555" lon="-127.891728" />
      <trkpt lat="50.660376" lon="-127.891193" />
      <trkpt lat="50.659663" lon="-127.890064" />
      <trkpt lat="50.659534" lon="-127.889442" />
      <trkpt lat="50.659357" lon="-127.889067" />
      <trkpt lat="50.658956" lon="-127.888004" />
      <trkpt lat="50.658419" lon="-127.886996" />
      <trkpt lat="50.658031" lon="-127.885827" />
      <trkpt lat="50.657181" lon="-127.883391" />
      <trkpt lat="50.657031" lon="-127.883026" />
      <trkpt lat="50.656228" lon="-127.882114" />
      <trkpt lat="50.655705" lon="-127.881417" />
      <trkpt lat="50.655304" lon="-127.881213" />
      <trkpt lat="50.65495" lon="-127.881063" />
      <trkpt lat="50.654454" lon="-127.880527" />
      <trkpt lat="50.654031" lon="-127.880033" />
      <trkpt lat="50.653834" lon="-127.879572" />
      <trkpt lat="50.653773" lon="-127.879035" />
      <trkpt lat="50.653338" lon="-127.878145" />
      <trkpt lat="50.6531" lon="-127.87704" />
      <trkpt lat="50.652807" lon="-127.876471" />
      <trkpt lat="50.652601" lon="-127.875593" />
      <trkpt lat="50.652331" lon="-127.874433" />
      <trkpt lat="50.651984" lon="-127.873231" />
      <trkpt lat="50.651787" lon="-127.87233" />
      <trkpt lat="50.651644" lon="-127.871815" />
      <trkpt lat="50.651494" lon="-127.871064" />
      <trkpt lat="50.651569" lon="-127.870645" />
      <trkpt lat="50.651909" lon="-127.869701" />
      <trkpt lat="50.651828" lon="-127.868736" />
      <trkpt lat="50.651596" lon="-127.867448" />
      <trkpt lat="50.651406" lon="-127.866461" />
      <trkpt lat="50.650997" lon="-127.865259" />
      <trkpt lat="50.650603" lon="-127.864273" />
      <trkpt lat="50.650297" lon="-127.863554" />
      <trkpt lat="50.650084" lon="-127.862987" />
      <trkpt lat="50.649578" lon="-127.860534" />
      <trkpt lat="50.649309" lon="-127.8592" />
      <trkpt lat="50.648982" lon="-127.857944" />
      <trkpt lat="50.648753" lon="-127.857192" />
      <trkpt lat="50.648535" lon="-127.856548" />
      <trkpt lat="50.648016" lon="-127.855198" />
      <trkpt lat="50.647771" lon="-127.854812" />
      <trkpt lat="50.646887" lon="-127.85376" />
      <trkpt lat="50.645718" lon="-127.852127" />
      <trkpt lat="50.645093" lon="-127.850926" />
      <trkpt lat="50.644235" lon="-127.850067" />
      <trkpt lat="50.643526" lon="-127.849223" />
      <trkpt lat="50.643312" lon="-127.849141" />
      <trkpt lat="50.642561" lon="-127.84908" />
      <trkpt lat="50.64214" lon="-127.848845" />
      <trkpt lat="50.641758" lon="-127.84849" />
      <trkpt lat="50.640927" lon="-127.847484" />
      <trkpt lat="50.639772" lon="-127.84642" />
      <trkpt lat="50.638738" lon="-127.845615" />
      <trkpt lat="50.638234" lon="-127.84348" />
      <trkpt lat="50.638003" lon="-127.842707" />
      <trkpt lat="50.637472" lon="-127.841634" />
      <trkpt lat="50.636533" lon="-127.837279" />
      <trkpt lat="50.635989" lon="-127.834382" />
      <trkpt lat="50.635722" lon="-127.833075" />
      <trkpt lat="50.635213" lon="-127.830681" />
      <trkpt lat="50.634954" lon="-127.829768" />
      <trkpt lat="50.634355" lon="-127.828695" />
      <trkpt lat="50.633742" lon="-127.827475" />
      <trkpt lat="50.63343" lon="-127.826872" />
      <trkpt lat="50.633056" lon="-127.826142" />
      <trkpt lat="50.632573" lon="-127.825617" />
      <trkpt lat="50.631273" lon="-127.823717" />
      <trkpt lat="50.630702" lon="-127.822967" />
      <trkpt lat="50.630089" lon="-127.821883" />
      <trkpt lat="50.629564" lon="-127.820842" />
      <trkpt lat="50.629063" lon="-127.819691" />
      <trkpt lat="50.627359" lon="-127.816057" />
      <trkpt lat="50.626856" lon="-127.814963" />
      <trkpt lat="50.626488" lon="-127.81331" />
      <trkpt lat="50.626202" lon="-127.812474" />
      <trkpt lat="50.626176" lon="-127.811916" />
      <trkpt lat="50.626509" lon="-127.809405" />
      <trkpt lat="50.626829" lon="-127.808139" />
      <trkpt lat="50.627033" lon="-127.806433" />
      <trkpt lat="50.627087" lon="-127.805564" />
      <trkpt lat="50.627108" lon="-127.804974" />
      <trkpt lat="50.627167" lon="-127.804633" />
      <trkpt lat="50.627408" lon="-127.804009" />
      <trkpt lat="50.627727" lon="-127.803375" />
      <trkpt lat="50.627808" lon="-127.802882" />
      <trkpt lat="50.627808" lon="-127.801273" />
      <trkpt lat="50.627744" lon="-127.800898" />
      <trkpt lat="50.627512" lon="-127.800673" />
      <trkpt lat="50.627332" lon="-127.800371" />
      <trkpt lat="50.627031" lon="-127.798871" />
      <trkpt lat="50.626992" lon="-127.798011" />
      <trkpt lat="50.627223" lon="-127.796895" />
      <trkpt lat="50.627196" lon="-127.796037" />
      <trkpt lat="50.627061" lon="-127.795243" />
      <trkpt lat="50.626801" lon="-127.7949" />
      <trkpt lat="50.626244" lon="-127.794707" />
      <trkpt lat="50.625918" lon="-127.79427" />
      <trkpt lat="50.625535" lon="-127.793508" />
      <trkpt lat="50.625452" lon="-127.79321" />
      <trkpt lat="50.625458" lon="-127.793058" />
      <trkpt lat="50.625512" lon="-127.792583" />
      <trkpt lat="50.625531" lon="-127.792124" />
      <trkpt lat="50.625498" lon="-127.791801" />
      <trkpt lat="50.625339" lon="-127.791402" />
      <trkpt lat="50.625148" lon="-127.791111" />
      <trkpt lat="50.624941" lon="-127.79087" />
      <trkpt lat="50.624618" lon="-127.790777" />
      <trkpt lat="50.62398" lon="-127.790696" />
      <trkpt lat="50.622541" lon="-127.79015" />
      <trkpt lat="50.622052" lon="-127.789974" />
      <trkpt lat="50.621632" lon="-127.789684" />
      <trkpt lat="50.621423" lon="-127.789326" />
      <trkpt lat="50.621261" lon="-127.788881" />
      <trkpt lat="50.621033" lon="-127.788093" />
      <trkpt lat="50.620852" lon="-127.787679" />
      <trkpt lat="50.620608" lon="-127.787292" />
      <trkpt lat="50.620316" lon="-127.786906" />
      <trkpt lat="50.61989" lon="-127.786482" />
      <trkpt lat="50.619191" lon="-127.785898" />
      <trkpt lat="50.618817" lon="-127.785595" />
      <trkpt lat="50.618501" lon="-127.785282" />
      <trkpt lat="50.617958" lon="-127.784357" />
      <trkpt lat="50.617743" lon="-127.783924" />
      <trkpt lat="50.617633" lon="-127.783577" />
      <trkpt lat="50.617588" lon="-127.783124" />
      <trkpt lat="50.617511" lon="-127.782112" />
      <trkpt lat="50.61741" lon="-127.781619" />
      <trkpt lat="50.617294" lon="-127.781315" />
      <trkpt lat="50.617092" lon="-127.781023" />
      <trkpt lat="50.616665" lon="-127.780743" />
      <trkpt lat="50.616394" lon="-127.780663" />
      <trkpt lat="50.616162" lon="-127.78048" />
      <trkpt lat="50.615569" lon="-127.779904" />
      <trkpt lat="50.615006" lon="-127.779335" />
      <trkpt lat="50.614723" lon="-127.778927" />
      <trkpt lat="50.614487" lon="-127.778473" />
      <trkpt lat="50.613745" lon="-127.776103" />
      <trkpt lat="50.613542" lon="-127.775309" />
      <trkpt lat="50.613232" lon="-127.773718" />
      <trkpt lat="50.612952" lon="-127.772898" />
      <trkpt lat="50.612328" lon="-127.771477" />
      <trkpt lat="50.611943" lon="-127.770435" />
      <trkpt lat="50.611799" lon="-127.770041" />
      <trkpt lat="50.611612" lon="-127.76973" />
      <trkpt lat="50.61127" lon="-127.769321" />
      <trkpt lat="50.610848" lon="-127.768988" />
      <trkpt lat="50.610342" lon="-127.768507" />
      <trkpt lat="50.609865" lon="-127.768142" />
      <trkpt lat="50.60942" lon="-127.76753" />
      <trkpt lat="50.608925" lon="-127.766576" />
      <trkpt lat="50.608129" lon="-127.765224" />
      <trkpt lat="50.607925" lon="-127.764822" />
      <trkpt lat="50.60774" lon="-127.764054" />
      <trkpt lat="50.607952" lon="-127.76281" />
      <trkpt lat="50.607996" lon="-127.76193" />
      <trkpt lat="50.607945" lon="-127.76104" />
      <trkpt lat="50.607795" lon="-127.759709" />
      <trkpt lat="50.607469" lon="-127.758894" />
      <trkpt lat="50.607224" lon="-127.758411" />
      <trkpt lat="50.60691" lon="-127.757992" />
      <trkpt lat="50.606392" lon="-127.757349" />
      <trkpt lat="50.606257" lon="-127.756941" />
      <trkpt lat="50.606161" lon="-127.756147" />
      <trkpt lat="50.605984" lon="-127.754302" />
      <trkpt lat="50.60588" lon="-127.753364" />
      <trkpt lat="50.605831" lon="-127.753" />
      <trkpt lat="50.605766" lon="-127.752521" />
      <trkpt lat="50.60533" lon="-127.751201" />
      <trkpt lat="50.605201" lon="-127.750343" />
      <trkpt lat="50.605262" lon="-127.749431" />
      <trkpt lat="50.605412" lon="-127.747843" />
      <trkpt lat="50.605412" lon="-127.747264" />
      <trkpt lat="50.605228" lon="-127.746234" />
      <trkpt lat="50.60516" lon="-127.745311" />
      <trkpt lat="50.605207" lon="-127.744624" />
      <trkpt lat="50.605439" lon="-127.742328" />
      <trkpt lat="50.605399" lon="-127.741771" />
      <trkpt lat="50.605276" lon="-127.740848" />
      <trkpt lat="50.605283" lon="-127.74044" />
      <trkpt lat="50.605385" lon="-127.73999" />
      <trkpt lat="50.605834" lon="-127.737822" />
      <trkpt lat="50.606705" lon="-127.731868" />
      <trkpt lat="50.607298" lon="-127.727941" />
      <trkpt lat="50.608319" lon="-127.728027" />
      <trkpt lat="50.609014" lon="-127.728006" />
      <trkpt lat="50.611503" lon="-127.728124" />
      <trkpt lat="50.613661" lon="-127.727982" />
      <trkpt lat="50.614118" lon="-127.728139" />
      <trkpt lat="50.615181" lon="-127.728992" />
      <trkpt lat="50.616888" lon="-127.730328" />
      <trkpt lat="50.617115" lon="-127.730471" />
      <trkpt lat="50.617235" lon="-127.730248" />
      <trkpt lat="50.617469" lon="-127.729492" />
      <trkpt lat="50.617708" lon="-127.727963" />
      <trkpt lat="50.617803" lon="-127.727545" />
      <trkpt lat="50.618079" lon="-127.726745" />
      <trkpt lat="50.618204" lon="-127.726257" />
      <trkpt lat="50.618245" lon="-127.726005" />
      <trkpt lat="50.618259" lon="-127.725742" />
      <trkpt lat="50.61829" lon="-127.724964" />
      <trkpt lat="50.618313" lon="-127.724771" />
      <trkpt lat="50.618409" lon="-127.724433" />
      <trkpt lat="50.618528" lon="-127.724085" />
      <trkpt lat="50.618596" lon="-127.723736" />
      <trkpt lat="50.618592" lon="-127.723414" />
      <trkpt lat="50.618548" lon="-127.723055" />
      <trkpt lat="50.618344" lon="-127.722035" />
      <trkpt lat="50.618191" lon="-127.721204" />
      <trkpt lat="50.618041" lon="-127.720351" />
      <trkpt lat="50.618017" lon="-127.720067" />
      <trkpt lat="50.61801" lon="-127.719294" />
      <trkpt lat="50.618055" lon="-127.718264" />
      <trkpt lat="50.618072" lon="-127.717534" />
      <trkpt lat="50.618099" lon="-127.717266" />
      <trkpt lat="50.618123" lon="-127.717138" />
      <trkpt lat="50.618187" lon="-127.716816" />
      <trkpt lat="50.618405" lon="-127.716204" />
      <trkpt lat="50.618531" lon="-127.715882" />
      <trkpt lat="50.618851" lon="-127.715035" />
      <trkpt lat="50.618953" lon="-127.714783" />
      <trkpt lat="50.619072" lon="-127.714552" />
      <trkpt lat="50.619443" lon="-127.713897" />
      <trkpt lat="50.619624" lon="-127.713581" />
      <trkpt lat="50.619763" lon="-127.713297" />
      <trkpt lat="50.619927" lon="-127.712985" />
      <trkpt lat="50.620032" lon="-127.712658" />
      <trkpt lat="50.620192" lon="-127.71195" />
      <trkpt lat="50.620379" lon="-127.71092" />
      <trkpt lat="50.620645" lon="-127.709783" />
      <trkpt lat="50.620682" lon="-127.70952" />
      <trkpt lat="50.62075" lon="-127.708662" />
      <trkpt lat="50.62088" lon="-127.707573" />
      <trkpt lat="50.620958" lon="-127.707197" />
      <trkpt lat="50.621084" lon="-127.706811" />
      <trkpt lat="50.621203" lon="-127.706484" />
      <trkpt lat="50.621268" lon="-127.706355" />
      <trkpt lat="50.621383" lon="-127.706194" />
      <trkpt lat="50.621482" lon="-127.706087" />
      <trkpt lat="50.622363" lon="-127.705239" />
      <trkpt lat="50.622515" lon="-127.705089" />
      <trkpt lat="50.622937" lon="-127.704608" />
      <trkpt lat="50.623128" lon="-127.70435" />
      <trkpt lat="50.6233" lon="-127.704179" />
      <trkpt lat="50.623455" lon="-127.704107" />
      <trkpt lat="50.623936" lon="-127.703936" />
      <trkpt lat="50.624226" lon="-127.703878" />
      <trkpt lat="50.624389" lon="-127.703893" />
      <trkpt lat="50.624553" lon="-127.703907" />
      <trkpt lat="50.624752" lon="-127.704007" />
      <trkpt lat="50.625104" lon="-127.704263" />
      <trkpt lat="50.625236" lon="-127.70437" />
      <trkpt lat="50.625985" lon="-127.704564" />
      <trkpt lat="50.626611" lon="-127.704617" />
      <trkpt lat="50.626917" lon="-127.704682" />
      <trkpt lat="50.627335" lon="-127.704724" />
      <trkpt lat="50.627465" lon="-127.704731" />
      <trkpt lat="50.62754" lon="-127.704734" />
      <trkpt lat="50.627795" lon="-127.704746" />
      <trkpt lat="50.627907" lon="-127.704719" />
      <trkpt lat="50.62804" lon="-127.704628" />
      <trkpt lat="50.628169" lon="-127.704515" />
      <trkpt lat="50.628251" lon="-127.704403" />
      <trkpt lat="50.628747" lon="-127.703571" />
      <trkpt lat="50.628849" lon="-127.703442" />
      <trkpt lat="50.628962" lon="-127.70334" />
      <trkpt lat="50.629023" lon="-127.703308" />
      <trkpt lat="50.629171" lon="-127.703281" />
      <trkpt lat="50.629346" lon="-127.703249" />
      <trkpt lat="50.629574" lon="-127.703147" />
      <trkpt lat="50.629713" lon="-127.703051" />
      <trkpt lat="50.629775" lon="-127.702981" />
      <trkpt lat="50.630033" lon="-127.702439" />
      <trkpt lat="50.63018" lon="-127.702267" />
      <trkpt lat="50.630346" lon="-127.70216" />
      <trkpt lat="50.63051" lon="-127.702096" />
      <trkpt lat="50.630618" lon="-127.702074" />
      <trkpt lat="50.631163" lon="-127.702042" />
      <trkpt lat="50.631299" lon="-127.70201" />
      <trkpt lat="50.631442" lon="-127.701929" />
      <trkpt lat="50.632272" lon="-127.701044" />
      <trkpt lat="50.632592" lon="-127.700814" />
      <trkpt lat="50.63282" lon="-127.700733" />
      <trkpt lat="50.63309" lon="-127.700701" />
      <trkpt lat="50.63334" lon="-127.700722" />
      <trkpt lat="50.633517" lon="-127.700765" />
      <trkpt lat="50.633857" lon="-127.700926" />
      <trkpt lat="50.63418" lon="-127.701023" />
      <trkpt lat="50.634351" lon="-127.701012" />
      <trkpt lat="50.6345" lon="-127.700932" />
      <trkpt lat="50.634704" lon="-127.700765" />
      <trkpt lat="50.635245" lon="-127.700261" />
      <trkpt lat="50.635324" lon="-127.70017" />
      <trkpt lat="50.635381" lon="-127.700073" />
      <trkpt lat="50.635603" lon="-127.699585" />
      <trkpt lat="50.635769" lon="-127.699279" />
      <trkpt lat="50.636195" lon="-127.698695" />
      <trkpt lat="50.636582" lon="-127.698088" />
      <trkpt lat="50.636702" lon="-127.697911" />
      <trkpt lat="50.636953" lon="-127.697713" />
      <trkpt lat="50.637283" lon="-127.697552" />
      <trkpt lat="50.637627" lon="-127.697455" />
      <trkpt lat="50.637899" lon="-127.697439" />
      <trkpt lat="50.63809" lon="-127.697471" />
      <trkpt lat="50.638426" lon="-127.697589" />
      <trkpt lat="50.638545" lon="-127.697611" />
      <trkpt lat="50.639566" lon="-127.697606" />
      <trkpt lat="50.640063" lon="-127.697654" />
      <trkpt lat="50.640315" lon="-127.697718" />
      <trkpt lat="50.640662" lon="-127.697842" />
      <trkpt lat="50.640876" lon="-127.697987" />
      <trkpt lat="50.641277" lon="-127.698383" />
      <trkpt lat="50.641499" lon="-127.698555" />
      <trkpt lat="50.641675" lon="-127.698679" />
      <trkpt lat="50.642189" lon="-127.699161" />
      <trkpt lat="50.642519" lon="-127.699446" />
      <trkpt lat="50.642781" lon="-127.699708" />
      <trkpt lat="50.643169" lon="-127.700197" />
      <trkpt lat="50.643744" lon="-127.700733" />
      <trkpt lat="50.643904" lon="-127.70076" />
      <trkpt lat="50.644139" lon="-127.700776" />
      <trkpt lat="50.644275" lon="-127.700878" />
      <trkpt lat="50.644394" lon="-127.701066" />
      <trkpt lat="50.644703" lon="-127.701296" />
      <trkpt lat="50.644768" lon="-127.701404" />
      <trkpt lat="50.644894" lon="-127.701785" />
      <trkpt lat="50.644993" lon="-127.701929" />
      <trkpt lat="50.645057" lon="-127.701978" />
      <trkpt lat="50.645159" lon="-127.702015" />
      <trkpt lat="50.645377" lon="-127.701972" />
      <trkpt lat="50.645503" lon="-127.701994" />
      <trkpt lat="50.645775" lon="-127.702149" />
      <trkpt lat="50.646139" lon="-127.702412" />
      <trkpt lat="50.64666" lon="-127.70253" />
      <trkpt lat="50.646945" lon="-127.702654" />
      <trkpt lat="50.647054" lon="-127.702729" />
      <trkpt lat="50.647173" lon="-127.702841" />
      <trkpt lat="50.647435" lon="-127.703163" />
      <trkpt lat="50.6475" lon="-127.703271" />
      <trkpt lat="50.648214" lon="-127.703249" />
      <trkpt lat="50.648922" lon="-127.703319" />
      <trkpt lat="50.649711" lon="-127.703362" />
      <trkpt lat="50.649858" lon="-127.703394" />
      <trkpt lat="50.650701" lon="-127.703732" />
      <trkpt lat="50.651229" lon="-127.704016" />
      <trkpt lat="50.651324" lon="-127.704081" />
      <trkpt lat="50.651426" lon="-127.704177" />
      <trkpt lat="50.651826" lon="-127.70465" />
      <trkpt lat="50.6521" lon="-127.705072" />
      <trkpt lat="50.652457" lon="-127.705679" />
      <trkpt lat="50.652648" lon="-127.705931" />
      <trkpt lat="50.652773" lon="-127.705807" />
      <trkpt lat="50.65296" lon="-127.705566" />
      <trkpt lat="50.65312" lon="-127.70548" />
      <trkpt lat="50.653239" lon="-127.705497" />
      <trkpt lat="50.653834" lon="-127.705786" />
      <trkpt lat="50.654059" lon="-127.705808" />
      <trkpt lat="50.654205" lon="-127.705765" />
      <trkpt lat="50.654341" lon="-127.70569" />
      <trkpt lat="50.654926" lon="-127.705271" />
      <trkpt lat="50.655018" lon="-127.705239" />
      <trkpt lat="50.655092" lon="-127.705239" />
      <trkpt lat="50.655249" lon="-127.705282" />
      <trkpt lat="50.655412" lon="-127.705362" />
      <trkpt lat="50.655725" lon="-127.705566" />
      <trkpt lat="50.656143" lon="-127.705754" />
      <trkpt lat="50.656262" lon="-127.705824" />
      <trkpt lat="50.656323" lon="-127.705883" />
      <trkpt lat="50.656439" lon="-127.70606" />
      <trkpt lat="50.656646" lon="-127.7065" />
      <trkpt lat="50.656735" lon="-127.70665" />
      <trkpt lat="50.656945" lon="-127.706929" />
      <trkpt lat="50.657078" lon="-127.707052" />
      <trkpt lat="50.657251" lon="-127.707127" />
      <trkpt lat="50.657418" lon="-127.707154" />
      <trkpt lat="50.657595" lon="-127.70716" />
      <trkpt lat="50.657693" lon="-127.707192" />
      <trkpt lat="50.657772" lon="-127.70724" />
      <trkpt lat="50.657846" lon="-127.70731" />
      <trkpt lat="50.657867" lon="-127.707374" />
      <trkpt lat="50.657884" lon="-127.707567" />
      <trkpt lat="50.657826" lon="-127.70952" />
      <trkpt lat="50.657853" lon="-127.710571" />
      <trkpt lat="50.657897" lon="-127.711151" />
      <trkpt lat="50.65803" lon="-127.711931" />
      <trkpt lat="50.658081" lon="-127.712481" />
      <trkpt lat="50.658163" lon="-127.713329" />
      <trkpt lat="50.65824" lon="-127.713393" />
      <trkpt lat="50.658517" lon="-127.713461" />
      <trkpt lat="50.658798" lon="-127.713533" />
      <trkpt lat="50.658875" lon="-127.71359" />
      <trkpt lat="50.65893" lon="-127.713683" />
      <trkpt lat="50.658989" lon="-127.713869" />
      <trkpt lat="50.659016" lon="-127.714048" />
      <trkpt lat="50.659011" lon="-127.714212" />
      <trkpt lat="50.659002" lon="-127.71457" />
      <trkpt lat="50.65902" lon="-127.71482" />
      <trkpt lat="50.659043" lon="-127.715092" />
      <trkpt lat="50.659066" lon="-127.715314" />
      <trkpt lat="50.659118" lon="-127.715523" />
      <trkpt lat="50.659195" lon="-127.715614" />
      <trkpt lat="50.660416" lon="-127.717084" />
      <trkpt lat="50.660566" lon="-127.717191" />
      <trkpt lat="50.66079" lon="-127.717288" />
      <trkpt lat="50.661072" lon="-127.717363" />
      <trkpt lat="50.661576" lon="-127.717529" />
      <trkpt lat="50.661821" lon="-127.717593" />
      <trkpt lat="50.662195" lon="-127.717663" />
      <trkpt lat="50.662382" lon="-127.717733" />
      <trkpt lat="50.662688" lon="-127.717964" />
      <trkpt lat="50.66278" lon="-127.718012" />
      <trkpt lat="50.66294" lon="-127.718033" />
      <trkpt lat="50.663106" lon="-127.718028" />
      <trkpt lat="50.663174" lon="-127.718049" />
      <trkpt lat="50.66328" lon="-127.718141" />
      <trkpt lat="50.663321" lon="-127.71821" />
      <trkpt lat="50.663355" lon="-127.71836" />
      <trkpt lat="50.663341" lon="-127.718559" />
      <trkpt lat="50.663293" lon="-127.718677" />
      <trkpt lat="50.663236" lon="-127.718741" />
      <trkpt lat="50.663123" lon="-127.718747" />
      <trkpt lat="50.662831" lon="-127.718645" />
      <trkpt lat="50.662423" lon="-127.718618" />
      <trkpt lat="50.6623" lon="-127.71865" />
      <trkpt lat="50.662154" lon="-127.718757" />
      <trkpt lat="50.662021" lon="-127.718902" />
      <trkpt lat="50.661453" lon="-127.719761" />
      <trkpt lat="50.661055" lon="-127.720281" />
      <trkpt lat="50.66094" lon="-127.720485" />
      <trkpt lat="50.660906" lon="-127.720608" />
      <trkpt lat="50.660906" lon="-127.720957" />
      <trkpt lat="50.660953" lon="-127.721236" />
      <trkpt lat="50.661086" lon="-127.721831" />
      <trkpt lat="50.661246" lon="-127.722357" />
      <trkpt lat="50.661334" lon="-127.722523" />
      <trkpt lat="50.661491" lon="-127.722711" />
      <trkpt lat="50.661654" lon="-127.723306" />
      <trkpt lat="50.661671" lon="-127.723446" />
      <trkpt lat="50.661651" lon="-127.723725" />
      <trkpt lat="50.661589" lon="-127.723988" />
      <trkpt lat="50.661576" lon="-127.724294" />
      <trkpt lat="50.661627" lon="-127.724562" />
      <trkpt lat="50.661765" lon="-127.724905" />
      <trkpt lat="50.661901" lon="-127.725323" />
      <trkpt lat="50.661983" lon="-127.725678" />
      <trkpt lat="50.661962" lon="-127.725871" />
      <trkpt lat="50.661928" lon="-127.726278" />
      <trkpt lat="50.661935" lon="-127.726665" />
      <trkpt lat="50.661969" lon="-127.727072" />
      <trkpt lat="50.661949" lon="-127.727512" />
      <trkpt lat="50.661874" lon="-127.728027" />
      <trkpt lat="50.661826" lon="-127.728585" />
      <trkpt lat="50.661731" lon="-127.728928" />
      <trkpt lat="50.661459" lon="-127.729755" />
      <trkpt lat="50.661255" lon="-127.730334" />
      <trkpt lat="50.661119" lon="-127.731053" />
      <trkpt lat="50.661031" lon="-127.731364" />
      <trkpt lat="50.661017" lon="-127.731772" />
      <trkpt lat="50.661051" lon="-127.73219" />
      <trkpt lat="50.661024" lon="-127.732501" />
      <trkpt lat="50.660949" lon="-127.732866" />
      <trkpt lat="50.660813" lon="-127.733209" />
      <trkpt lat="50.660561" lon="-127.733563" />
      <trkpt lat="50.660364" lon="-127.733853" />
      <trkpt lat="50.660187" lon="-127.734207" />
      <trkpt lat="50.660072" lon="-127.734733" />
      <trkpt lat="50.659963" lon="-127.735205" />
      <trkpt lat="50.65982" lon="-127.735655" />
      <trkpt lat="50.659691" lon="-127.735913" />
      <trkpt lat="50.659453" lon="-127.73616" />
      <trkpt lat="50.65933" lon="-127.736449" />
      <trkpt lat="50.659249" lon="-127.736793" />
      <trkpt lat="50.659235" lon="-127.73705" />
      <trkpt lat="50.659269" lon="-127.737265" />
      <trkpt lat="50.659514" lon="-127.737994" />
      <trkpt lat="50.6598" lon="-127.738885" />
      <trkpt lat="50.660058" lon="-127.739443" />
      <trkpt lat="50.660276" lon="-127.739711" />
      <trkpt lat="50.660514" lon="-127.739872" />
      <trkpt lat="50.660636" lon="-127.740033" />
      <trkpt lat="50.660738" lon="-127.740301" />
      <trkpt lat="50.660827" lon="-127.74073" />
      <trkpt lat="50.660949" lon="-127.741041" />
      <trkpt lat="50.661058" lon="-127.741309" />
      <trkpt lat="50.661146" lon="-127.741782" />
      <trkpt lat="50.661275" lon="-127.742307" />
      <trkpt lat="50.661541" lon="-127.743037" />
      <trkpt lat="50.661643" lon="-127.743402" />
      <trkpt lat="50.661813" lon="-127.743584" />
      <trkpt lat="50.66186" lon="-127.743841" />
      <trkpt lat="50.661935" lon="-127.743917" />
      <trkpt lat="50.661928" lon="-127.744099" />
      <trkpt lat="50.662105" lon="-127.744592" />
      <trkpt lat="50.662241" lon="-127.745075" />
      <trkpt lat="50.662336" lon="-127.745547" />
      <trkpt lat="50.662452" lon="-127.745891" />
      <trkpt lat="50.662486" lon="-127.745942" />
      <trkpt lat="50.662656" lon="-127.746202" />
      <trkpt lat="50.662955" lon="-127.746352" />
      <trkpt lat="50.6632" lon="-127.746363" />
      <trkpt lat="50.66354" lon="-127.746245" />
      <trkpt lat="50.663724" lon="-127.746277" />
      <trkpt lat="50.663935" lon="-127.746406" />
      <trkpt lat="50.664241" lon="-127.746717" />
      <trkpt lat="50.664349" lon="-127.74691" />
      <trkpt lat="50.664417" lon="-127.747253" />
      <trkpt lat="50.664472" lon="-127.747521" />
      <trkpt lat="50.66454" lon="-127.747715" />
      <trkpt lat="50.664689" lon="-127.747886" />
      <trkpt lat="50.664914" lon="-127.748154" />
      <trkpt lat="50.665009" lon="-127.748423" />
      <trkpt lat="50.665118" lon="-127.748948" />
      <trkpt lat="50.665295" lon="-127.749367" />
      <trkpt lat="50.66556" lon="-127.749957" />
      <trkpt lat="50.665655" lon="-127.7503" />
      <trkpt lat="50.665696" lon="-127.750611" />
      <trkpt lat="50.665703" lon="-127.751105" />
      <trkpt lat="50.66575" lon="-127.75148" />
      <trkpt lat="50.665886" lon="-127.752231" />
      <trkpt lat="50.665934" lon="-127.752532" />
      <trkpt lat="50.66622" lon="-127.753336" />
      <trkpt lat="50.666532" lon="-127.754088" />
      <trkpt lat="50.666709" lon="-127.754506" />
      <trkpt lat="50.666845" lon="-127.754892" />
      <trkpt lat="50.667008" lon="-127.755375" />
      <trkpt lat="50.667165" lon="-127.75574" />
      <trkpt lat="50.667416" lon="-127.756029" />
      <trkpt lat="50.667668" lon="-127.756394" />
      <trkpt lat="50.667865" lon="-127.756652" />
      <trkpt lat="50.668008" lon="-127.756941" />
      <trkpt lat="50.668192" lon="-127.757456" />
      <trkpt lat="50.668389" lon="-127.757821" />
      <trkpt lat="50.668552" lon="-127.758218" />
      <trkpt lat="50.66881" lon="-127.758905" />
      <trkpt lat="50.669076" lon="-127.759602" />
      <trkpt lat="50.669184" lon="-127.760063" />
      <trkpt lat="50.669334" lon="-127.7606" />
      <trkpt lat="50.66947" lon="-127.7609" />
      <trkpt lat="50.669633" lon="-127.761158" />
      <trkpt lat="50.669756" lon="-127.761469" />
      <trkpt lat="50.669892" lon="-127.761748" />
      <trkpt lat="50.670238" lon="-127.761962" />
      <trkpt lat="50.670551" lon="-127.762005" />
      <trkpt lat="50.670816" lon="-127.761887" />
      <trkpt lat="50.670946" lon="-127.76178" />
      <trkpt lat="50.671041" lon="-127.76149" />
      <trkpt lat="50.671156" lon="-127.761179" />
      <trkpt lat="50.671381" lon="-127.761051" />
      <trkpt lat="50.671646" lon="-127.760857" />
      <trkpt lat="50.671843" lon="-127.760814" />
      <trkpt lat="50.672101" lon="-127.760857" />
      <trkpt lat="50.672231" lon="-127.760836" />
      <trkpt lat="50.672285" lon="-127.760686" />
      <trkpt lat="50.672265" lon="-127.76046" />
      <trkpt lat="50.672285" lon="-127.760686" />
      <trkpt lat="50.672231" lon="-127.760836" />
      <trkpt lat="50.672101" lon="-127.760857" />
      <trkpt lat="50.671843" lon="-127.760814" />
      <trkpt lat="50.671646" lon="-127.760857" />
      <trkpt lat="50.671381" lon="-127.761051" />
      <trkpt lat="50.671156" lon="-127.761179" />
      <trkpt lat="50.671041" lon="-127.76149" />
      <trkpt lat="50.670946" lon="-127.76178" />
      <trkpt lat="50.670816" lon="-127.761887" />
      <trkpt lat="50.670551" lon="-127.762005" />
      <trkpt lat="50.670238" lon="-127.761962" />
      <trkpt lat="50.669892" lon="-127.761748" />
      <trkpt lat="50.669756" lon="-127.761469" />
      <trkpt lat="50.669633" lon="-127.761158" />
      <trkpt lat="50.66947" lon="-127.7609" />
      <trkpt lat="50.669334" lon="-127.7606" />
      <trkpt lat="50.669184" lon="-127.760063" />
      <trkpt lat="50.669076" lon="-127.759602" />
      <trkpt lat="50.66881" lon="-127.758905" />
      <trkpt lat="50.668552" lon="-127.758218" />
      <trkpt lat="50.668389" lon="-127.757821" />
      <trkpt lat="50.668192" lon="-127.757456" />
      <trkpt lat="50.668008" lon="-127.756941" />
      <trkpt lat="50.667865" lon="-127.756652" />
      <trkpt lat="50.667668" lon="-127.756394" />
      <trkpt lat="50.667416" lon="-127.756029" />
      <trkpt lat="50.667165" lon="-127.75574" />
      <trkpt lat="50.667008" lon="-127.755375" />
      <trkpt lat="50.666845" lon="-127.754892" />
      <trkpt lat="50.666709" lon="-127.754506" />
      <trkpt lat="50.666532" lon="-127.754088" />
      <trkpt lat="50.66622" lon="-127.753336" />
      <trkpt lat="50.665934" lon="-127.752532" />
      <trkpt lat="50.665886" lon="-127.752231" />
      <trkpt lat="50.66575" lon="-127.75148" />
      <trkpt lat="50.665703" lon="-127.751105" />
      <trkpt lat="50.665696" lon="-127.750611" />
      <trkpt lat="50.665655" lon="-127.7503" />
      <trkpt lat="50.66556" lon="-127.749957" />
      <trkpt lat="50.665295" lon="-127.749367" />
      <trkpt lat="50.665118" lon="-127.748948" />
      <trkpt lat="50.665009" lon="-127.748423" />
      <trkpt lat="50.664914" lon="-127.748154" />
      <trkpt lat="50.664689" lon="-127.747886" />
      <trkpt lat="50.66454" lon="-127.747715" />
      <trkpt lat="50.664472" lon="-127.747521" />
      <trkpt lat="50.664417" lon="-127.747253" />
      <trkpt lat="50.664349" lon="-127.74691" />
      <trkpt lat="50.664241" lon="-127.746717" />
      <trkpt lat="50.663935" lon="-127.746406" />
      <trkpt lat="50.663724" lon="-127.746277" />
      <trkpt lat="50.66354" lon="-127.746245" />
      <trkpt lat="50.6632" lon="-127.746363" />
      <trkpt lat="50.662955" lon="-127.746352" />
      <trkpt lat="50.662656" lon="-127.746202" />
      <trkpt lat="50.662452" lon="-127.745891" />
      <trkpt lat="50.662336" lon="-127.745547" />
      <trkpt lat="50.662241" lon="-127.745075" />
      <trkpt lat="50.662105" lon="-127.744592" />
      <trkpt lat="50.661928" lon="-127.744099" />
      <trkpt lat="50.661935" lon="-127.743917" />
      <trkpt lat="50.66186" lon="-127.743841" />
      <trkpt lat="50.661813" lon="-127.743584" />
      <trkpt lat="50.661643" lon="-127.743402" />
      <trkpt lat="50.661541" lon="-127.743037" />
      <trkpt lat="50.661275" lon="-127.742307" />
      <trkpt lat="50.661146" lon="-127.741782" />
      <trkpt lat="50.661058" lon="-127.741309" />
      <trkpt lat="50.660949" lon="-127.741041" />
      <trkpt lat="50.660827" lon="-127.74073" />
      <trkpt lat="50.660738" lon="-127.740301" />
      <trkpt lat="50.660636" lon="-127.740033" />
      <trkpt lat="50.660514" lon="-127.739872" />
      <trkpt lat="50.660276" lon="-127.739711" />
      <trkpt lat="50.660058" lon="-127.739443" />
      <trkpt lat="50.6598" lon="-127.738885" />
      <trkpt lat="50.659514" lon="-127.737994" />
      <trkpt lat="50.659269" lon="-127.737265" />
      <trkpt lat="50.659235" lon="-127.73705" />
      <trkpt lat="50.659249" lon="-127.736793" />
      <trkpt lat="50.65933" lon="-127.736449" />
      <trkpt lat="50.659453" lon="-127.73616" />
      <trkpt lat="50.659691" lon="-127.735913" />
      <trkpt lat="50.65982" lon="-127.735655" />
      <trkpt lat="50.659963" lon="-127.735205" />
      <trkpt lat="50.660072" lon="-127.734733" />
      <trkpt lat="50.660187" lon="-127.734207" />
      <trkpt lat="50.660364" lon="-127.733853" />
      <trkpt lat="50.660561" lon="-127.733563" />
      <trkpt lat="50.660813" lon="-127.733209" />
      <trkpt lat="50.660949" lon="-127.732866" />
      <trkpt lat="50.661024" lon="-127.732501" />
      <trkpt lat="50.661051" lon="-127.73219" />
      <trkpt lat="50.661017" lon="-127.731772" />
      <trkpt lat="50.661031" lon="-127.731364" />
      <trkpt lat="50.661119" lon="-127.731053" />
      <trkpt lat="50.661255" lon="-127.730334" />
      <trkpt lat="50.661459" lon="-127.729755" />
      <trkpt lat="50.661731" lon="-127.728928" />
      <trkpt lat="50.661826" lon="-127.728585" />
      <trkpt lat="50.661874" lon="-127.728027" />
      <trkpt lat="50.661949" lon="-127.727512" />
      <trkpt lat="50.661969" lon="-127.727072" />
      <trkpt lat="50.661935" lon="-127.726665" />
      <trkpt lat="50.661928" lon="-127.726278" />
      <trkpt lat="50.661962" lon="-127.725871" />
      <trkpt lat="50.661983" lon="-127.725678" />
      <trkpt lat="50.661901" lon="-127.725323" />
      <trkpt lat="50.661765" lon="-127.724905" />
      <trkpt lat="50.661627" lon="-127.724562" />
      <trkpt lat="50.661576" lon="-127.724294" />
      <trkpt lat="50.661589" lon="-127.723988" />
      <trkpt lat="50.661651" lon="-127.723725" />
      <trkpt lat="50.661671" lon="-127.723446" />
      <trkpt lat="50.661654" lon="-127.723306" />
      <trkpt lat="50.661491" lon="-127.722711" />
      <trkpt lat="50.661334" lon="-127.722523" />
      <trkpt lat="50.661246" lon="-127.722357" />
      <trkpt lat="50.661086" lon="-127.721831" />
      <trkpt lat="50.660953" lon="-127.721236" />
      <trkpt lat="50.660906" lon="-127.720957" />
      <trkpt lat="50.660906" lon="-127.720608" />
      <trkpt lat="50.66094" lon="-127.720485" />
      <trkpt lat="50.661055" lon="-127.720281" />
      <trkpt lat="50.661453" lon="-127.719761" />
      <trkpt lat="50.662021" lon="-127.718902" />
      <trkpt lat="50.662154" lon="-127.718757" />
      <trkpt lat="50.6623" lon="-127.71865" />
      <trkpt lat="50.662423" lon="-127.718618" />
      <trkpt lat="50.662831" lon="-127.718645" />
      <trkpt lat="50.663123" lon="-127.718747" />
      <trkpt lat="50.663236" lon="-127.718741" />
      <trkpt lat="50.663293" lon="-127.718677" />
      <trkpt lat="50.663341" lon="-127.718559" />
      <trkpt lat="50.663355" lon="-127.71836" />
      <trkpt lat="50.663321" lon="-127.71821" />
      <trkpt lat="50.66328" lon="-127.718141" />
      <trkpt lat="50.663174" lon="-127.718049" />
      <trkpt lat="50.663106" lon="-127.718028" />
      <trkpt lat="50.66294" lon="-127.718033" />
      <trkpt lat="50.66278" lon="-127.718012" />
      <trkpt lat="50.662688" lon="-127.717964" />
      <trkpt lat="50.662382" lon="-127.717733" />
      <trkpt lat="50.662195" lon="-127.717663" />
      <trkpt lat="50.661821" lon="-127.717593" />
      <trkpt lat="50.661576" lon="-127.717529" />
      <trkpt lat="50.661072" lon="-127.717363" />
      <trkpt lat="50.66079" lon="-127.717288" />
      <trkpt lat="50.660566" lon="-127.717191" />
      <trkpt lat="50.660416" lon="-127.717084" />
      <trkpt lat="50.659195" lon="-127.715614" />
      <trkpt lat="50.659118" lon="-127.715523" />
      <trkpt lat="50.659066" lon="-127.715314" />
      <trkpt lat="50.659043" lon="-127.715092" />
      <trkpt lat="50.65902" lon="-127.71482" />
      <trkpt lat="50.659002" lon="-127.71457" />
      <trkpt lat="50.659011" lon="-127.714212" />
      <trkpt lat="50.659016" lon="-127.714048" />
      <trkpt lat="50.658989" lon="-127.713869" />
      <trkpt lat="50.65893" lon="-127.713683" />
      <trkpt lat="50.658875" lon="-127.71359" />
      <trkpt lat="50.658798" lon="-127.713533" />
      <trkpt lat="50.658517" lon="-127.713461" />
      <trkpt lat="50.65824" lon="-127.713393" />
      <trkpt lat="50.658163" lon="-127.713329" />
      <trkpt lat="50.658081" lon="-127.712481" />
      <trkpt lat="50.65803" lon="-127.711931" />
      <trkpt lat="50.657897" lon="-127.711151" />
      <trkpt lat="50.657853" lon="-127.710571" />
      <trkpt lat="50.657826" lon="-127.70952" />
      <trkpt lat="50.657884" lon="-127.707567" />
      <trkpt lat="50.657867" lon="-127.707374" />
      <trkpt lat="50.657846" lon="-127.70731" />
      <trkpt lat="50.657772" lon="-127.70724" />
      <trkpt lat="50.657693" lon="-127.707192" />
      <trkpt lat="50.657595" lon="-127.70716" />
      <trkpt lat="50.657418" lon="-127.707154" />
      <trkpt lat="50.657251" lon="-127.707127" />
      <trkpt lat="50.657078" lon="-127.707052" />
      <trkpt lat="50.656945" lon="-127.706929" />
      <trkpt lat="50.656735" lon="-127.70665" />
      <trkpt lat="50.656646" lon="-127.7065" />
      <trkpt lat="50.656439" lon="-127.70606" />
      <trkpt lat="50.656323" lon="-127.705883" />
      <trkpt lat="50.656262" lon="-127.705824" />
      <trkpt lat="50.656143" lon="-127.705754" />
      <trkpt lat="50.655725" lon="-127.705566" />
      <trkpt lat="50.655412" lon="-127.705362" />
      <trkpt lat="50.655249" lon="-127.705282" />
      <trkpt lat="50.655092" lon="-127.705239" />
      <trkpt lat="50.655018" lon="-127.705239" />
      <trkpt lat="50.654926" lon="-127.705271" />
      <trkpt lat="50.654341" lon="-127.70569" />
      <trkpt lat="50.654205" lon="-127.705765" />
      <trkpt lat="50.654059" lon="-127.705808" />
      <trkpt lat="50.653834" lon="-127.705786" />
      <trkpt lat="50.653239" lon="-127.705497" />
      <trkpt lat="50.65312" lon="-127.70548" />
      <trkpt lat="50.65296" lon="-127.705566" />
      <trkpt lat="50.652773" lon="-127.705807" />
      <trkpt lat="50.652648" lon="-127.705931" />
      <trkpt lat="50.652457" lon="-127.705679" />
      <trkpt lat="50.6521" lon="-127.705072" />
      <trkpt lat="50.651826" lon="-127.70465" />
      <trkpt lat="50.651426" lon="-127.704177" />
      <trkpt lat="50.651324" lon="-127.704081" />
      <trkpt lat="50.651229" lon="-127.704016" />
      <trkpt lat="50.650701" lon="-127.703732" />
      <trkpt lat="50.649858" lon="-127.703394" />
      <trkpt lat="50.649711" lon="-127.703362" />
      <trkpt lat="50.648922" lon="-127.703319" />
      <trkpt lat="50.648214" lon="-127.703249" />
      <trkpt lat="50.6475" lon="-127.703271" />
      <trkpt lat="50.647435" lon="-127.703163" />
      <trkpt lat="50.647173" lon="-127.702841" />
      <trkpt lat="50.647054" lon="-127.702729" />
      <trkpt lat="50.646945" lon="-127.702654" />
      <trkpt lat="50.64666" lon="-127.70253" />
      <trkpt lat="50.646139" lon="-127.702412" />
      <trkpt lat="50.645775" lon="-127.702149" />
      <trkpt lat="50.645503" lon="-127.701994" />
      <trkpt lat="50.645377" lon="-127.701972" />
      <trkpt lat="50.645159" lon="-127.702015" />
      <trkpt lat="50.645057" lon="-127.701978" />
      <trkpt lat="50.644993" lon="-127.701929" />
      <trkpt lat="50.644894" lon="-127.701785" />
      <trkpt lat="50.644768" lon="-127.701404" />
      <trkpt lat="50.644703" lon="-127.701296" />
      <trkpt lat="50.644394" lon="-127.701066" />
      <trkpt lat="50.644275" lon="-127.700878" />
      <trkpt lat="50.644139" lon="-127.700776" />
      <trkpt lat="50.643904" lon="-127.70076" />
      <trkpt lat="50.643744" lon="-127.700733" />
      <trkpt lat="50.643169" lon="-127.700197" />
      <trkpt lat="50.642781" lon="-127.699708" />
      <trkpt lat="50.642519" lon="-127.699446" />
      <trkpt lat="50.642189" lon="-127.699161" />
      <trkpt lat="50.641675" lon="-127.698679" />
      <trkpt lat="50.641499" lon="-127.698555" />
      <trkpt lat="50.641277" lon="-127.698383" />
      <trkpt lat="50.640876" lon="-127.697987" />
      <trkpt lat="50.640662" lon="-127.697842" />
      <trkpt lat="50.640315" lon="-127.697718" />
      <trkpt lat="50.640063" lon="-127.697654" />
      <trkpt lat="50.639566" lon="-127.697606" />
      <trkpt lat="50.638545" lon="-127.697611" />
      <trkpt lat="50.638426" lon="-127.697589" />
      <trkpt lat="50.63809" lon="-127.697471" />
      <trkpt lat="50.637899" lon="-127.697439" />
      <trkpt lat="50.637627" lon="-127.697455" />
      <trkpt lat="50.637283" lon="-127.697552" />
      <trkpt lat="50.636953" lon="-127.697713" />
      <trkpt lat="50.636702" lon="-127.697911" />
      <trkpt lat="50.636582" lon="-127.698088" />
      <trkpt lat="50.636195" lon="-127.698695" />
      <trkpt lat="50.635769" lon="-127.699279" />
      <trkpt lat="50.635603" lon="-127.699585" />
      <trkpt lat="50.635381" lon="-127.700073" />
      <trkpt lat="50.635324" lon="-127.70017" />
      <trkpt lat="50.635245" lon="-127.700261" />
      <trkpt lat="50.634704" lon="-127.700765" />
      <trkpt lat="50.6345" lon="-127.700932" />
      <trkpt lat="50.634351" lon="-127.701012" />
      <trkpt lat="50.63418" lon="-127.701023" />
      <trkpt lat="50.633857" lon="-127.700926" />
      <trkpt lat="50.633517" lon="-127.700765" />
      <trkpt lat="50.63334" lon="-127.700722" />
      <trkpt lat="50.63309" lon="-127.700701" />
      <trkpt lat="50.63282" lon="-127.700733" />
      <trkpt lat="50.632592" lon="-127.700814" />
      <trkpt lat="50.632272" lon="-127.701044" />
      <trkpt lat="50.631442" lon="-127.701929" />
      <trkpt lat="50.631299" lon="-127.70201" />
      <trkpt lat="50.631163" lon="-127.702042" />
      <trkpt lat="50.630618" lon="-127.702074" />
      <trkpt lat="50.63051" lon="-127.702096" />
      <trkpt lat="50.630346" lon="-127.70216" />
      <trkpt lat="50.63018" lon="-127.702267" />
      <trkpt lat="50.630033" lon="-127.702439" />
      <trkpt lat="50.629775" lon="-127.702981" />
      <trkpt lat="50.629713" lon="-127.703051" />
      <trkpt lat="50.629574" lon="-127.703147" />
      <trkpt lat="50.629346" lon="-127.703249" />
      <trkpt lat="50.629171" lon="-127.703281" />
      <trkpt lat="50.629023" lon="-127.703308" />
      <trkpt lat="50.628962" lon="-127.70334" />
      <trkpt lat="50.628849" lon="-127.703442" />
      <trkpt lat="50.628747" lon="-127.703571" />
      <trkpt lat="50.628251" lon="-127.704403" />
      <trkpt lat="50.628169" lon="-127.704515" />
      <trkpt lat="50.62804" lon="-127.704628" />
      <trkpt lat="50.627907" lon="-127.704719" />
      <trkpt lat="50.627795" lon="-127.704746" />
      <trkpt lat="50.62754" lon="-127.704734" />
      <trkpt lat="50.627465" lon="-127.704731" />
      <trkpt lat="50.627335" lon="-127.704724" />
      <trkpt lat="50.626917" lon="-127.704682" />
      <trkpt lat="50.626611" lon="-127.704617" />
      <trkpt lat="50.625985" lon="-127.704564" />
      <trkpt lat="50.625236" lon="-127.70437" />
      <trkpt lat="50.625104" lon="-127.704263" />
      <trkpt lat="50.624752" lon="-127.704007" />
      <trkpt lat="50.624553" lon="-127.703907" />
      <trkpt lat="50.624389" lon="-127.703893" />
      <trkpt lat="50.624226" lon="-127.703878" />
      <trkpt lat="50.623936" lon="-127.703936" />
      <trkpt lat="50.623455" lon="-127.704107" />
      <trkpt lat="50.6233" lon="-127.704179" />
      <trkpt lat="50.623128" lon="-127.70435" />
      <trkpt lat="50.622937" lon="-127.704608" />
      <trkpt lat="50.622515" lon="-127.705089" />
      <trkpt lat="50.622363" lon="-127.705239" />
      <trkpt lat="50.621482" lon="-127.706087" />
      <trkpt lat="50.621383" lon="-127.706194" />
      <trkpt lat="50.621268" lon="-127.706355" />
      <trkpt lat="50.621203" lon="-127.706484" />
      <trkpt lat="50.621084" lon="-127.706811" />
      <trkpt lat="50.620958" lon="-127.707197" />
      <trkpt lat="50.62088" lon="-127.707573" />
      <trkpt lat="50.62075" lon="-127.708662" />
      <trkpt lat="50.620682" lon="-127.70952" />
      <trkpt lat="50.620645" lon="-127.709783" />
      <trkpt lat="50.620379" lon="-127.71092" />
      <trkpt lat="50.620192" lon="-127.71195" />
      <trkpt lat="50.620032" lon="-127.712658" />
      <trkpt lat="50.619927" lon="-127.712985" />
      <trkpt lat="50.619763" lon="-127.713297" />
      <trkpt lat="50.619624" lon="-127.713581" />
      <trkpt lat="50.619443" lon="-127.713897" />
      <trkpt lat="50.619072" lon="-127.714552" />
      <trkpt lat="50.618953" lon="-127.714783" />
      <trkpt lat="50.618851" lon="-127.715035" />
      <trkpt lat="50.618531" lon="-127.715882" />
      <trkpt lat="50.618405" lon="-127.716204" />
      <trkpt lat="50.618187" lon="-127.716816" />
      <trkpt lat="50.618123" lon="-127.717138" />
      <trkpt lat="50.618099" lon="-127.717266" />
      <trkpt lat="50.618072" lon="-127.717534" />
      <trkpt lat="50.618055" lon="-127.718264" />
      <trkpt lat="50.61801" lon="-127.719294" />
      <trkpt lat="50.618017" lon="-127.720067" />
      <trkpt lat="50.618041" lon="-127.720351" />
      <trkpt lat="50.618191" lon="-127.721204" />
      <trkpt lat="50.618344" lon="-127.722035" />
      <trkpt lat="50.618548" lon="-127.723055" />
      <trkpt lat="50.618592" lon="-127.723414" />
      <trkpt lat="50.618596" lon="-127.723736" />
      <trkpt lat="50.618528" lon="-127.724085" />
      <trkpt lat="50.618409" lon="-127.724433" />
      <trkpt lat="50.618313" lon="-127.724771" />
      <trkpt lat="50.61829" lon="-127.724964" />
      <trkpt lat="50.618259" lon="-127.725742" />
      <trkpt lat="50.618245" lon="-127.726005" />
      <trkpt lat="50.618204" lon="-127.726257" />
      <trkpt lat="50.618079" lon="-127.726745" />
      <trkpt lat="50.617803" lon="-127.727545" />
      <trkpt lat="50.617708" lon="-127.727963" />
      <trkpt lat="50.617469" lon="-127.729492" />
      <trkpt lat="50.617235" lon="-127.730248" />
      <trkpt lat="50.617115" lon="-127.730471" />
      <trkpt lat="50.616888" lon="-127.730328" />
      <trkpt lat="50.615181" lon="-127.728992" />
      <trkpt lat="50.614118" lon="-127.728139" />
      <trkpt lat="50.613661" lon="-127.727982" />
      <trkpt lat="50.611503" lon="-127.728124" />
      <trkpt lat="50.609014" lon="-127.728006" />
      <trkpt lat="50.608319" lon="-127.728027" />
      <trkpt lat="50.607298" lon="-127.727941" />
      <trkpt lat="50.606998" lon="-127.725988" />
      <trkpt lat="50.607019" lon="-127.725409" />
      <trkpt lat="50.607196" lon="-127.723971" />
      <trkpt lat="50.607312" lon="-127.722952" />
      <trkpt lat="50.607299" lon="-127.722148" />
      <trkpt lat="50.607203" lon="-127.72115" />
      <trkpt lat="50.606992" lon="-127.720184" />
      <trkpt lat="50.606808" lon="-127.718693" />
      <trkpt lat="50.606719" lon="-127.717716" />
      <trkpt lat="50.606658" lon="-127.717245" />
      <trkpt lat="50.606597" lon="-127.716569" />
      <trkpt lat="50.60661" lon="-127.715978" />
      <trkpt lat="50.606645" lon="-127.715389" />
      <trkpt lat="50.606774" lon="-127.714852" />
      <trkpt lat="50.606937" lon="-127.714455" />
      <trkpt lat="50.607468" lon="-127.713908" />
      <trkpt lat="50.607741" lon="-127.713664" />
      <trkpt lat="50.608153" lon="-127.71341" />
      <trkpt lat="50.608523" lon="-127.713221" />
      <trkpt lat="50.608967" lon="-127.712921" />
      <trkpt lat="50.609266" lon="-127.712524" />
      <trkpt lat="50.609613" lon="-127.711998" />
      <trkpt lat="50.609829" lon="-127.711206" />
      <trkpt lat="50.609947" lon="-127.710561" />
      <trkpt lat="50.610063" lon="-127.710207" />
      <trkpt lat="50.610287" lon="-127.709842" />
      <trkpt lat="50.610621" lon="-127.709444" />
      <trkpt lat="50.6111" lon="-127.709131" />
      <trkpt lat="50.611785" lon="-127.708715" />
      <trkpt lat="50.611908" lon="-127.708415" />
      <trkpt lat="50.611982" lon="-127.70805" />
      <trkpt lat="50.612044" lon="-127.707235" />
      <trkpt lat="50.612145" lon="-127.70629" />
      <trkpt lat="50.61231" lon="-127.70554" />
      <trkpt lat="50.612459" lon="-127.70496" />
      <trkpt lat="50.612847" lon="-127.704144" />
      <trkpt lat="50.613262" lon="-127.703318" />
      <trkpt lat="50.613794" lon="-127.702321" />
      <trkpt lat="50.614283" lon="-127.701537" />
      <trkpt lat="50.61521" lon="-127.700261" />
      <trkpt lat="50.616006" lon="-127.699467" />
      <trkpt lat="50.616707" lon="-127.698501" />
      <trkpt lat="50.617347" lon="-127.697793" />
      <trkpt lat="50.617844" lon="-127.697138" />
      <trkpt lat="50.618083" lon="-127.696506" />
      <trkpt lat="50.618334" lon="-127.695733" />
      <trkpt lat="50.61866" lon="-127.693705" />
      <trkpt lat="50.618817" lon="-127.69251" />
      <trkpt lat="50.619191" lon="-127.68965" />
      <trkpt lat="50.619872" lon="-127.68583" />
      <trkpt lat="50.619919" lon="-127.685103" />
      <trkpt lat="50.619886" lon="-127.683706" />
      <trkpt lat="50.619757" lon="-127.682591" />
      <trkpt lat="50.619702" lon="-127.681678" />
      <trkpt lat="50.619812" lon="-127.680025" />
      <trkpt lat="50.619838" lon="-127.679629" />
      <trkpt lat="50.619848" lon="-127.679446" />
      <trkpt lat="50.619934" lon="-127.677805" />
      <trkpt lat="50.620006" lon="-127.676872" />
      <trkpt lat="50.620022" lon="-127.676668" />
      <trkpt lat="50.620042" lon="-127.676388" />
      <trkpt lat="50.620287" lon="-127.672945" />
      <trkpt lat="50.620315" lon="-127.669093" />
      <trkpt lat="50.620301" lon="-127.66713" />
      <trkpt lat="50.620343" lon="-127.66566" />
      <trkpt lat="50.620321" lon="-127.663514" />
      <trkpt lat="50.620321" lon="-127.66095" />
      <trkpt lat="50.620268" lon="-127.65815" />
      <trkpt lat="50.620301" lon="-127.657817" />
      <trkpt lat="50.620506" lon="-127.655618" />
      <trkpt lat="50.620587" lon="-127.654062" />
      <trkpt lat="50.620573" lon="-127.653258" />
      <trkpt lat="50.620608" lon="-127.652078" />
      <trkpt lat="50.620622" lon="-127.651413" />
      <trkpt lat="50.620567" lon="-127.650832" />
      <trkpt lat="50.62043" lon="-127.650286" />
      <trkpt lat="50.620261" lon="-127.649578" />
      <trkpt lat="50.620152" lon="-127.64872" />
      <trkpt lat="50.620165" lon="-127.648204" />
      <trkpt lat="50.620287" lon="-127.647604" />
      <trkpt lat="50.620336" lon="-127.647164" />
      <trkpt lat="50.620281" lon="-127.646756" />
      <trkpt lat="50.620097" lon="-127.646359" />
      <trkpt lat="50.619852" lon="-127.645973" />
      <trkpt lat="50.61896" lon="-127.645039" />
      <trkpt lat="50.618552" lon="-127.644299" />
      <trkpt lat="50.618212" lon="-127.643484" />
      <trkpt lat="50.617876" lon="-127.642284" />
      <trkpt lat="50.617742" lon="-127.641424" />
      <trkpt lat="50.617524" lon="-127.640619" />
      <trkpt lat="50.617428" lon="-127.639761" />
      <trkpt lat="50.617326" lon="-127.637186" />
      <trkpt lat="50.617266" lon="-127.636617" />
      <trkpt lat="50.617014" lon="-127.635437" />
      <trkpt lat="50.616768" lon="-127.633216" />
      <trkpt lat="50.616653" lon="-127.631993" />
      <trkpt lat="50.616543" lon="-127.630459" />
      <trkpt lat="50.616496" lon="-127.629622" />
      <trkpt lat="50.61653" lon="-127.629107" />
      <trkpt lat="50.616612" lon="-127.628571" />
      <trkpt lat="50.616754" lon="-127.627777" />
      <trkpt lat="50.616789" lon="-127.62724" />
      <trkpt lat="50.616734" lon="-127.6265" />
      <trkpt lat="50.616687" lon="-127.626168" />
      <trkpt lat="50.616694" lon="-127.625513" />
      <trkpt lat="50.616762" lon="-127.624902" />
      <trkpt lat="50.61683" lon="-127.62399" />
      <trkpt lat="50.616802" lon="-127.62282" />
      <trkpt lat="50.616577" lon="-127.619816" />
      <trkpt lat="50.616585" lon="-127.617112" />
      <trkpt lat="50.616523" lon="-127.614215" />
      <trkpt lat="50.616509" lon="-127.612778" />
      <trkpt lat="50.616311" lon="-127.610924" />
      <trkpt lat="50.615965" lon="-127.608497" />
      <trkpt lat="50.615689" lon="-127.608086" />
      <trkpt lat="50.615217" lon="-127.607585" />
      <trkpt lat="50.614958" lon="-127.607285" />
      <trkpt lat="50.614733" lon="-127.60692" />
      <trkpt lat="50.613759" lon="-127.604677" />
      <trkpt lat="50.613453" lon="-127.602918" />
      <trkpt lat="50.613187" lon="-127.601641" />
      <trkpt lat="50.612827" lon="-127.600247" />
      <trkpt lat="50.612561" lon="-127.599324" />
      <trkpt lat="50.612493" lon="-127.599024" />
      <trkpt lat="50.612348" lon="-127.596504" />
      <trkpt lat="50.612303" lon="-127.595494" />
      <trkpt lat="50.612194" lon="-127.594324" />
      <trkpt lat="50.612071" lon="-127.59323" />
      <trkpt lat="50.61192" lon="-127.592459" />
      <trkpt lat="50.611758" lon="-127.591599" />
      <trkpt lat="50.611581" lon="-127.591095" />
      <trkpt lat="50.611225" lon="-127.590389" />
      <trkpt lat="50.610989" lon="-127.589679" />
      <trkpt lat="50.610859" lon="-127.588939" />
      <trkpt lat="50.610743" lon="-127.587813" />
      <trkpt lat="50.610614" lon="-127.586471" />
      <trkpt lat="50.610612" lon="-127.5857" />
      <trkpt lat="50.610675" lon="-127.584283" />
      <trkpt lat="50.610621" lon="-127.582854" />
      <trkpt lat="50.610604" lon="-127.58251" />
      <trkpt lat="50.6106" lon="-127.582432" />
      <trkpt lat="50.610538" lon="-127.582059" />
      <trkpt lat="50.61034" lon="-127.581159" />
      <trkpt lat="50.61018" lon="-127.580699" />
      <trkpt lat="50.610081" lon="-127.580202" />
      <trkpt lat="50.610044" lon="-127.579895" />
      <trkpt lat="50.610055" lon="-127.579434" />
      <trkpt lat="50.610281" lon="-127.577817" />
      <trkpt lat="50.610384" lon="-127.577214" />
      <trkpt lat="50.610651" lon="-127.57591" />
      <trkpt lat="50.610743" lon="-127.575157" />
      <trkpt lat="50.610772" lon="-127.574668" />
      <trkpt lat="50.611353" lon="-127.574511" />
      <trkpt lat="50.611571" lon="-127.574589" />
      <trkpt lat="50.611785" lon="-127.574573" />
      <trkpt lat="50.611925" lon="-127.574495" />
      <trkpt lat="50.612084" lon="-127.57438" />
      <trkpt lat="50.612459" lon="-127.574021" />
      <trkpt lat="50.612537" lon="-127.57395" />
      <trkpt lat="50.61306" lon="-127.573474" />
      <trkpt lat="50.613258" lon="-127.573042" />
      <trkpt lat="50.613624" lon="-127.571615" />
      <trkpt lat="50.613858" lon="-127.570702" />
      <trkpt lat="50.614091" lon="-127.570081" />
      <trkpt lat="50.614504" lon="-127.569217" />
      <trkpt lat="50.615146" lon="-127.567873" />
      <trkpt lat="50.616123" lon="-127.565831" />
      <trkpt lat="50.616406" lon="-127.565388" />
      <trkpt lat="50.61778" lon="-127.563237" />
      <trkpt lat="50.618128" lon="-127.562938" />
      <trkpt lat="50.618886" lon="-127.562664" />
      <trkpt lat="50.619227" lon="-127.5623" />
      <trkpt lat="50.619403" lon="-127.562007" />
      <trkpt lat="50.619527" lon="-127.561672" />
      <trkpt lat="50.620328" lon="-127.557431" />
      <trkpt lat="50.62039" lon="-127.556219" />
      <trkpt lat="50.620626" lon="-127.554694" />
      <trkpt lat="50.620715" lon="-127.553271" />
      <trkpt lat="50.620824" lon="-127.552618" />
      <trkpt lat="50.621112" lon="-127.551926" />
      <trkpt lat="50.622231" lon="-127.55014" />
      <trkpt lat="50.622406" lon="-127.549759" />
      <trkpt lat="50.622991" lon="-127.548488" />
      <trkpt lat="50.623014" lon="-127.548437" />
      <trkpt lat="50.62324" lon="-127.547977" />
      <trkpt lat="50.623316" lon="-127.547824" />
      <trkpt lat="50.623569" lon="-127.547077" />
      <trkpt lat="50.623681" lon="-127.546508" />
      <trkpt lat="50.623687" lon="-127.546411" />
      <trkpt lat="50.623732" lon="-127.545752" />
      <trkpt lat="50.623763" lon="-127.543357" />
      <trkpt lat="50.62385" lon="-127.541757" />
      <trkpt lat="50.624025" lon="-127.540456" />
      <trkpt lat="50.624239" lon="-127.53913" />
      <trkpt lat="50.624358" lon="-127.538755" />
      <trkpt lat="50.624558" lon="-127.538337" />
      <trkpt lat="50.624723" lon="-127.538095" />
      <trkpt lat="50.625" lon="-127.537769" />
      <trkpt lat="50.625056" lon="-127.537704" />
      <trkpt lat="50.625273" lon="-127.537337" />
      <trkpt lat="50.625696" lon="-127.536509" />
      <trkpt lat="50.625899" lon="-127.535888" />
      <trkpt lat="50.6261" lon="-127.535299" />
      <trkpt lat="50.626477" lon="-127.53427" />
      <trkpt lat="50.626879" lon="-127.533143" />
      <trkpt lat="50.627008" lon="-127.532722" />
      <trkpt lat="50.627066" lon="-127.532329" />
      <trkpt lat="50.627151" lon="-127.531431" />
      <trkpt lat="50.62718" lon="-127.531097" />
      <trkpt lat="50.627276" lon="-127.530694" />
      <trkpt lat="50.627629" lon="-127.529513" />
      <trkpt lat="50.628139" lon="-127.52811" />
      <trkpt lat="50.628228" lon="-127.527865" />
      <trkpt lat="50.629277" lon="-127.522407" />
      <trkpt lat="50.629486" lon="-127.52197" />
      <trkpt lat="50.629558" lon="-127.521904" />
      <trkpt lat="50.629699" lon="-127.521774" />
      <trkpt lat="50.629871" lon="-127.521681" />
      <trkpt lat="50.630442" lon="-127.521372" />
      <trkpt lat="50.63087" lon="-127.520955" />
      <trkpt lat="50.631946" lon="-127.519259" />
      <trkpt lat="50.63335" lon="-127.517046" />
      <trkpt lat="50.634226" lon="-127.516015" />
      <trkpt lat="50.634482" lon="-127.515809" />
      <trkpt lat="50.634888" lon="-127.515547" />
      <trkpt lat="50.635115" lon="-127.515404" />
      <trkpt lat="50.635419" lon="-127.515418" />
      <trkpt lat="50.63571" lon="-127.515565" />
      <trkpt lat="50.637729" lon="-127.517254" />
      <trkpt lat="50.638573" lon="-127.517999" />
      <trkpt lat="50.638989" lon="-127.518296" />
      <trkpt lat="50.639121" lon="-127.51839" />
      <trkpt lat="50.639591" lon="-127.518584" />
      <trkpt lat="50.640407" lon="-127.518778" />
      <trkpt lat="50.640613" lon="-127.518761" />
      <trkpt lat="50.640929" lon="-127.518703" />
      <trkpt lat="50.641574" lon="-127.518516" />
      <trkpt lat="50.641725" lon="-127.518409" />
      <trkpt lat="50.641823" lon="-127.518304" />
      <trkpt lat="50.6419" lon="-127.518186" />
      <trkpt lat="50.642368" lon="-127.517488" />
      <trkpt lat="50.642693" lon="-127.51711" />
      <trkpt lat="50.643243" lon="-127.516689" />
      <trkpt lat="50.64394" lon="-127.516467" />
      <trkpt lat="50.644374" lon="-127.516418" />
      <trkpt lat="50.644852" lon="-127.51627" />
      <trkpt lat="50.644906" lon="-127.516253" />
      <trkpt lat="50.645062" lon="-127.516191" />
      <trkpt lat="50.645092" lon="-127.516179" />
      <trkpt lat="50.645523" lon="-127.515848" />
      <trkpt lat="50.646871" lon="-127.514205" />
      <trkpt lat="50.647252" lon="-127.513912" />
      <trkpt lat="50.647272" lon="-127.513905" />
      <trkpt lat="50.64795" lon="-127.51365" />
      <trkpt lat="50.649553" lon="-127.513751" />
      <trkpt lat="50.650566" lon="-127.514028" />
      <trkpt lat="50.650893" lon="-127.514103" />
      <trkpt lat="50.652068" lon="-127.513953" />
      <trkpt lat="50.652477" lon="-127.513901" />
      <trkpt lat="50.652911" lon="-127.513736" />
      <trkpt lat="50.65374" lon="-127.51342" />
      <trkpt lat="50.654782" lon="-127.513367" />
      <trkpt lat="50.654829" lon="-127.513365" />
      <trkpt lat="50.655203" lon="-127.513245" />
      <trkpt lat="50.655366" lon="-127.513192" />
      <trkpt lat="50.656944" lon="-127.512462" />
      <trkpt lat="50.657559" lon="-127.512221" />
      <trkpt lat="50.659446" lon="-127.511482" />
      <trkpt lat="50.660551" lon="-127.511127" />
      <trkpt lat="50.661004" lon="-127.510886" />
      <trkpt lat="50.661981" lon="-127.510272" />
      <trkpt lat="50.66202" lon="-127.51026" />
      <trkpt lat="50.663231" lon="-127.509887" />
      <trkpt lat="50.66349" lon="-127.509807" />
      <trkpt lat="50.663995" lon="-127.509571" />
      <trkpt lat="50.664786" lon="-127.5092" />
      <trkpt lat="50.665362" lon="-127.50893" />
      <trkpt lat="50.665564" lon="-127.508835" />
      <trkpt lat="50.666444" lon="-127.508515" />
      <trkpt lat="50.667506" lon="-127.508435" />
      <trkpt lat="50.671282" lon="-127.507304" />
      <trkpt lat="50.672512" lon="-127.507095" />
      <trkpt lat="50.674711" lon="-127.506787" />
      <trkpt lat="50.6751" lon="-127.506721" />
      <trkpt lat="50.675897" lon="-127.506273" />
      <trkpt lat="50.676252" lon="-127.50614" />
      <trkpt lat="50.676656" lon="-127.506192" />
      <trkpt lat="50.677196" lon="-127.506516" />
      <trkpt lat="50.677733" lon="-127.506782" />
      <trkpt lat="50.678692" lon="-127.507423" />
      <trkpt lat="50.679077" lon="-127.507426" />
      <trkpt lat="50.67936" lon="-127.507276" />
      <trkpt lat="50.679809" lon="-127.506929" />
      <trkpt lat="50.680591" lon="-127.5061" />
      <trkpt lat="50.680887" lon="-127.505465" />
      <trkpt lat="50.680949" lon="-127.505331" />
      <trkpt lat="50.681181" lon="-127.50494" />
      <trkpt lat="50.68202" lon="-127.503519" />
      <trkpt lat="50.682532" lon="-127.502784" />
      <trkpt lat="50.682646" lon="-127.502672" />
      <trkpt lat="50.682737" lon="-127.502532" />
      <trkpt lat="50.682765" lon="-127.502489" />
      <trkpt lat="50.682932" lon="-127.502231" />
      <trkpt lat="50.683841" lon="-127.500767" />
      <trkpt lat="50.684257" lon="-127.5" />
      <trkpt lat="50.685326" lon="-127.498027" />
      <trkpt lat="50.686207" lon="-127.496402" />
      <trkpt lat="50.686534" lon="-127.495799" />
      <trkpt lat="50.687096" lon="-127.494762" />
      <trkpt lat="50.687116" lon="-127.494725" />
      <trkpt lat="50.6875" lon="-127.494129" />
      <trkpt lat="50.687562" lon="-127.494033" />
      <trkpt lat="50.688692" lon="-127.492279" />
      <trkpt lat="50.689346" lon="-127.491265" />
      <trkpt lat="50.689531" lon="-127.490872" />
      <trkpt lat="50.689556" lon="-127.490817" />
      <trkpt lat="50.690044" lon="-127.489184" />
      <trkpt lat="50.690062" lon="-127.489126" />
      <trkpt lat="50.690509" lon="-127.48831" />
      <trkpt lat="50.691024" lon="-127.487581" />
      <trkpt lat="50.691543" lon="-127.486744" />
      <trkpt lat="50.6917" lon="-127.48649" />
      <trkpt lat="50.691924" lon="-127.486255" />
      <trkpt lat="50.692177" lon="-127.486116" />
      <trkpt lat="50.693037" lon="-127.485942" />
      <trkpt lat="50.696022" lon="-127.484213" />
      <trkpt lat="50.697296" lon="-127.483693" />
      <trkpt lat="50.698139" lon="-127.483504" />
      <trkpt lat="50.698438" lon="-127.483367" />
      <trkpt lat="50.698925" lon="-127.483105" />
      <trkpt lat="50.699293" lon="-127.482854" />
      <trkpt lat="50.699467" lon="-127.48338" />
      <trkpt lat="50.69964" lon="-127.483923" />
      <trkpt lat="50.700016" lon="-127.484992" />
      <trkpt lat="50.700426" lon="-127.486162" />
      <trkpt lat="50.700882" lon="-127.487333" />
      <trkpt lat="50.701071" lon="-127.487809" />
      <trkpt lat="50.701226" lon="-127.48813" />
      <trkpt lat="50.701581" lon="-127.488755" />
      <trkpt lat="50.701915" lon="-127.489279" />
      <trkpt lat="50.7023" lon="-127.489801" />
      <trkpt lat="50.70271" lon="-127.490216" />
      <trkpt lat="50.703279" lon="-127.490703" />
      <trkpt lat="50.703685" lon="-127.49099" />
      <trkpt lat="50.70391" lon="-127.491157" />
      <trkpt lat="50.704223" lon="-127.491379" />
      <trkpt lat="50.704999" lon="-127.491884" />
      <trkpt lat="50.707143" lon="-127.493382" />
      <trkpt lat="50.707756" lon="-127.493802" />
      <trkpt lat="50.70785" lon="-127.493867" />
      <trkpt lat="50.707992" lon="-127.493965" />
      <trkpt lat="50.709003" lon="-127.494702" />
      <trkpt lat="50.709514" lon="-127.495067" />
      <trkpt lat="50.709955" lon="-127.495317" />
      <trkpt lat="50.710328" lon="-127.495458" />
      <trkpt lat="50.710663" lon="-127.495527" />
      <trkpt lat="50.711339" lon="-127.495551" />
      <trkpt lat="50.711649" lon="-127.495542" />
      <trkpt lat="50.712356" lon="-127.495548" />
      <trkpt lat="50.71276" lon="-127.495622" />
      <trkpt lat="50.713201" lon="-127.495769" />
      <trkpt lat="50.713585" lon="-127.495949" />
      <trkpt lat="50.713933" lon="-127.496164" />
      <trkpt lat="50.714298" lon="-127.496451" />
      <trkpt lat="50.714613" lon="-127.496744" />
      <trkpt lat="50.714781" lon="-127.49693" />
      <trkpt lat="50.715122" lon="-127.497371" />
      <trkpt lat="50.716109" lon="-127.498796" />
      <trkpt lat="50.716335" lon="-127.49911" />
      <trkpt lat="50.716614" lon="-127.499493" />
      <trkpt lat="50.716945" lon="-127.499932" />
      <trkpt lat="50.717239" lon="-127.500249" />
      <trkpt lat="50.717568" lon="-127.500548" />
      <trkpt lat="50.717925" lon="-127.500821" />
      <trkpt lat="50.718457" lon="-127.501139" />
      <trkpt lat="50.719011" lon="-127.501379" />
      <trkpt lat="50.719407" lon="-127.501474" />
      <trkpt lat="50.719633" lon="-127.501496" />
      <trkpt lat="50.719706" lon="-127.501467" />
      <trkpt lat="50.720141" lon="-127.501507" />
      <trkpt lat="50.720392" lon="-127.501483" />
      <trkpt lat="50.72064" lon="-127.50146" />
      <trkpt lat="50.720925" lon="-127.501383" />
      <trkpt lat="50.721014" lon="-127.501226" />
      <trkpt lat="50.721063" lon="-127.50112" />
      <trkpt lat="50.721081" lon="-127.50107" />
      <trkpt lat="50.720854" lon="-127.5" />
      <trkpt lat="50.72071" lon="-127.499322" />
      <trkpt lat="50.720624" lon="-127.498835" />
      <trkpt lat="50.720605" lon="-127.498726" />
      <trkpt lat="50.72056" lon="-127.498161" />
      <trkpt lat="50.720557" lon="-127.497712" />
      <trkpt lat="50.720596" lon="-127.497343" />
      <trkpt lat="50.720695" lon="-127.49672" />
      <trkpt lat="50.721049" lon="-127.495084" />
      <trkpt lat="50.72099" lon="-127.495057" />
    </trkseg>
  </trk>
</gpx>
