<?xml version="1.0" encoding="UTF-8"?>
<gpx version="1.1"
  creator="BC Backroads research map"
  xmlns="http://www.topografix.com/GPX/1/1"
  xmlns:xsi="http://www.w3.org/2001/XMLSchema-instance"
  xmlns:bcbr="https://konradstaniszewski.com/ns/bc-backroads/1"
  xsi:schemaLocation="http://www.topografix.com/GPX/1/1 http://www.topografix.com/GPX/1/1/gpx.xsd">
  <metadata>
    <name>RI-08 · Hurley River Road</name>
    <desc>Iconic Pemberton–Gold Bridge high pass with no services or cell coverage and rapidly changing washboard conditions. Coarse corridor geometry; not a turn-by-turn track. Verify land access, closures, gates, weather and field signage.</desc>
    <time>2026-09-09T00:00:00Z</time>
  </metadata>
  <trk>
    <name>Hurley River Road</name>
    <type>primary</type>
    <extensions>
      <bcbr:routeId>RI-08</bcbr:routeId>
      <bcbr:geometryPolicy>overview</bcbr:geometryPolicy>
      <bcbr:geometrySource>Coarse corridor overview</bcbr:geometrySource>
      <bcbr:pointCount>3</bcbr:pointCount>
    </extensions>
    <trkseg>
      <trkpt lat="50.32" lon="-122.805" />
      <trkpt lat="50.58" lon="-122.71" />
      <trkpt lat="50.85" lon="-122.835" />
    </trkseg>
  </trk>
</gpx>
