<?xml version="1.0" encoding="UTF-8"?>
<gpx version="1.1"
  creator="BC Backroads research map"
  xmlns="http://www.topografix.com/GPX/1/1"
  xmlns:xsi="http://www.w3.org/2001/XMLSchema-instance"
  xmlns:bcbr="https://konradstaniszewski.com/ns/bc-backroads/1"
  xsi:schemaLocation="http://www.topografix.com/GPX/1/1 http://www.topografix.com/GPX/1/1/gpx.xsd">
  <metadata>
    <name>RI-14 · Koocanusa motorized network</name>
    <desc>Dorr-Grasmere, Caven, Linklater, Kikomun and Gold Creek form a major managed East Kootenay riding area. Coarse corridor geometry; not a turn-by-turn track. Verify land access, closures, gates, weather and field signage.</desc>
    <time>2026-09-09T00:00:00Z</time>
  </metadata>
  <trk>
    <name>Koocanusa motorized network</name>
    <type>primary</type>
    <extensions>
      <bcbr:routeId>RI-14</bcbr:routeId>
      <bcbr:geometryPolicy>overview</bcbr:geometryPolicy>
      <bcbr:geometrySource>Coarse corridor overview</bcbr:geometrySource>
      <bcbr:pointCount>6</bcbr:pointCount>
    </extensions>
    <trkseg>
      <trkpt lat="49.14" lon="-115.06" />
      <trkpt lat="49.33" lon="-115.22" />
      <trkpt lat="49.5" lon="-115.23" />
      <trkpt lat="49.62" lon="-115.12" />
      <trkpt lat="49.4" lon="-115" />
      <trkpt lat="49.14" lon="-115.06" />
    </trkseg>
  </trk>
</gpx>
