<?xml version="1.0" encoding="UTF-8"?>
<gpx version="1.1"
  creator="BC Backroads research map"
  xmlns="http://www.topografix.com/GPX/1/1"
  xmlns:xsi="http://www.w3.org/2001/XMLSchema-instance"
  xmlns:bcbr="https://konradstaniszewski.com/ns/bc-backroads/1"
  xsi:schemaLocation="http://www.topografix.com/GPX/1/1 http://www.topografix.com/GPX/1/1/gpx.xsd">
  <metadata>
    <name>LM-16 · Liumchen East / Windy Knob</name>
    <desc>Water bars, ruts and steep loose grades; the emergency connector toward Cultus is not a public through route. Coarse corridor geometry; not a turn-by-turn track. Verify land access, closures, gates, weather and field signage.</desc>
    <time>2026-09-09T00:00:00Z</time>
  </metadata>
  <trk>
    <name>Liumchen East / Windy Knob</name>
    <type>spur</type>
    <extensions>
      <bcbr:routeId>LM-16</bcbr:routeId>
      <bcbr:geometryPolicy>overview</bcbr:geometryPolicy>
      <bcbr:geometrySource>Coarse corridor overview</bcbr:geometrySource>
      <bcbr:pointCount>3</bcbr:pointCount>
    </extensions>
    <trkseg>
      <trkpt lat="49.03" lon="-121.96" />
      <trkpt lat="49.02" lon="-121.89" />
      <trkpt lat="49.05" lon="-121.84" />
    </trkseg>
  </trk>
</gpx>
