<?xml version="1.0" encoding="UTF-8"?>
<gpx version="1.1"
  creator="BC Backroads research map"
  xmlns="http://www.topografix.com/GPX/1/1"
  xmlns:xsi="http://www.w3.org/2001/XMLSchema-instance"
  xmlns:bcbr="https://konradstaniszewski.com/ns/bc-backroads/1"
  xsi:schemaLocation="http://www.topografix.com/GPX/1/1 http://www.topografix.com/GPX/1/1/gpx.xsd">
  <metadata>
    <name>LM-14 · Lost Creek / Salisbury / Kenyon</name>
    <desc>Useful riding for about 10 km before sinkholes, deactivation and protected failed bridges. Coarse corridor geometry; not a turn-by-turn track. Verify land access, closures, gates, weather and field signage.</desc>
    <time>2026-09-09T00:00:00Z</time>
  </metadata>
  <trk>
    <name>Lost Creek / Salisbury / Kenyon</name>
    <type>spur</type>
    <extensions>
      <bcbr:routeId>LM-14</bcbr:routeId>
      <bcbr:geometryPolicy>overview</bcbr:geometryPolicy>
      <bcbr:geometrySource>Coarse corridor overview</bcbr:geometrySource>
      <bcbr:pointCount>3</bcbr:pointCount>
    </extensions>
    <trkseg>
      <trkpt lat="49.18" lon="-121.71" />
      <trkpt lat="49.21" lon="-121.62" />
      <trkpt lat="49.25" lon="-121.56" />
    </trkseg>
  </trk>
</gpx>
