<?xml version="1.0" encoding="UTF-8"?>
<gpx version="1.1"
  creator="BC Backroads research map"
  xmlns="http://www.topografix.com/GPX/1/1"
  xmlns:xsi="http://www.w3.org/2001/XMLSchema-instance"
  xmlns:bcbr="https://konradstaniszewski.com/ns/bc-backroads/1"
  xsi:schemaLocation="http://www.topografix.com/GPX/1/1 http://www.topografix.com/GPX/1/1/gpx.xsd">
  <metadata>
    <name>LM-08 · Lower Sunshine Coast network</name>
    <desc>B&amp;K, Sechelt Roberts, Wilson and Dakota contain strong fragments, but a seamless Port Mellon loop is not proven. Coarse corridor geometry; not a turn-by-turn track. Verify land access, closures, gates, weather and field signage.</desc>
    <time>2026-09-09T00:00:00Z</time>
  </metadata>
  <trk>
    <name>Lower Sunshine Coast network</name>
    <type>candidate</type>
    <extensions>
      <bcbr:routeId>LM-08</bcbr:routeId>
      <bcbr:geometryPolicy>overview</bcbr:geometryPolicy>
      <bcbr:geometrySource>Coarse corridor overview</bcbr:geometrySource>
      <bcbr:pointCount>4</bcbr:pointCount>
    </extensions>
    <trkseg>
      <trkpt lat="49.4" lon="-123.49" />
      <trkpt lat="49.46" lon="-123.7" />
      <trkpt lat="49.53" lon="-123.83" />
      <trkpt lat="49.38" lon="-123.64" />
    </trkseg>
  </trk>
</gpx>
