<?xml version="1.0" encoding="UTF-8"?>
<gpx version="1.1"
  creator="BC Backroads research map"
  xmlns="http://www.topografix.com/GPX/1/1"
  xmlns:xsi="http://www.w3.org/2001/XMLSchema-instance"
  xmlns:bcbr="https://konradstaniszewski.com/ns/bc-backroads/1"
  xsi:schemaLocation="http://www.topografix.com/GPX/1/1 http://www.topografix.com/GPX/1/1/gpx.xsd">
  <metadata>
    <name>LM-05 · Mamquam / Mount Mulligan</name>
    <desc>Approachable Squamish-area out-and-back with a rougher Ray Basin option; no legal continuation to Indian Arm. Road geometry derived from OpenStreetMap contributors under ODbL; route selection is an independently authored research overview. Verify land access, closures, gates, weather and field signage.</desc>
    <copyright author="OpenStreetMap contributors">
      <year>2026</year>
      <license>https://opendatacommons.org/licenses/odbl/1-0/</license>
    </copyright>
    <time>2026-09-09T00:00:00Z</time>
  </metadata>
  <trk>
    <name>Mamquam / Mount Mulligan</name>
    <type>spur</type>
    <extensions>
      <bcbr:routeId>LM-05</bcbr:routeId>
      <bcbr:geometryPolicy>overview</bcbr:geometryPolicy>
      <bcbr:geometrySource>OpenStreetMap road routing</bcbr:geometrySource>
      <bcbr:geometryUpdatedAt>2026-09-09</bcbr:geometryUpdatedAt>
      <bcbr:pointCount>812</bcbr:pointCount>
    </extensions>
    <trkseg>
      <trkpt lat="49.701544" lon="-123.147208" />
      <trkpt lat="49.701533" lon="-123.147275" />
      <trkpt lat="49.701527" lon="-123.147464" />
      <trkpt lat="49.701543" lon="-123.148709" />
      <trkpt lat="49.701554" lon="-123.149551" />
      <trkpt lat="49.701557" lon="-123.149767" />
      <trkpt lat="49.701564" lon="-123.149893" />
      <trkpt lat="49.701572" lon="-123.149983" />
      <trkpt lat="49.701646" lon="-123.149925" />
      <trkpt lat="49.702033" lon="-123.149616" />
      <trkpt lat="49.702312" lon="-123.149565" />
      <trkpt lat="49.702591" lon="-123.149562" />
      <trkpt lat="49.702876" lon="-123.149618" />
      <trkpt lat="49.702963" lon="-123.149635" />
      <trkpt lat="49.703021" lon="-123.149554" />
      <trkpt lat="49.70326" lon="-123.149248" />
      <trkpt lat="49.703285" lon="-123.149216" />
      <trkpt lat="49.703331" lon="-123.149153" />
      <trkpt lat="49.703436" lon="-123.149004" />
      <trkpt lat="49.703516" lon="-123.148873" />
      <trkpt lat="49.703741" lon="-123.148325" />
      <trkpt lat="49.70383" lon="-123.14805" />
      <trkpt lat="49.703931" lon="-123.147674" />
      <trkpt lat="49.703969" lon="-123.147512" />
      <trkpt lat="49.704006" lon="-123.14734" />
      <trkpt lat="49.704117" lon="-123.146785" />
      <trkpt lat="49.70421" lon="-123.1463" />
      <trkpt lat="49.704242" lon="-123.146124" />
      <trkpt lat="49.704233" lon="-123.145886" />
      <trkpt lat="49.704222" lon="-123.145747" />
      <trkpt lat="49.704193" lon="-123.145628" />
      <trkpt lat="49.70415" lon="-123.145529" />
      <trkpt lat="49.704125" lon="-123.1455" />
      <trkpt lat="49.704082" lon="-123.14545" />
      <trkpt lat="49.703989" lon="-123.145372" />
      <trkpt lat="49.703181" lon="-123.145003" />
      <trkpt lat="49.70261" lon="-123.144745" />
      <trkpt lat="49.702269" lon="-123.144681" />
      <trkpt lat="49.701767" lon="-123.144648" />
      <trkpt lat="49.701236" lon="-123.144642" />
      <trkpt lat="49.700769" lon="-123.144605" />
      <trkpt lat="49.70052" lon="-123.144572" />
      <trkpt lat="49.700276" lon="-123.144525" />
      <trkpt lat="49.699867" lon="-123.144409" />
      <trkpt lat="49.699605" lon="-123.144305" />
      <trkpt lat="49.69924" lon="-123.144152" />
      <trkpt lat="49.698458" lon="-123.14379" />
      <trkpt lat="49.698224" lon="-123.14371" />
      <trkpt lat="49.697902" lon="-123.143677" />
      <trkpt lat="49.697546" lon="-123.143697" />
      <trkpt lat="49.697212" lon="-123.143786" />
      <trkpt lat="49.696937" lon="-123.143899" />
      <trkpt lat="49.696549" lon="-123.144105" />
      <trkpt lat="49.696009" lon="-123.144456" />
      <trkpt lat="49.695453" lon="-123.14474" />
      <trkpt lat="49.695364" lon="-123.144786" />
      <trkpt lat="49.695227" lon="-123.144852" />
      <trkpt lat="49.695128" lon="-123.144901" />
      <trkpt lat="49.695117" lon="-123.144733" />
      <trkpt lat="49.695109" lon="-123.144641" />
      <trkpt lat="49.695106" lon="-123.144615" />
      <trkpt lat="49.69511" lon="-123.144505" />
      <trkpt lat="49.695146" lon="-123.144359" />
      <trkpt lat="49.69521" lon="-123.144255" />
      <trkpt lat="49.695301" lon="-123.144212" />
      <trkpt lat="49.695441" lon="-123.144174" />
      <trkpt lat="49.695739" lon="-123.144058" />
      <trkpt lat="49.695813" lon="-123.144006" />
      <trkpt lat="49.695905" lon="-123.143884" />
      <trkpt lat="49.695969" lon="-123.143762" />
      <trkpt lat="49.696038" lon="-123.143585" />
      <trkpt lat="49.696066" lon="-123.143487" />
      <trkpt lat="49.696105" lon="-123.143356" />
      <trkpt lat="49.696146" lon="-123.143219" />
      <trkpt lat="49.696396" lon="-123.142396" />
      <trkpt lat="49.696867" lon="-123.141009" />
      <trkpt lat="49.696935" lon="-123.14082" />
      <trkpt lat="49.696995" lon="-123.140664" />
      <trkpt lat="49.697068" lon="-123.140539" />
      <trkpt lat="49.697441" lon="-123.140026" />
      <trkpt lat="49.69759" lon="-123.13979" />
      <trkpt lat="49.697757" lon="-123.139421" />
      <trkpt lat="49.697803" lon="-123.139289" />
      <trkpt lat="49.697839" lon="-123.139129" />
      <trkpt lat="49.697867" lon="-123.138909" />
      <trkpt lat="49.697858" lon="-123.138666" />
      <trkpt lat="49.69783" lon="-123.138446" />
      <trkpt lat="49.697591" lon="-123.137752" />
      <trkpt lat="49.69758" lon="-123.13772" />
      <trkpt lat="49.697559" lon="-123.137658" />
      <trkpt lat="49.697625" lon="-123.137598" />
      <trkpt lat="49.697656" lon="-123.137571" />
      <trkpt lat="49.698237" lon="-123.137046" />
      <trkpt lat="49.699397" lon="-123.136082" />
      <trkpt lat="49.699723" lon="-123.135806" />
      <trkpt lat="49.699843" lon="-123.135676" />
      <trkpt lat="49.699928" lon="-123.135568" />
      <trkpt lat="49.700019" lon="-123.135432" />
      <trkpt lat="49.700102" lon="-123.135279" />
      <trkpt lat="49.700174" lon="-123.13511" />
      <trkpt lat="49.700258" lon="-123.134868" />
      <trkpt lat="49.700333" lon="-123.134617" />
      <trkpt lat="49.700772" lon="-123.133233" />
      <trkpt lat="49.700829" lon="-123.133085" />
      <trkpt lat="49.700947" lon="-123.132841" />
      <trkpt lat="49.701139" lon="-123.132478" />
      <trkpt lat="49.701143" lon="-123.13247" />
      <trkpt lat="49.701194" lon="-123.132366" />
      <trkpt lat="49.701285" lon="-123.132203" />
      <trkpt lat="49.701292" lon="-123.132188" />
      <trkpt lat="49.701846" lon="-123.131041" />
      <trkpt lat="49.701954" lon="-123.130803" />
      <trkpt lat="49.702369" lon="-123.129886" />
      <trkpt lat="49.702527" lon="-123.129545" />
      <trkpt lat="49.70259" lon="-123.129377" />
      <trkpt lat="49.702627" lon="-123.129252" />
      <trkpt lat="49.703043" lon="-123.127551" />
      <trkpt lat="49.703323" lon="-123.126472" />
      <trkpt lat="49.703616" lon="-123.125312" />
      <trkpt lat="49.70369" lon="-123.125001" />
      <trkpt lat="49.703718" lon="-123.124881" />
      <trkpt lat="49.7038" lon="-123.124549" />
      <trkpt lat="49.703947" lon="-123.123941" />
      <trkpt lat="49.704058" lon="-123.123475" />
      <trkpt lat="49.70409" lon="-123.123336" />
      <trkpt lat="49.704256" lon="-123.122659" />
      <trkpt lat="49.704333" lon="-123.12234" />
      <trkpt lat="49.704414" lon="-123.122095" />
      <trkpt lat="49.704694" lon="-123.121437" />
      <trkpt lat="49.705393" lon="-123.11992" />
      <trkpt lat="49.705454" lon="-123.119789" />
      <trkpt lat="49.705491" lon="-123.119699" />
      <trkpt lat="49.705525" lon="-123.119619" />
      <trkpt lat="49.705613" lon="-123.119408" />
      <trkpt lat="49.706033" lon="-123.118451" />
      <trkpt lat="49.706122" lon="-123.118204" />
      <trkpt lat="49.706183" lon="-123.117916" />
      <trkpt lat="49.706218" lon="-123.117638" />
      <trkpt lat="49.706261" lon="-123.117154" />
      <trkpt lat="49.706315" lon="-123.116716" />
      <trkpt lat="49.706379" lon="-123.116486" />
      <trkpt lat="49.70645" lon="-123.116268" />
      <trkpt lat="49.706557" lon="-123.1161" />
      <trkpt lat="49.7067" lon="-123.115925" />
      <trkpt lat="49.70679" lon="-123.115843" />
      <trkpt lat="49.707002" lon="-123.115742" />
      <trkpt lat="49.706985" lon="-123.115638" />
      <trkpt lat="49.706781" lon="-123.114443" />
      <trkpt lat="49.70658" lon="-123.113247" />
      <trkpt lat="49.706571" lon="-123.112325" />
      <trkpt lat="49.70657" lon="-123.112212" />
      <trkpt lat="49.706087" lon="-123.112209" />
      <trkpt lat="49.705843" lon="-123.112188" />
      <trkpt lat="49.705861" lon="-123.111685" />
      <trkpt lat="49.705908" lon="-123.111272" />
      <trkpt lat="49.705977" lon="-123.111026" />
      <trkpt lat="49.705991" lon="-123.110976" />
      <trkpt lat="49.70606" lon="-123.11085" />
      <trkpt lat="49.70652" lon="-123.110023" />
      <trkpt lat="49.706757" lon="-123.109436" />
      <trkpt lat="49.706846" lon="-123.109242" />
      <trkpt lat="49.706888" lon="-123.109026" />
      <trkpt lat="49.706907" lon="-123.108804" />
      <trkpt lat="49.706911" lon="-123.108407" />
      <trkpt lat="49.706906" lon="-123.107914" />
      <trkpt lat="49.706905" lon="-123.107882" />
      <trkpt lat="49.706893" lon="-123.107468" />
      <trkpt lat="49.70688" lon="-123.107302" />
      <trkpt lat="49.706854" lon="-123.107153" />
      <trkpt lat="49.706803" lon="-123.10692" />
      <trkpt lat="49.706648" lon="-123.106586" />
      <trkpt lat="49.706491" lon="-123.106413" />
      <trkpt lat="49.706451" lon="-123.106362" />
      <trkpt lat="49.706347" lon="-123.106233" />
      <trkpt lat="49.70628" lon="-123.106121" />
      <trkpt lat="49.706224" lon="-123.105988" />
      <trkpt lat="49.7062" lon="-123.105933" />
      <trkpt lat="49.706179" lon="-123.105883" />
      <trkpt lat="49.706136" lon="-123.105601" />
      <trkpt lat="49.706176" lon="-123.105386" />
      <trkpt lat="49.706206" lon="-123.10522" />
      <trkpt lat="49.706348" lon="-123.104651" />
      <trkpt lat="49.706584" lon="-123.1042" />
      <trkpt lat="49.706875" lon="-123.103621" />
      <trkpt lat="49.706893" lon="-123.103555" />
      <trkpt lat="49.706908" lon="-123.103501" />
      <trkpt lat="49.706927" lon="-123.103355" />
      <trkpt lat="49.706929" lon="-123.103197" />
      <trkpt lat="49.706917" lon="-123.10303" />
      <trkpt lat="49.70688" lon="-123.102732" />
      <trkpt lat="49.706874" lon="-123.102568" />
      <trkpt lat="49.706883" lon="-123.102381" />
      <trkpt lat="49.706901" lon="-123.102277" />
      <trkpt lat="49.706924" lon="-123.10219" />
      <trkpt lat="49.706976" lon="-123.102078" />
      <trkpt lat="49.707024" lon="-123.102009" />
      <trkpt lat="49.707109" lon="-123.101936" />
      <trkpt lat="49.707308" lon="-123.101805" />
      <trkpt lat="49.707418" lon="-123.10172" />
      <trkpt lat="49.707501" lon="-123.101626" />
      <trkpt lat="49.707653" lon="-123.101364" />
      <trkpt lat="49.707826" lon="-123.101056" />
      <trkpt lat="49.708039" lon="-123.100736" />
      <trkpt lat="49.708277" lon="-123.100424" />
      <trkpt lat="49.708701" lon="-123.099887" />
      <trkpt lat="49.708828" lon="-123.09967" />
      <trkpt lat="49.70901" lon="-123.099295" />
      <trkpt lat="49.709146" lon="-123.099101" />
      <trkpt lat="49.709567" lon="-123.0986" />
      <trkpt lat="49.709873" lon="-123.098021" />
      <trkpt lat="49.710157" lon="-123.097365" />
      <trkpt lat="49.710198" lon="-123.097241" />
      <trkpt lat="49.710448" lon="-123.096387" />
      <trkpt lat="49.710537" lon="-123.096175" />
      <trkpt lat="49.710645" lon="-123.095998" />
      <trkpt lat="49.710837" lon="-123.095762" />
      <trkpt lat="49.711025" lon="-123.095431" />
      <trkpt lat="49.711131" lon="-123.095213" />
      <trkpt lat="49.711173" lon="-123.095081" />
      <trkpt lat="49.711202" lon="-123.094866" />
      <trkpt lat="49.711238" lon="-123.094227" />
      <trkpt lat="49.711245" lon="-123.093768" />
      <trkpt lat="49.711275" lon="-123.093367" />
      <trkpt lat="49.711328" lon="-123.092898" />
      <trkpt lat="49.711444" lon="-123.092248" />
      <trkpt lat="49.711602" lon="-123.091599" />
      <trkpt lat="49.711627" lon="-123.091308" />
      <trkpt lat="49.711654" lon="-123.090895" />
      <trkpt lat="49.711683" lon="-123.090703" />
      <trkpt lat="49.711725" lon="-123.09059" />
      <trkpt lat="49.711785" lon="-123.090477" />
      <trkpt lat="49.711932" lon="-123.090203" />
      <trkpt lat="49.711994" lon="-123.090045" />
      <trkpt lat="49.712048" lon="-123.08988" />
      <trkpt lat="49.712121" lon="-123.089609" />
      <trkpt lat="49.712229" lon="-123.08875" />
      <trkpt lat="49.712315" lon="-123.087656" />
      <trkpt lat="49.712346" lon="-123.08696" />
      <trkpt lat="49.712452" lon="-123.086501" />
      <trkpt lat="49.712488" lon="-123.086114" />
      <trkpt lat="49.712481" lon="-123.085937" />
      <trkpt lat="49.712454" lon="-123.085765" />
      <trkpt lat="49.712308" lon="-123.08514" />
      <trkpt lat="49.71229" lon="-123.084988" />
      <trkpt lat="49.71228" lon="-123.084821" />
      <trkpt lat="49.712264" lon="-123.084533" />
      <trkpt lat="49.712233" lon="-123.084333" />
      <trkpt lat="49.712196" lon="-123.084157" />
      <trkpt lat="49.712094" lon="-123.083834" />
      <trkpt lat="49.712062" lon="-123.083685" />
      <trkpt lat="49.712045" lon="-123.083523" />
      <trkpt lat="49.712042" lon="-123.083398" />
      <trkpt lat="49.712045" lon="-123.083265" />
      <trkpt lat="49.712073" lon="-123.082933" />
      <trkpt lat="49.712098" lon="-123.082592" />
      <trkpt lat="49.712109" lon="-123.082372" />
      <trkpt lat="49.712138" lon="-123.082244" />
      <trkpt lat="49.712189" lon="-123.082112" />
      <trkpt lat="49.71226" lon="-123.081978" />
      <trkpt lat="49.712345" lon="-123.081834" />
      <trkpt lat="49.712465" lon="-123.0816" />
      <trkpt lat="49.71257" lon="-123.081317" />
      <trkpt lat="49.712678" lon="-123.080906" />
      <trkpt lat="49.712828" lon="-123.080229" />
      <trkpt lat="49.712886" lon="-123.079943" />
      <trkpt lat="49.712908" lon="-123.079755" />
      <trkpt lat="49.712916" lon="-123.079523" />
      <trkpt lat="49.71292" lon="-123.079295" />
      <trkpt lat="49.712925" lon="-123.079069" />
      <trkpt lat="49.712936" lon="-123.078845" />
      <trkpt lat="49.712972" lon="-123.078622" />
      <trkpt lat="49.713007" lon="-123.078456" />
      <trkpt lat="49.71305" lon="-123.078301" />
      <trkpt lat="49.713121" lon="-123.078101" />
      <trkpt lat="49.713232" lon="-123.077826" />
      <trkpt lat="49.713324" lon="-123.07757" />
      <trkpt lat="49.713406" lon="-123.077265" />
      <trkpt lat="49.713445" lon="-123.07704" />
      <trkpt lat="49.71347" lon="-123.076845" />
      <trkpt lat="49.713484" lon="-123.076488" />
      <trkpt lat="49.713491" lon="-123.076139" />
      <trkpt lat="49.713564" lon="-123.075511" />
      <trkpt lat="49.713697" lon="-123.074646" />
      <trkpt lat="49.713786" lon="-123.074311" />
      <trkpt lat="49.713845" lon="-123.074048" />
      <trkpt lat="49.713869" lon="-123.07389" />
      <trkpt lat="49.71389" lon="-123.073719" />
      <trkpt lat="49.713898" lon="-123.073524" />
      <trkpt lat="49.71389" lon="-123.073302" />
      <trkpt lat="49.713863" lon="-123.072882" />
      <trkpt lat="49.713811" lon="-123.072376" />
      <trkpt lat="49.713744" lon="-123.071907" />
      <trkpt lat="49.713695" lon="-123.071712" />
      <trkpt lat="49.713659" lon="-123.071487" />
      <trkpt lat="49.713641" lon="-123.071196" />
      <trkpt lat="49.713643" lon="-123.070695" />
      <trkpt lat="49.713663" lon="-123.070231" />
      <trkpt lat="49.713696" lon="-123.06969" />
      <trkpt lat="49.713716" lon="-123.069353" />
      <trkpt lat="49.71373" lon="-123.069085" />
      <trkpt lat="49.713772" lon="-123.068345" />
      <trkpt lat="49.713798" lon="-123.06797" />
      <trkpt lat="49.713817" lon="-123.067842" />
      <trkpt lat="49.713852" lon="-123.067729" />
      <trkpt lat="49.713895" lon="-123.067628" />
      <trkpt lat="49.713954" lon="-123.06754" />
      <trkpt lat="49.714126" lon="-123.067442" />
      <trkpt lat="49.714336" lon="-123.067223" />
      <trkpt lat="49.714438" lon="-123.067051" />
      <trkpt lat="49.714576" lon="-123.066757" />
      <trkpt lat="49.714664" lon="-123.066464" />
      <trkpt lat="49.714771" lon="-123.066027" />
      <trkpt lat="49.714937" lon="-123.065319" />
      <trkpt lat="49.715118" lon="-123.064632" />
      <trkpt lat="49.715395" lon="-123.063838" />
      <trkpt lat="49.715646" lon="-123.063275" />
      <trkpt lat="49.715783" lon="-123.06283" />
      <trkpt lat="49.716269" lon="-123.062208" />
      <trkpt lat="49.716408" lon="-123.061671" />
      <trkpt lat="49.71638" lon="-123.061135" />
      <trkpt lat="49.716547" lon="-123.060405" />
      <trkpt lat="49.716463" lon="-123.05959" />
      <trkpt lat="49.716449" lon="-123.059053" />
      <trkpt lat="49.716644" lon="-123.05841" />
      <trkpt lat="49.716696" lon="-123.058247" />
      <trkpt lat="49.716907" lon="-123.057826" />
      <trkpt lat="49.716941" lon="-123.057648" />
      <trkpt lat="49.716955" lon="-123.057507" />
      <trkpt lat="49.716952" lon="-123.057377" />
      <trkpt lat="49.716931" lon="-123.05724" />
      <trkpt lat="49.716884" lon="-123.057076" />
      <trkpt lat="49.716822" lon="-123.056937" />
      <trkpt lat="49.71675" lon="-123.056797" />
      <trkpt lat="49.716673" lon="-123.056634" />
      <trkpt lat="49.716641" lon="-123.056494" />
      <trkpt lat="49.716634" lon="-123.056383" />
      <trkpt lat="49.716647" lon="-123.056257" />
      <trkpt lat="49.716684" lon="-123.056134" />
      <trkpt lat="49.71673" lon="-123.055977" />
      <trkpt lat="49.716758" lon="-123.055805" />
      <trkpt lat="49.716782" lon="-123.055605" />
      <trkpt lat="49.716786" lon="-123.055448" />
      <trkpt lat="49.716771" lon="-123.055302" />
      <trkpt lat="49.716743" lon="-123.055154" />
      <trkpt lat="49.716669" lon="-123.054883" />
      <trkpt lat="49.716644" lon="-123.05474" />
      <trkpt lat="49.716649" lon="-123.054483" />
      <trkpt lat="49.71668" lon="-123.054241" />
      <trkpt lat="49.716723" lon="-123.053847" />
      <trkpt lat="49.71673" lon="-123.053654" />
      <trkpt lat="49.716727" lon="-123.053441" />
      <trkpt lat="49.716706" lon="-123.053189" />
      <trkpt lat="49.716671" lon="-123.052938" />
      <trkpt lat="49.716661" lon="-123.0526" />
      <trkpt lat="49.716602" lon="-123.052187" />
      <trkpt lat="49.716569" lon="-123.051955" />
      <trkpt lat="49.716542" lon="-123.051564" />
      <trkpt lat="49.71654" lon="-123.050927" />
      <trkpt lat="49.716627" lon="-123.050786" />
      <trkpt lat="49.71669" lon="-123.050571" />
      <trkpt lat="49.716777" lon="-123.050244" />
      <trkpt lat="49.716839" lon="-123.04981" />
      <trkpt lat="49.716912" lon="-123.049431" />
      <trkpt lat="49.716938" lon="-123.049378" />
      <trkpt lat="49.716968" lon="-123.049338" />
      <trkpt lat="49.717009" lon="-123.049322" />
      <trkpt lat="49.717047" lon="-123.049336" />
      <trkpt lat="49.717069" lon="-123.049362" />
      <trkpt lat="49.717091" lon="-123.049396" />
      <trkpt lat="49.717136" lon="-123.049507" />
      <trkpt lat="49.717165" lon="-123.049638" />
      <trkpt lat="49.717293" lon="-123.050341" />
      <trkpt lat="49.717318" lon="-123.051306" />
      <trkpt lat="49.717307" lon="-123.051843" />
      <trkpt lat="49.71737" lon="-123.052352" />
      <trkpt lat="49.717494" lon="-123.052749" />
      <trkpt lat="49.717564" lon="-123.053071" />
      <trkpt lat="49.717595" lon="-123.053388" />
      <trkpt lat="49.71764" lon="-123.053876" />
      <trkpt lat="49.71773" lon="-123.054064" />
      <trkpt lat="49.71764" lon="-123.053876" />
      <trkpt lat="49.717595" lon="-123.053388" />
      <trkpt lat="49.717564" lon="-123.053071" />
      <trkpt lat="49.717494" lon="-123.052749" />
      <trkpt lat="49.71737" lon="-123.052352" />
      <trkpt lat="49.717307" lon="-123.051843" />
      <trkpt lat="49.717318" lon="-123.051306" />
      <trkpt lat="49.717293" lon="-123.050341" />
      <trkpt lat="49.717293" lon="-123.050341" />
      <trkpt lat="49.717165" lon="-123.049638" />
      <trkpt lat="49.717136" lon="-123.049507" />
      <trkpt lat="49.717091" lon="-123.049396" />
      <trkpt lat="49.717069" lon="-123.049362" />
      <trkpt lat="49.717047" lon="-123.049336" />
      <trkpt lat="49.717009" lon="-123.049322" />
      <trkpt lat="49.716968" lon="-123.049338" />
      <trkpt lat="49.716938" lon="-123.049378" />
      <trkpt lat="49.716912" lon="-123.049431" />
      <trkpt lat="49.716839" lon="-123.04981" />
      <trkpt lat="49.716777" lon="-123.050244" />
      <trkpt lat="49.71669" lon="-123.050571" />
      <trkpt lat="49.716627" lon="-123.050786" />
      <trkpt lat="49.71654" lon="-123.050927" />
      <trkpt lat="49.716574" lon="-123.050427" />
      <trkpt lat="49.716634" lon="-123.049728" />
      <trkpt lat="49.716623" lon="-123.049586" />
      <trkpt lat="49.716589" lon="-123.049453" />
      <trkpt lat="49.716553" lon="-123.049355" />
      <trkpt lat="49.716513" lon="-123.04928" />
      <trkpt lat="49.716461" lon="-123.049226" />
      <trkpt lat="49.716409" lon="-123.049188" />
      <trkpt lat="49.716353" lon="-123.04916" />
      <trkpt lat="49.716269" lon="-123.049153" />
      <trkpt lat="49.716191" lon="-123.049158" />
      <trkpt lat="49.716096" lon="-123.049176" />
      <trkpt lat="49.715991" lon="-123.049182" />
      <trkpt lat="49.715896" lon="-123.049162" />
      <trkpt lat="49.715631" lon="-123.049027" />
      <trkpt lat="49.715381" lon="-123.048818" />
      <trkpt lat="49.714882" lon="-123.048367" />
      <trkpt lat="49.714493" lon="-123.047917" />
      <trkpt lat="49.714049" lon="-123.047423" />
      <trkpt lat="49.713837" lon="-123.047026" />
      <trkpt lat="49.713805" lon="-123.04691" />
      <trkpt lat="49.713784" lon="-123.046781" />
      <trkpt lat="49.713758" lon="-123.045964" />
      <trkpt lat="49.713771" lon="-123.045717" />
      <trkpt lat="49.713791" lon="-123.045623" />
      <trkpt lat="49.713823" lon="-123.045557" />
      <trkpt lat="49.713906" lon="-123.045461" />
      <trkpt lat="49.714158" lon="-123.045301" />
      <trkpt lat="49.714202" lon="-123.045273" />
      <trkpt lat="49.714248" lon="-123.045255" />
      <trkpt lat="49.714283" lon="-123.045252" />
      <trkpt lat="49.714321" lon="-123.045283" />
      <trkpt lat="49.714384" lon="-123.045392" />
      <trkpt lat="49.714506" lon="-123.045654" />
      <trkpt lat="49.71455" lon="-123.045731" />
      <trkpt lat="49.714595" lon="-123.045796" />
      <trkpt lat="49.714649" lon="-123.045849" />
      <trkpt lat="49.714735" lon="-123.045903" />
      <trkpt lat="49.714995" lon="-123.045995" />
      <trkpt lat="49.715126" lon="-123.04602" />
      <trkpt lat="49.715641" lon="-123.045889" />
      <trkpt lat="49.715794" lon="-123.045869" />
      <trkpt lat="49.715986" lon="-123.045844" />
      <trkpt lat="49.71607" lon="-123.045821" />
      <trkpt lat="49.716153" lon="-123.045779" />
      <trkpt lat="49.716278" lon="-123.045671" />
      <trkpt lat="49.716442" lon="-123.045527" />
      <trkpt lat="49.716554" lon="-123.045418" />
      <trkpt lat="49.716627" lon="-123.045326" />
      <trkpt lat="49.716708" lon="-123.045169" />
      <trkpt lat="49.716754" lon="-123.045031" />
      <trkpt lat="49.716778" lon="-123.044919" />
      <trkpt lat="49.716806" lon="-123.044787" />
      <trkpt lat="49.716859" lon="-123.044642" />
      <trkpt lat="49.716938" lon="-123.044518" />
      <trkpt lat="49.717136" lon="-123.044211" />
      <trkpt lat="49.717266" lon="-123.043992" />
      <trkpt lat="49.717381" lon="-123.043774" />
      <trkpt lat="49.717437" lon="-123.043598" />
      <trkpt lat="49.717538" lon="-123.043163" />
      <trkpt lat="49.717592" lon="-123.042967" />
      <trkpt lat="49.717669" lon="-123.0428" />
      <trkpt lat="49.717757" lon="-123.042643" />
      <trkpt lat="49.717811" lon="-123.042519" />
      <trkpt lat="49.717841" lon="-123.042393" />
      <trkpt lat="49.71785" lon="-123.042266" />
      <trkpt lat="49.717851" lon="-123.042137" />
      <trkpt lat="49.717848" lon="-123.041958" />
      <trkpt lat="49.717833" lon="-123.041749" />
      <trkpt lat="49.717791" lon="-123.041347" />
      <trkpt lat="49.717765" lon="-123.041156" />
      <trkpt lat="49.717749" lon="-123.040963" />
      <trkpt lat="49.717742" lon="-123.040779" />
      <trkpt lat="49.717731" lon="-123.04063" />
      <trkpt lat="49.717718" lon="-123.040495" />
      <trkpt lat="49.717691" lon="-123.040366" />
      <trkpt lat="49.717643" lon="-123.040247" />
      <trkpt lat="49.717462" lon="-123.039935" />
      <trkpt lat="49.7173" lon="-123.039702" />
      <trkpt lat="49.717222" lon="-123.039596" />
      <trkpt lat="49.717184" lon="-123.0395" />
      <trkpt lat="49.717158" lon="-123.039393" />
      <trkpt lat="49.717174" lon="-123.039178" />
      <trkpt lat="49.717253" lon="-123.03869" />
      <trkpt lat="49.717293" lon="-123.038421" />
      <trkpt lat="49.717336" lon="-123.038165" />
      <trkpt lat="49.71739" lon="-123.03782" />
      <trkpt lat="49.717404" lon="-123.037667" />
      <trkpt lat="49.717408" lon="-123.037485" />
      <trkpt lat="49.717389" lon="-123.037031" />
      <trkpt lat="49.717368" lon="-123.036766" />
      <trkpt lat="49.717324" lon="-123.036501" />
      <trkpt lat="49.717283" lon="-123.036224" />
      <trkpt lat="49.717143" lon="-123.035622" />
      <trkpt lat="49.717129" lon="-123.035496" />
      <trkpt lat="49.717128" lon="-123.035383" />
      <trkpt lat="49.717146" lon="-123.035252" />
      <trkpt lat="49.717168" lon="-123.035157" />
      <trkpt lat="49.717207" lon="-123.035045" />
      <trkpt lat="49.717416" lon="-123.034657" />
      <trkpt lat="49.717573" lon="-123.034444" />
      <trkpt lat="49.717652" lon="-123.03432" />
      <trkpt lat="49.717701" lon="-123.034213" />
      <trkpt lat="49.717732" lon="-123.034096" />
      <trkpt lat="49.717756" lon="-123.033954" />
      <trkpt lat="49.717761" lon="-123.033799" />
      <trkpt lat="49.71774" lon="-123.033634" />
      <trkpt lat="49.717694" lon="-123.033497" />
      <trkpt lat="49.717647" lon="-123.03335" />
      <trkpt lat="49.717616" lon="-123.03321" />
      <trkpt lat="49.717601" lon="-123.032618" />
      <trkpt lat="49.717684" lon="-123.031824" />
      <trkpt lat="49.71792" lon="-123.031158" />
      <trkpt lat="49.718111" lon="-123.030827" />
      <trkpt lat="49.718179" lon="-123.030718" />
      <trkpt lat="49.718278" lon="-123.03064" />
      <trkpt lat="49.718334" lon="-123.030549" />
      <trkpt lat="49.718359" lon="-123.030479" />
      <trkpt lat="49.71837" lon="-123.030407" />
      <trkpt lat="49.718359" lon="-123.030331" />
      <trkpt lat="49.71832" lon="-123.030254" />
      <trkpt lat="49.71828" lon="-123.030195" />
      <trkpt lat="49.71822" lon="-123.030122" />
      <trkpt lat="49.718169" lon="-123.030047" />
      <trkpt lat="49.718126" lon="-123.029949" />
      <trkpt lat="49.718101" lon="-123.02984" />
      <trkpt lat="49.718066" lon="-123.029654" />
      <trkpt lat="49.718059" lon="-123.029098" />
      <trkpt lat="49.718267" lon="-123.028541" />
      <trkpt lat="49.718628" lon="-123.028133" />
      <trkpt lat="49.718919" lon="-123.027425" />
      <trkpt lat="49.719058" lon="-123.02691" />
      <trkpt lat="49.719196" lon="-123.026738" />
      <trkpt lat="49.719007" lon="-123.026509" />
      <trkpt lat="49.71887" lon="-123.026372" />
      <trkpt lat="49.718772" lon="-123.026195" />
      <trkpt lat="49.718701" lon="-123.025983" />
      <trkpt lat="49.718639" lon="-123.025742" />
      <trkpt lat="49.718608" lon="-123.02557" />
      <trkpt lat="49.718601" lon="-123.02535" />
      <trkpt lat="49.718603" lon="-123.025155" />
      <trkpt lat="49.718644" lon="-123.024958" />
      <trkpt lat="49.718685" lon="-123.024848" />
      <trkpt lat="49.718708" lon="-123.024785" />
      <trkpt lat="49.718818" lon="-123.024547" />
      <trkpt lat="49.718962" lon="-123.024192" />
      <trkpt lat="49.718885" lon="-123.02413" />
      <trkpt lat="49.718882" lon="-123.023899" />
      <trkpt lat="49.718854" lon="-123.023561" />
      <trkpt lat="49.718882" lon="-123.023213" />
      <trkpt lat="49.718996" lon="-123.0228" />
      <trkpt lat="49.719" lon="-123.022483" />
      <trkpt lat="49.718937" lon="-123.022333" />
      <trkpt lat="49.718785" lon="-123.022134" />
      <trkpt lat="49.718497" lon="-123.02185" />
      <trkpt lat="49.718358" lon="-123.021721" />
      <trkpt lat="49.718254" lon="-123.021512" />
      <trkpt lat="49.718188" lon="-123.02119" />
      <trkpt lat="49.718115" lon="-123.020922" />
      <trkpt lat="49.718071" lon="-123.020816" />
      <trkpt lat="49.718014" lon="-123.020752" />
      <trkpt lat="49.717954" lon="-123.020721" />
      <trkpt lat="49.718028" lon="-123.020421" />
      <trkpt lat="49.718146" lon="-123.019968" />
      <trkpt lat="49.718211" lon="-123.019626" />
      <trkpt lat="49.718271" lon="-123.019281" />
      <trkpt lat="49.718285" lon="-123.018982" />
      <trkpt lat="49.718269" lon="-123.018652" />
      <trkpt lat="49.718202" lon="-123.018053" />
      <trkpt lat="49.718203" lon="-123.017861" />
      <trkpt lat="49.718235" lon="-123.017673" />
      <trkpt lat="49.718417" lon="-123.017006" />
      <trkpt lat="49.718435" lon="-123.01685" />
      <trkpt lat="49.718427" lon="-123.016588" />
      <trkpt lat="49.718383" lon="-123.016146" />
      <trkpt lat="49.718383" lon="-123.01575" />
      <trkpt lat="49.718363" lon="-123.015507" />
      <trkpt lat="49.718231" lon="-123.014928" />
      <trkpt lat="49.718044" lon="-123.013885" />
      <trkpt lat="49.717924" lon="-123.013402" />
      <trkpt lat="49.717865" lon="-123.013035" />
      <trkpt lat="49.71784" lon="-123.012803" />
      <trkpt lat="49.717819" lon="-123.012047" />
      <trkpt lat="49.717796" lon="-123.011694" />
      <trkpt lat="49.717762" lon="-123.011497" />
      <trkpt lat="49.717638" lon="-123.010909" />
      <trkpt lat="49.717619" lon="-123.010749" />
      <trkpt lat="49.717615" lon="-123.010602" />
      <trkpt lat="49.717601" lon="-123.009808" />
      <trkpt lat="49.717562" lon="-123.008999" />
      <trkpt lat="49.717568" lon="-123.008879" />
      <trkpt lat="49.717589" lon="-123.008774" />
      <trkpt lat="49.717616" lon="-123.008637" />
      <trkpt lat="49.7177" lon="-123.008289" />
      <trkpt lat="49.717885" lon="-123.007651" />
      <trkpt lat="49.718078" lon="-123.007001" />
      <trkpt lat="49.718168" lon="-123.006683" />
      <trkpt lat="49.718193" lon="-123.006538" />
      <trkpt lat="49.718209" lon="-123.006401" />
      <trkpt lat="49.718214" lon="-123.006268" />
      <trkpt lat="49.718205" lon="-123.006128" />
      <trkpt lat="49.718181" lon="-123.005949" />
      <trkpt lat="49.71814" lon="-123.005762" />
      <trkpt lat="49.718076" lon="-123.00551" />
      <trkpt lat="49.718003" lon="-123.005303" />
      <trkpt lat="49.717906" lon="-123.005055" />
      <trkpt lat="49.717838" lon="-123.004849" />
      <trkpt lat="49.717727" lon="-123.00439" />
      <trkpt lat="49.717634" lon="-123.004101" />
      <trkpt lat="49.717335" lon="-123.003322" />
      <trkpt lat="49.717305" lon="-123.003181" />
      <trkpt lat="49.717287" lon="-123.00306" />
      <trkpt lat="49.717269" lon="-123.002751" />
      <trkpt lat="49.717245" lon="-123.002084" />
      <trkpt lat="49.717233" lon="-123.001582" />
      <trkpt lat="49.71719" lon="-123.001229" />
      <trkpt lat="49.717172" lon="-123.000954" />
      <trkpt lat="49.717181" lon="-123.000737" />
      <trkpt lat="49.717207" lon="-123.000538" />
      <trkpt lat="49.717256" lon="-123.000341" />
      <trkpt lat="49.717329" lon="-123.000156" />
      <trkpt lat="49.717363" lon="-122.999988" />
      <trkpt lat="49.717368" lon="-122.999855" />
      <trkpt lat="49.717351" lon="-122.999723" />
      <trkpt lat="49.717312" lon="-122.999556" />
      <trkpt lat="49.717268" lon="-122.999432" />
      <trkpt lat="49.717098" lon="-122.999057" />
      <trkpt lat="49.716994" lon="-122.998838" />
      <trkpt lat="49.716938" lon="-122.998639" />
      <trkpt lat="49.716919" lon="-122.998456" />
      <trkpt lat="49.716923" lon="-122.998248" />
      <trkpt lat="49.717005" lon="-122.997744" />
      <trkpt lat="49.717041" lon="-122.997368" />
      <trkpt lat="49.717057" lon="-122.996903" />
      <trkpt lat="49.717089" lon="-122.996716" />
      <trkpt lat="49.717121" lon="-122.996604" />
      <trkpt lat="49.717165" lon="-122.996506" />
      <trkpt lat="49.717267" lon="-122.996446" />
      <trkpt lat="49.717511" lon="-122.996326" />
      <trkpt lat="49.717582" lon="-122.996316" />
      <trkpt lat="49.717835" lon="-122.996294" />
      <trkpt lat="49.718209" lon="-122.996317" />
      <trkpt lat="49.718653" lon="-122.996289" />
      <trkpt lat="49.718743" lon="-122.996202" />
      <trkpt lat="49.718868" lon="-122.996026" />
      <trkpt lat="49.719041" lon="-122.995641" />
      <trkpt lat="49.719069" lon="-122.995334" />
      <trkpt lat="49.719118" lon="-122.994583" />
      <trkpt lat="49.71909" lon="-122.994143" />
      <trkpt lat="49.718923" lon="-122.993585" />
      <trkpt lat="49.718792" lon="-122.993076" />
      <trkpt lat="49.718805" lon="-122.99292" />
      <trkpt lat="49.718835" lon="-122.992721" />
      <trkpt lat="49.719007" lon="-122.992673" />
      <trkpt lat="49.719229" lon="-122.992678" />
      <trkpt lat="49.7196" lon="-122.993038" />
      <trkpt lat="49.720207" lon="-122.993295" />
      <trkpt lat="49.720374" lon="-122.99335" />
      <trkpt lat="49.720488" lon="-122.993387" />
      <trkpt lat="49.721018" lon="-122.993612" />
      <trkpt lat="49.721238" lon="-122.99364" />
      <trkpt lat="49.721378" lon="-122.993629" />
      <trkpt lat="49.721491" lon="-122.993599" />
      <trkpt lat="49.721608" lon="-122.993528" />
      <trkpt lat="49.721707" lon="-122.993415" />
      <trkpt lat="49.721792" lon="-122.993286" />
      <trkpt lat="49.722147" lon="-122.992632" />
      <trkpt lat="49.722439" lon="-122.992073" />
      <trkpt lat="49.722779" lon="-122.991597" />
      <trkpt lat="49.72289" lon="-122.991361" />
      <trkpt lat="49.72295" lon="-122.991178" />
      <trkpt lat="49.722977" lon="-122.990947" />
      <trkpt lat="49.723047" lon="-122.98996" />
      <trkpt lat="49.723104" lon="-122.989757" />
      <trkpt lat="49.723293" lon="-122.989401" />
      <trkpt lat="49.723411" lon="-122.98917" />
      <trkpt lat="49.723425" lon="-122.989041" />
      <trkpt lat="49.723376" lon="-122.988864" />
      <trkpt lat="49.723352" lon="-122.988677" />
      <trkpt lat="49.723366" lon="-122.9885" />
      <trkpt lat="49.723449" lon="-122.988274" />
      <trkpt lat="49.723616" lon="-122.988119" />
      <trkpt lat="49.723706" lon="-122.987936" />
      <trkpt lat="49.723668" lon="-122.987668" />
      <trkpt lat="49.723647" lon="-122.987443" />
      <trkpt lat="49.72365" lon="-122.987314" />
      <trkpt lat="49.723772" lon="-122.987057" />
      <trkpt lat="49.724125" lon="-122.986363" />
      <trkpt lat="49.724274" lon="-122.986054" />
      <trkpt lat="49.724501" lon="-122.985684" />
      <trkpt lat="49.72464" lon="-122.985431" />
      <trkpt lat="49.72482" lon="-122.985033" />
      <trkpt lat="49.724945" lon="-122.984737" />
      <trkpt lat="49.725009" lon="-122.984493" />
      <trkpt lat="49.725019" lon="-122.984151" />
      <trkpt lat="49.725008" lon="-122.983226" />
      <trkpt lat="49.725023" lon="-122.98284" />
      <trkpt lat="49.725064" lon="-122.982686" />
      <trkpt lat="49.725147" lon="-122.982507" />
      <trkpt lat="49.725338" lon="-122.982177" />
      <trkpt lat="49.725468" lon="-122.981851" />
      <trkpt lat="49.725506" lon="-122.981625" />
      <trkpt lat="49.725524" lon="-122.981337" />
      <trkpt lat="49.725541" lon="-122.980936" />
      <trkpt lat="49.725545" lon="-122.980512" />
      <trkpt lat="49.725525" lon="-122.980238" />
      <trkpt lat="49.725492" lon="-122.979987" />
      <trkpt lat="49.725343" lon="-122.979266" />
      <trkpt lat="49.725293" lon="-122.978939" />
      <trkpt lat="49.725305" lon="-122.978517" />
      <trkpt lat="49.725303" lon="-122.977987" />
      <trkpt lat="49.725308" lon="-122.977415" />
      <trkpt lat="49.725305" lon="-122.976723" />
      <trkpt lat="49.725297" lon="-122.97626" />
      <trkpt lat="49.725308" lon="-122.976055" />
      <trkpt lat="49.72534" lon="-122.975871" />
      <trkpt lat="49.725467" lon="-122.975362" />
      <trkpt lat="49.725436" lon="-122.974713" />
      <trkpt lat="49.725412" lon="-122.974316" />
      <trkpt lat="49.725393" lon="-122.974065" />
      <trkpt lat="49.725428" lon="-122.973929" />
      <trkpt lat="49.725474" lon="-122.973857" />
      <trkpt lat="49.725531" lon="-122.973808" />
      <trkpt lat="49.725577" lon="-122.973806" />
      <trkpt lat="49.725635" lon="-122.973833" />
      <trkpt lat="49.72568" lon="-122.973887" />
      <trkpt lat="49.725833" lon="-122.974079" />
      <trkpt lat="49.726026" lon="-122.974434" />
      <trkpt lat="49.726084" lon="-122.97469" />
      <trkpt lat="49.726115" lon="-122.974962" />
      <trkpt lat="49.726113" lon="-122.975296" />
      <trkpt lat="49.726078" lon="-122.975815" />
      <trkpt lat="49.726107" lon="-122.976093" />
      <trkpt lat="49.726162" lon="-122.97641" />
      <trkpt lat="49.726171" lon="-122.976858" />
      <trkpt lat="49.726202" lon="-122.977039" />
      <trkpt lat="49.726259" lon="-122.977195" />
      <trkpt lat="49.726342" lon="-122.977313" />
      <trkpt lat="49.726393" lon="-122.977351" />
      <trkpt lat="49.726458" lon="-122.97737" />
      <trkpt lat="49.72651" lon="-122.977369" />
      <trkpt lat="49.726572" lon="-122.977348" />
      <trkpt lat="49.726737" lon="-122.977165" />
      <trkpt lat="49.726829" lon="-122.976983" />
      <trkpt lat="49.726895" lon="-122.976721" />
      <trkpt lat="49.726867" lon="-122.976366" />
      <trkpt lat="49.726853" lon="-122.976093" />
      <trkpt lat="49.726874" lon="-122.975707" />
      <trkpt lat="49.726974" lon="-122.975385" />
      <trkpt lat="49.727075" lon="-122.975004" />
      <trkpt lat="49.72715" lon="-122.974547" />
      <trkpt lat="49.727285" lon="-122.97365" />
      <trkpt lat="49.727343" lon="-122.973379" />
      <trkpt lat="49.727408" lon="-122.973159" />
      <trkpt lat="49.727644" lon="-122.972434" />
      <trkpt lat="49.727685" lon="-122.972207" />
      <trkpt lat="49.727698" lon="-122.971956" />
      <trkpt lat="49.727673" lon="-122.971679" />
      <trkpt lat="49.727717" lon="-122.971238" />
      <trkpt lat="49.727802" lon="-122.970682" />
      <trkpt lat="49.727938" lon="-122.970108" />
      <trkpt lat="49.728126" lon="-122.969548" />
      <trkpt lat="49.728206" lon="-122.969272" />
      <trkpt lat="49.728249" lon="-122.968935" />
      <trkpt lat="49.728288" lon="-122.968038" />
      <trkpt lat="49.728536" lon="-122.96745" />
      <trkpt lat="49.729112" lon="-122.966474" />
      <trkpt lat="49.729488" lon="-122.965919" />
      <trkpt lat="49.729825" lon="-122.965364" />
      <trkpt lat="49.730306" lon="-122.964393" />
      <trkpt lat="49.730631" lon="-122.963851" />
      <trkpt lat="49.730813" lon="-122.963603" />
      <trkpt lat="49.73116" lon="-122.963328" />
      <trkpt lat="49.731288" lon="-122.963304" />
      <trkpt lat="49.731454" lon="-122.963328" />
      <trkpt lat="49.731543" lon="-122.963304" />
      <trkpt lat="49.731664" lon="-122.963212" />
      <trkpt lat="49.732136" lon="-122.962573" />
      <trkpt lat="49.73233" lon="-122.962224" />
      <trkpt lat="49.732674" lon="-122.961608" />
      <trkpt lat="49.732847" lon="-122.961383" />
      <trkpt lat="49.732966" lon="-122.961297" />
      <trkpt lat="49.733179" lon="-122.961219" />
      <trkpt lat="49.733273" lon="-122.961131" />
      <trkpt lat="49.733432" lon="-122.960895" />
      <trkpt lat="49.733642" lon="-122.96062" />
      <trkpt lat="49.733843" lon="-122.960407" />
      <trkpt lat="49.734017" lon="-122.960291" />
      <trkpt lat="49.734183" lon="-122.960206" />
      <trkpt lat="49.734248" lon="-122.960152" />
      <trkpt lat="49.734372" lon="-122.959977" />
      <trkpt lat="49.734444" lon="-122.959836" />
      <trkpt lat="49.734591" lon="-122.959393" />
      <trkpt lat="49.73474" lon="-122.959074" />
      <trkpt lat="49.734837" lon="-122.958924" />
      <trkpt lat="49.734975" lon="-122.958772" />
      <trkpt lat="49.735046" lon="-122.958648" />
      <trkpt lat="49.735098" lon="-122.958516" />
      <trkpt lat="49.735131" lon="-122.958273" />
      <trkpt lat="49.735169" lon="-122.958085" />
      <trkpt lat="49.735255" lon="-122.957918" />
      <trkpt lat="49.73539" lon="-122.957763" />
      <trkpt lat="49.735562" lon="-122.957554" />
      <trkpt lat="49.735806" lon="-122.957217" />
      <trkpt lat="49.735895" lon="-122.957" />
      <trkpt lat="49.735947" lon="-122.956824" />
      <trkpt lat="49.735971" lon="-122.956526" />
      <trkpt lat="49.736" lon="-122.956358" />
      <trkpt lat="49.736008" lon="-122.956343" />
    </trkseg>
  </trk>
</gpx>
