<?xml version="1.0" encoding="UTF-8"?>
<gpx version="1.1"
  creator="BC Backroads research map"
  xmlns="http://www.topografix.com/GPX/1/1"
  xmlns:xsi="http://www.w3.org/2001/XMLSchema-instance"
  xmlns:bcbr="https://konradstaniszewski.com/ns/bc-backroads/1"
  xsi:schemaLocation="http://www.topografix.com/GPX/1/1 http://www.topografix.com/GPX/1/1/gpx.xsd">
  <metadata>
    <name>RI-23 · Mount 7 / Bowle-Evans</name>
    <desc>Compact, exposed Golden-area viewpoint road; more destination than cross-country connector. Road geometry derived from OpenStreetMap contributors under ODbL; route selection is an independently authored research overview. Verify land access, closures, gates, weather and field signage.</desc>
    <copyright author="OpenStreetMap contributors">
      <year>2026</year>
      <license>https://opendatacommons.org/licenses/odbl/1-0/</license>
    </copyright>
    <time>2026-09-09T00:00:00Z</time>
  </metadata>
  <trk>
    <name>Mount 7 / Bowle-Evans</name>
    <type>spur</type>
    <extensions>
      <bcbr:routeId>RI-23</bcbr:routeId>
      <bcbr:geometryPolicy>overview</bcbr:geometryPolicy>
      <bcbr:geometrySource>OpenStreetMap road routing</bcbr:geometrySource>
      <bcbr:geometryUpdatedAt>2026-09-09</bcbr:geometryUpdatedAt>
      <bcbr:pointCount>504</bcbr:pointCount>
    </extensions>
    <trkseg>
      <trkpt lat="51.300203" lon="-116.960013" />
      <trkpt lat="51.300207" lon="-116.959871" />
      <trkpt lat="51.300227" lon="-116.959499" />
      <trkpt lat="51.30027" lon="-116.959112" />
      <trkpt lat="51.300336" lon="-116.958577" />
      <trkpt lat="51.300458" lon="-116.95775" />
      <trkpt lat="51.300562" lon="-116.957081" />
      <trkpt lat="51.300674" lon="-116.956395" />
      <trkpt lat="51.300937" lon="-116.95498" />
      <trkpt lat="51.301038" lon="-116.954466" />
      <trkpt lat="51.301141" lon="-116.953921" />
      <trkpt lat="51.301599" lon="-116.951964" />
      <trkpt lat="51.301619" lon="-116.951661" />
      <trkpt lat="51.301623" lon="-116.951587" />
      <trkpt lat="51.301625" lon="-116.951505" />
      <trkpt lat="51.30162" lon="-116.951404" />
      <trkpt lat="51.301585" lon="-116.951278" />
      <trkpt lat="51.301532" lon="-116.951189" />
      <trkpt lat="51.301459" lon="-116.951093" />
      <trkpt lat="51.301403" lon="-116.951062" />
      <trkpt lat="51.301157" lon="-116.950928" />
      <trkpt lat="51.300956" lon="-116.952348" />
      <trkpt lat="51.300937" lon="-116.952507" />
      <trkpt lat="51.300922" lon="-116.952658" />
      <trkpt lat="51.300917" lon="-116.952792" />
      <trkpt lat="51.300928" lon="-116.95292" />
      <trkpt lat="51.300945" lon="-116.95303" />
      <trkpt lat="51.300975" lon="-116.953177" />
      <trkpt lat="51.301007" lon="-116.95329" />
      <trkpt lat="51.301045" lon="-116.953388" />
      <trkpt lat="51.301112" lon="-116.953533" />
      <trkpt lat="51.301168" lon="-116.953627" />
      <trkpt lat="51.301223" lon="-116.953694" />
      <trkpt lat="51.301263" lon="-116.953738" />
      <trkpt lat="51.301317" lon="-116.95379" />
      <trkpt lat="51.301368" lon="-116.953828" />
      <trkpt lat="51.301447" lon="-116.953874" />
      <trkpt lat="51.30158" lon="-116.953929" />
      <trkpt lat="51.301704" lon="-116.953891" />
      <trkpt lat="51.301772" lon="-116.953869" />
      <trkpt lat="51.301839" lon="-116.953849" />
      <trkpt lat="51.301878" lon="-116.953802" />
      <trkpt lat="51.301925" lon="-116.953777" />
      <trkpt lat="51.301995" lon="-116.953667" />
      <trkpt lat="51.302094" lon="-116.953466" />
      <trkpt lat="51.302187" lon="-116.95316" />
      <trkpt lat="51.302185" lon="-116.952982" />
      <trkpt lat="51.302173" lon="-116.952863" />
      <trkpt lat="51.30214" lon="-116.952701" />
      <trkpt lat="51.30203" lon="-116.952431" />
      <trkpt lat="51.30197" lon="-116.952373" />
      <trkpt lat="51.301932" lon="-116.952339" />
      <trkpt lat="51.301815" lon="-116.952322" />
      <trkpt lat="51.301755" lon="-116.95235" />
      <trkpt lat="51.301709" lon="-116.952389" />
      <trkpt lat="51.301661" lon="-116.952465" />
      <trkpt lat="51.301611" lon="-116.952567" />
      <trkpt lat="51.30145" lon="-116.953021" />
      <trkpt lat="51.301236" lon="-116.953974" />
      <trkpt lat="51.301023" lon="-116.955014" />
      <trkpt lat="51.300857" lon="-116.955901" />
      <trkpt lat="51.300759" lon="-116.956444" />
      <trkpt lat="51.300647" lon="-116.957112" />
      <trkpt lat="51.300547" lon="-116.957744" />
      <trkpt lat="51.300445" lon="-116.95845" />
      <trkpt lat="51.300349" lon="-116.959167" />
      <trkpt lat="51.30031" lon="-116.959589" />
      <trkpt lat="51.300282" lon="-116.96008" />
      <trkpt lat="51.300292" lon="-116.960503" />
      <trkpt lat="51.300325" lon="-116.961011" />
      <trkpt lat="51.300384" lon="-116.961512" />
      <trkpt lat="51.300474" lon="-116.961988" />
      <trkpt lat="51.300608" lon="-116.962437" />
      <trkpt lat="51.300717" lon="-116.96273" />
      <trkpt lat="51.300863" lon="-116.963046" />
      <trkpt lat="51.30109" lon="-116.963421" />
      <trkpt lat="51.301261" lon="-116.963633" />
      <trkpt lat="51.30142" lon="-116.963802" />
      <trkpt lat="51.301602" lon="-116.963941" />
      <trkpt lat="51.30181" lon="-116.964069" />
      <trkpt lat="51.302103" lon="-116.964204" />
      <trkpt lat="51.302872" lon="-116.964514" />
      <trkpt lat="51.303232" lon="-116.964622" />
      <trkpt lat="51.303559" lon="-116.964666" />
      <trkpt lat="51.303811" lon="-116.964663" />
      <trkpt lat="51.304995" lon="-116.964525" />
      <trkpt lat="51.305514" lon="-116.964563" />
      <trkpt lat="51.305859" lon="-116.96472" />
      <trkpt lat="51.306328" lon="-116.964954" />
      <trkpt lat="51.306669" lon="-116.965206" />
      <trkpt lat="51.306827" lon="-116.965363" />
      <trkpt lat="51.306922" lon="-116.965486" />
      <trkpt lat="51.306954" lon="-116.965541" />
      <trkpt lat="51.306977" lon="-116.965612" />
      <trkpt lat="51.307001" lon="-116.965744" />
      <trkpt lat="51.306958" lon="-116.965843" />
      <trkpt lat="51.30694" lon="-116.965878" />
      <trkpt lat="51.306528" lon="-116.966798" />
      <trkpt lat="51.305436" lon="-116.969348" />
      <trkpt lat="51.304948" lon="-116.970503" />
      <trkpt lat="51.304798" lon="-116.970886" />
      <trkpt lat="51.304698" lon="-116.971172" />
      <trkpt lat="51.304623" lon="-116.971512" />
      <trkpt lat="51.304595" lon="-116.971774" />
      <trkpt lat="51.304599" lon="-116.972072" />
      <trkpt lat="51.304669" lon="-116.972362" />
      <trkpt lat="51.304766" lon="-116.972593" />
      <trkpt lat="51.304909" lon="-116.972795" />
      <trkpt lat="51.305084" lon="-116.972928" />
      <trkpt lat="51.305265" lon="-116.972999" />
      <trkpt lat="51.305476" lon="-116.972964" />
      <trkpt lat="51.305624" lon="-116.972898" />
      <trkpt lat="51.305737" lon="-116.972795" />
      <trkpt lat="51.30587" lon="-116.972584" />
      <trkpt lat="51.305967" lon="-116.972392" />
      <trkpt lat="51.306067" lon="-116.972171" />
      <trkpt lat="51.30624" lon="-116.971669" />
      <trkpt lat="51.306288" lon="-116.97153" />
      <trkpt lat="51.306088" lon="-116.971287" />
      <trkpt lat="51.305706" lon="-116.970856" />
      <trkpt lat="51.303195" lon="-116.968007" />
      <trkpt lat="51.302446" lon="-116.96715" />
      <trkpt lat="51.302337" lon="-116.967044" />
      <trkpt lat="51.302256" lon="-116.966969" />
      <trkpt lat="51.301882" lon="-116.966694" />
      <trkpt lat="51.301459" lon="-116.966401" />
      <trkpt lat="51.301367" lon="-116.966325" />
      <trkpt lat="51.301245" lon="-116.96622" />
      <trkpt lat="51.301121" lon="-116.966104" />
      <trkpt lat="51.300458" lon="-116.965347" />
      <trkpt lat="51.299662" lon="-116.964425" />
      <trkpt lat="51.299508" lon="-116.964239" />
      <trkpt lat="51.299427" lon="-116.964147" />
      <trkpt lat="51.299353" lon="-116.964074" />
      <trkpt lat="51.299277" lon="-116.964017" />
      <trkpt lat="51.299194" lon="-116.963976" />
      <trkpt lat="51.299037" lon="-116.963941" />
      <trkpt lat="51.298628" lon="-116.963978" />
      <trkpt lat="51.298395" lon="-116.963997" />
      <trkpt lat="51.298351" lon="-116.964" />
      <trkpt lat="51.29818" lon="-116.964009" />
      <trkpt lat="51.298096" lon="-116.964005" />
      <trkpt lat="51.298047" lon="-116.963994" />
      <trkpt lat="51.298001" lon="-116.963976" />
      <trkpt lat="51.297971" lon="-116.963959" />
      <trkpt lat="51.297939" lon="-116.963936" />
      <trkpt lat="51.29788" lon="-116.963881" />
      <trkpt lat="51.297843" lon="-116.963834" />
      <trkpt lat="51.297805" lon="-116.963766" />
      <trkpt lat="51.297778" lon="-116.963691" />
      <trkpt lat="51.297725" lon="-116.963457" />
      <trkpt lat="51.297693" lon="-116.963354" />
      <trkpt lat="51.297663" lon="-116.963286" />
      <trkpt lat="51.297633" lon="-116.963232" />
      <trkpt lat="51.297564" lon="-116.963154" />
      <trkpt lat="51.29749" lon="-116.9631" />
      <trkpt lat="51.297429" lon="-116.96307" />
      <trkpt lat="51.297359" lon="-116.963059" />
      <trkpt lat="51.296243" lon="-116.963053" />
      <trkpt lat="51.296151" lon="-116.963051" />
      <trkpt lat="51.296059" lon="-116.963051" />
      <trkpt lat="51.295207" lon="-116.963049" />
      <trkpt lat="51.294254" lon="-116.963046" />
      <trkpt lat="51.2933" lon="-116.963044" />
      <trkpt lat="51.292345" lon="-116.963041" />
      <trkpt lat="51.291973" lon="-116.963041" />
      <trkpt lat="51.291427" lon="-116.963057" />
      <trkpt lat="51.291269" lon="-116.963059" />
      <trkpt lat="51.291088" lon="-116.963058" />
      <trkpt lat="51.290941" lon="-116.963028" />
      <trkpt lat="51.290769" lon="-116.962987" />
      <trkpt lat="51.290566" lon="-116.962923" />
      <trkpt lat="51.290373" lon="-116.962844" />
      <trkpt lat="51.290187" lon="-116.962747" />
      <trkpt lat="51.290004" lon="-116.962631" />
      <trkpt lat="51.289834" lon="-116.962515" />
      <trkpt lat="51.289636" lon="-116.962366" />
      <trkpt lat="51.289448" lon="-116.9622" />
      <trkpt lat="51.289239" lon="-116.961982" />
      <trkpt lat="51.289027" lon="-116.961751" />
      <trkpt lat="51.28882" lon="-116.961486" />
      <trkpt lat="51.28864" lon="-116.961201" />
      <trkpt lat="51.288442" lon="-116.960851" />
      <trkpt lat="51.288281" lon="-116.960528" />
      <trkpt lat="51.288081" lon="-116.960058" />
      <trkpt lat="51.287897" lon="-116.959506" />
      <trkpt lat="51.287775" lon="-116.959039" />
      <trkpt lat="51.287506" lon="-116.957812" />
      <trkpt lat="51.287056" lon="-116.955917" />
      <trkpt lat="51.286775" lon="-116.954761" />
      <trkpt lat="51.286623" lon="-116.954173" />
      <trkpt lat="51.286447" lon="-116.953623" />
      <trkpt lat="51.286233" lon="-116.953021" />
      <trkpt lat="51.285963" lon="-116.952345" />
      <trkpt lat="51.285765" lon="-116.951894" />
      <trkpt lat="51.285539" lon="-116.951449" />
      <trkpt lat="51.285161" lon="-116.950774" />
      <trkpt lat="51.283721" lon="-116.948736" />
      <trkpt lat="51.283416" lon="-116.948299" />
      <trkpt lat="51.28229" lon="-116.946696" />
      <trkpt lat="51.280561" lon="-116.944418" />
      <trkpt lat="51.2794" lon="-116.942812" />
      <trkpt lat="51.279107" lon="-116.942407" />
      <trkpt lat="51.278684" lon="-116.941765" />
      <trkpt lat="51.278101" lon="-116.940789" />
      <trkpt lat="51.277612" lon="-116.939899" />
      <trkpt lat="51.276563" lon="-116.937746" />
      <trkpt lat="51.275644" lon="-116.935721" />
      <trkpt lat="51.275247" lon="-116.934749" />
      <trkpt lat="51.274776" lon="-116.933937" />
      <trkpt lat="51.274328" lon="-116.933315" />
      <trkpt lat="51.273724" lon="-116.932615" />
      <trkpt lat="51.272652" lon="-116.931752" />
      <trkpt lat="51.270911" lon="-116.930135" />
      <trkpt lat="51.268636" lon="-116.928061" />
      <trkpt lat="51.263408" lon="-116.923311" />
      <trkpt lat="51.261505" lon="-116.921572" />
      <trkpt lat="51.260708" lon="-116.920758" />
      <trkpt lat="51.26012" lon="-116.920069" />
      <trkpt lat="51.259522" lon="-116.919292" />
      <trkpt lat="51.258915" lon="-116.918336" />
      <trkpt lat="51.258764" lon="-116.918092" />
      <trkpt lat="51.2574" lon="-116.915833" />
      <trkpt lat="51.256928" lon="-116.915119" />
      <trkpt lat="51.256369" lon="-116.914503" />
      <trkpt lat="51.255475" lon="-116.913769" />
      <trkpt lat="51.252744" lon="-116.911589" />
      <trkpt lat="51.25263" lon="-116.911795" />
      <trkpt lat="51.252488" lon="-116.911862" />
      <trkpt lat="51.252303" lon="-116.911743" />
      <trkpt lat="51.251724" lon="-116.911125" />
      <trkpt lat="51.251203" lon="-116.910719" />
      <trkpt lat="51.250885" lon="-116.910552" />
      <trkpt lat="51.250154" lon="-116.910321" />
      <trkpt lat="51.25" lon="-116.910327" />
      <trkpt lat="51.249789" lon="-116.910336" />
      <trkpt lat="51.247489" lon="-116.910619" />
      <trkpt lat="51.247291" lon="-116.910643" />
      <trkpt lat="51.246586" lon="-116.910545" />
      <trkpt lat="51.245955" lon="-116.910275" />
      <trkpt lat="51.245763" lon="-116.91013" />
      <trkpt lat="51.244903" lon="-116.909482" />
      <trkpt lat="51.244836" lon="-116.909659" />
      <trkpt lat="51.244404" lon="-116.910744" />
      <trkpt lat="51.244171" lon="-116.911359" />
      <trkpt lat="51.243452" lon="-116.912962" />
      <trkpt lat="51.243317" lon="-116.913258" />
      <trkpt lat="51.243033" lon="-116.91375" />
      <trkpt lat="51.241767" lon="-116.915472" />
      <trkpt lat="51.241747" lon="-116.92196" />
      <trkpt lat="51.24175" lon="-116.922969" />
      <trkpt lat="51.24432" lon="-116.92327" />
      <trkpt lat="51.2443" lon="-116.923945" />
      <trkpt lat="51.244406" lon="-116.925145" />
      <trkpt lat="51.244473" lon="-116.925576" />
      <trkpt lat="51.244425" lon="-116.925749" />
      <trkpt lat="51.244669" lon="-116.925763" />
      <trkpt lat="51.244807" lon="-116.925792" />
      <trkpt lat="51.245062" lon="-116.9259" />
      <trkpt lat="51.245149" lon="-116.925881" />
      <trkpt lat="51.245343" lon="-116.926144" />
      <trkpt lat="51.245416" lon="-116.926286" />
      <trkpt lat="51.245428" lon="-116.92645" />
      <trkpt lat="51.24542" lon="-116.92653" />
      <trkpt lat="51.24542" lon="-116.92653" />
      <trkpt lat="51.245368" lon="-116.92657" />
      <trkpt lat="51.245316" lon="-116.926629" />
      <trkpt lat="51.24528" lon="-116.92671" />
      <trkpt lat="51.245289" lon="-116.926798" />
      <trkpt lat="51.245284" lon="-116.926873" />
      <trkpt lat="51.245233" lon="-116.926914" />
      <trkpt lat="51.245141" lon="-116.926884" />
      <trkpt lat="51.245007" lon="-116.926844" />
      <trkpt lat="51.244903" lon="-116.926849" />
      <trkpt lat="51.244768" lon="-116.926898" />
      <trkpt lat="51.24472" lon="-116.926919" />
      <trkpt lat="51.244431" lon="-116.926796" />
      <trkpt lat="51.244387" lon="-116.926734" />
      <trkpt lat="51.244364" lon="-116.926589" />
      <trkpt lat="51.244359" lon="-116.926291" />
      <trkpt lat="51.244352" lon="-116.925891" />
      <trkpt lat="51.244387" lon="-116.925884" />
      <trkpt lat="51.244425" lon="-116.925749" />
      <trkpt lat="51.244473" lon="-116.925576" />
      <trkpt lat="51.244406" lon="-116.925145" />
      <trkpt lat="51.2443" lon="-116.923945" />
      <trkpt lat="51.24432" lon="-116.92327" />
      <trkpt lat="51.24175" lon="-116.922969" />
      <trkpt lat="51.241747" lon="-116.92196" />
      <trkpt lat="51.238738" lon="-116.919833" />
      <trkpt lat="51.237708" lon="-116.92131" />
      <trkpt lat="51.235239" lon="-116.924871" />
      <trkpt lat="51.233476" lon="-116.927418" />
      <trkpt lat="51.232228" lon="-116.926432" />
      <trkpt lat="51.231552" lon="-116.925898" />
      <trkpt lat="51.23045" lon="-116.925028" />
      <trkpt lat="51.230328" lon="-116.924932" />
      <trkpt lat="51.230008" lon="-116.924709" />
      <trkpt lat="51.229688" lon="-116.924551" />
      <trkpt lat="51.22943" lon="-116.924514" />
      <trkpt lat="51.229176" lon="-116.924565" />
      <trkpt lat="51.228954" lon="-116.924709" />
      <trkpt lat="51.228376" lon="-116.925301" />
      <trkpt lat="51.227982" lon="-116.925849" />
      <trkpt lat="51.227974" lon="-116.925854" />
      <trkpt lat="51.2279" lon="-116.925927" />
      <trkpt lat="51.227844" lon="-116.925988" />
      <trkpt lat="51.227781" lon="-116.926089" />
      <trkpt lat="51.227673" lon="-116.926247" />
      <trkpt lat="51.227655" lon="-116.926275" />
      <trkpt lat="51.227637" lon="-116.92629" />
      <trkpt lat="51.227574" lon="-116.926304" />
      <trkpt lat="51.227556" lon="-116.926304" />
      <trkpt lat="51.227511" lon="-116.926304" />
      <trkpt lat="51.22743" lon="-116.926304" />
      <trkpt lat="51.227349" lon="-116.926304" />
      <trkpt lat="51.227277" lon="-116.926276" />
      <trkpt lat="51.227214" lon="-116.926219" />
      <trkpt lat="51.227143" lon="-116.926147" />
      <trkpt lat="51.227071" lon="-116.926061" />
      <trkpt lat="51.226981" lon="-116.925961" />
      <trkpt lat="51.226918" lon="-116.925918" />
      <trkpt lat="51.226846" lon="-116.925861" />
      <trkpt lat="51.226765" lon="-116.92579" />
      <trkpt lat="51.226711" lon="-116.925718" />
      <trkpt lat="51.226648" lon="-116.925675" />
      <trkpt lat="51.226585" lon="-116.925604" />
      <trkpt lat="51.226522" lon="-116.925561" />
      <trkpt lat="51.226468" lon="-116.925504" />
      <trkpt lat="51.226396" lon="-116.925418" />
      <trkpt lat="51.226333" lon="-116.925361" />
      <trkpt lat="51.226252" lon="-116.925289" />
      <trkpt lat="51.226171" lon="-116.925232" />
      <trkpt lat="51.226099" lon="-116.925161" />
      <trkpt lat="51.226027" lon="-116.925089" />
      <trkpt lat="51.225955" lon="-116.925003" />
      <trkpt lat="51.225883" lon="-116.924932" />
      <trkpt lat="51.225811" lon="-116.924846" />
      <trkpt lat="51.225748" lon="-116.924789" />
      <trkpt lat="51.225712" lon="-116.924689" />
      <trkpt lat="51.225667" lon="-116.924531" />
      <trkpt lat="51.225658" lon="-116.924517" />
      <trkpt lat="51.225613" lon="-116.924374" />
      <trkpt lat="51.225568" lon="-116.924231" />
      <trkpt lat="51.225532" lon="-116.924116" />
      <trkpt lat="51.225523" lon="-116.924102" />
      <trkpt lat="51.225487" lon="-116.923987" />
      <trkpt lat="51.225478" lon="-116.923959" />
      <trkpt lat="51.225442" lon="-116.923887" />
      <trkpt lat="51.22537" lon="-116.923744" />
      <trkpt lat="51.225324" lon="-116.923644" />
      <trkpt lat="51.225252" lon="-116.923501" />
      <trkpt lat="51.225189" lon="-116.923444" />
      <trkpt lat="51.225126" lon="-116.923372" />
      <trkpt lat="51.225045" lon="-116.923272" />
      <trkpt lat="51.224991" lon="-116.923215" />
      <trkpt lat="51.22492" lon="-116.923143" />
      <trkpt lat="51.224857" lon="-116.9231" />
      <trkpt lat="51.224794" lon="-116.923072" />
      <trkpt lat="51.22474" lon="-116.923029" />
      <trkpt lat="51.224677" lon="-116.922972" />
      <trkpt lat="51.224623" lon="-116.922929" />
      <trkpt lat="51.224578" lon="-116.9229" />
      <trkpt lat="51.224488" lon="-116.922843" />
      <trkpt lat="51.224389" lon="-116.922743" />
      <trkpt lat="51.224299" lon="-116.922657" />
      <trkpt lat="51.224236" lon="-116.922586" />
      <trkpt lat="51.224173" lon="-116.922515" />
      <trkpt lat="51.224092" lon="-116.922386" />
      <trkpt lat="51.22402" lon="-116.922286" />
      <trkpt lat="51.223966" lon="-116.922214" />
      <trkpt lat="51.223912" lon="-116.922114" />
      <trkpt lat="51.223858" lon="-116.922042" />
      <trkpt lat="51.223804" lon="-116.921971" />
      <trkpt lat="51.22375" lon="-116.921871" />
      <trkpt lat="51.223687" lon="-116.921742" />
      <trkpt lat="51.223642" lon="-116.921613" />
      <trkpt lat="51.223588" lon="-116.921513" />
      <trkpt lat="51.223579" lon="-116.921499" />
      <trkpt lat="51.223525" lon="-116.921399" />
      <trkpt lat="51.223462" lon="-116.921284" />
      <trkpt lat="51.223408" lon="-116.921198" />
      <trkpt lat="51.223354" lon="-116.921141" />
      <trkpt lat="51.2233" lon="-116.921041" />
      <trkpt lat="51.223237" lon="-116.920941" />
      <trkpt lat="51.223183" lon="-116.920869" />
      <trkpt lat="51.223129" lon="-116.920798" />
      <trkpt lat="51.223075" lon="-116.920712" />
      <trkpt lat="51.223011" lon="-116.920626" />
      <trkpt lat="51.222931" lon="-116.920555" />
      <trkpt lat="51.222877" lon="-116.920483" />
      <trkpt lat="51.222859" lon="-116.920455" />
      <trkpt lat="51.222832" lon="-116.920412" />
      <trkpt lat="51.222787" lon="-116.920355" />
      <trkpt lat="51.222733" lon="-116.920283" />
      <trkpt lat="51.222679" lon="-116.920226" />
      <trkpt lat="51.222598" lon="-116.920126" />
      <trkpt lat="51.222526" lon="-116.920069" />
      <trkpt lat="51.222454" lon="-116.920011" />
      <trkpt lat="51.222373" lon="-116.919954" />
      <trkpt lat="51.222301" lon="-116.919897" />
      <trkpt lat="51.222238" lon="-116.919854" />
      <trkpt lat="51.222166" lon="-116.919797" />
      <trkpt lat="51.222094" lon="-116.919726" />
      <trkpt lat="51.222031" lon="-116.919683" />
      <trkpt lat="51.221941" lon="-116.919626" />
      <trkpt lat="51.221878" lon="-116.919569" />
      <trkpt lat="51.221797" lon="-116.919511" />
      <trkpt lat="51.221734" lon="-116.91944" />
      <trkpt lat="51.221662" lon="-116.919368" />
      <trkpt lat="51.221581" lon="-116.919311" />
      <trkpt lat="51.221518" lon="-116.919283" />
      <trkpt lat="51.221464" lon="-116.91924" />
      <trkpt lat="51.221446" lon="-116.919226" />
      <trkpt lat="51.221356" lon="-116.919126" />
      <trkpt lat="51.221329" lon="-116.919097" />
      <trkpt lat="51.221275" lon="-116.919054" />
      <trkpt lat="51.221203" lon="-116.919011" />
      <trkpt lat="51.221131" lon="-116.918997" />
      <trkpt lat="51.221104" lon="-116.918997" />
      <trkpt lat="51.221068" lon="-116.918997" />
      <trkpt lat="51.220987" lon="-116.918954" />
      <trkpt lat="51.220915" lon="-116.918883" />
      <trkpt lat="51.220843" lon="-116.918854" />
      <trkpt lat="51.220744" lon="-116.918797" />
      <trkpt lat="51.22069" lon="-116.91874" />
      <trkpt lat="51.220618" lon="-116.918669" />
      <trkpt lat="51.220528" lon="-116.918597" />
      <trkpt lat="51.220465" lon="-116.91854" />
      <trkpt lat="51.220402" lon="-116.918426" />
      <trkpt lat="51.220339" lon="-116.918311" />
      <trkpt lat="51.220276" lon="-116.918211" />
      <trkpt lat="51.220222" lon="-116.918111" />
      <trkpt lat="51.220159" lon="-116.917996" />
      <trkpt lat="51.220087" lon="-116.917896" />
      <trkpt lat="51.220033" lon="-116.91781" />
      <trkpt lat="51.219979" lon="-116.917753" />
      <trkpt lat="51.21997" lon="-116.917739" />
      <trkpt lat="51.219916" lon="-116.917668" />
      <trkpt lat="51.219862" lon="-116.91761" />
      <trkpt lat="51.21979" lon="-116.917539" />
      <trkpt lat="51.219727" lon="-116.917467" />
      <trkpt lat="51.219655" lon="-116.917425" />
      <trkpt lat="51.219565" lon="-116.917425" />
      <trkpt lat="51.21943" lon="-116.917439" />
      <trkpt lat="51.219341" lon="-116.917439" />
      <trkpt lat="51.219269" lon="-116.91744" />
      <trkpt lat="51.219179" lon="-116.917454" />
      <trkpt lat="51.219107" lon="-116.917454" />
      <trkpt lat="51.219035" lon="-116.917454" />
      <trkpt lat="51.218936" lon="-116.917469" />
      <trkpt lat="51.218855" lon="-116.917469" />
      <trkpt lat="51.218756" lon="-116.917483" />
      <trkpt lat="51.218675" lon="-116.917484" />
      <trkpt lat="51.218499" lon="-116.917462" />
      <trkpt lat="51.218277" lon="-116.917532" />
      <trkpt lat="51.218062" lon="-116.917591" />
      <trkpt lat="51.21783" lon="-116.917521" />
      <trkpt lat="51.217525" lon="-116.917473" />
      <trkpt lat="51.217253" lon="-116.917634" />
      <trkpt lat="51.21689" lon="-116.917855" />
      <trkpt lat="51.216507" lon="-116.917801" />
      <trkpt lat="51.215976" lon="-116.917565" />
      <trkpt lat="51.215627" lon="-116.917308" />
      <trkpt lat="51.215136" lon="-116.917276" />
      <trkpt lat="51.214572" lon="-116.917329" />
      <trkpt lat="51.214101" lon="-116.91704" />
      <trkpt lat="51.213409" lon="-116.916246" />
      <trkpt lat="51.212663" lon="-116.915173" />
      <trkpt lat="51.212321" lon="-116.914937" />
      <trkpt lat="51.211891" lon="-116.914841" />
      <trkpt lat="51.211306" lon="-116.914583" />
      <trkpt lat="51.210903" lon="-116.914583" />
      <trkpt lat="51.210466" lon="-116.914519" />
      <trkpt lat="51.20972" lon="-116.914036" />
      <trkpt lat="51.209196" lon="-116.913607" />
      <trkpt lat="51.208759" lon="-116.913092" />
      <trkpt lat="51.208228" lon="-116.912717" />
      <trkpt lat="51.20755" lon="-116.912545" />
      <trkpt lat="51.207106" lon="-116.91247" />
      <trkpt lat="51.206475" lon="-116.911666" />
      <trkpt lat="51.206011" lon="-116.911001" />
      <trkpt lat="51.205399" lon="-116.910518" />
      <trkpt lat="51.204855" lon="-116.910035" />
      <trkpt lat="51.204526" lon="-116.909767" />
      <trkpt lat="51.204183" lon="-116.909767" />
      <trkpt lat="51.203934" lon="-116.90996" />
      <trkpt lat="51.203706" lon="-116.9101" />
      <trkpt lat="51.20345" lon="-116.910046" />
      <trkpt lat="51.203222" lon="-116.909767" />
      <trkpt lat="51.202825" lon="-116.909435" />
      <trkpt lat="51.202637" lon="-116.909038" />
      <trkpt lat="51.202698" lon="-116.908727" />
      <trkpt lat="51.202807" lon="-116.908421" />
      <trkpt lat="51.202919" lon="-116.908105" />
      <trkpt lat="51.202933" lon="-116.907654" />
      <trkpt lat="51.202624" lon="-116.907268" />
      <trkpt lat="51.202254" lon="-116.906968" />
      <trkpt lat="51.201769" lon="-116.906607" />
      <trkpt lat="51.200976" lon="-116.906242" />
      <trkpt lat="51.200183" lon="-116.905942" />
      <trkpt lat="51.199524" lon="-116.905727" />
      <trkpt lat="51.198919" lon="-116.905191" />
      <trkpt lat="51.198561" lon="-116.904924" />
    </trkseg>
  </trk>
</gpx>
