<?xml version="1.0" encoding="UTF-8"?>
<gpx version="1.1"
  creator="BC Backroads research map"
  xmlns="http://www.topografix.com/GPX/1/1"
  xmlns:xsi="http://www.w3.org/2001/XMLSchema-instance"
  xmlns:bcbr="https://konradstaniszewski.com/ns/bc-backroads/1"
  xsi:schemaLocation="http://www.topografix.com/GPX/1/1 http://www.topografix.com/GPX/1/1/gpx.xsd">
  <metadata>
    <name>LM-19 · Nickelmine riding area</name>
    <desc>Established green through expert motorcycle network north of Hope; a riding destination, not a through route. Coarse corridor geometry; not a turn-by-turn track. Verify land access, closures, gates, weather and field signage.</desc>
    <time>2026-09-09T00:00:00Z</time>
  </metadata>
  <trk>
    <name>Nickelmine riding area</name>
    <type>trail-system</type>
    <extensions>
      <bcbr:routeId>LM-19</bcbr:routeId>
      <bcbr:geometryPolicy>overview</bcbr:geometryPolicy>
      <bcbr:geometrySource>Coarse corridor overview</bcbr:geometrySource>
      <bcbr:pointCount>4</bcbr:pointCount>
    </extensions>
    <trkseg>
      <trkpt lat="49.49" lon="-121.45" />
      <trkpt lat="49.53" lon="-121.42" />
      <trkpt lat="49.5" lon="-121.38" />
      <trkpt lat="49.49" lon="-121.45" />
    </trkseg>
  </trk>
</gpx>
