<?xml version="1.0" encoding="UTF-8"?>
<gpx version="1.1"
  creator="BC Backroads research map"
  xmlns="http://www.topografix.com/GPX/1/1"
  xmlns:xsi="http://www.w3.org/2001/XMLSchema-instance"
  xmlns:bcbr="https://konradstaniszewski.com/ns/bc-backroads/1"
  xsi:schemaLocation="http://www.topografix.com/GPX/1/1 http://www.topografix.com/GPX/1/1/gpx.xsd">
  <metadata>
    <name>RI-24 · Okanagan Falls OHV system</name>
    <desc>Official motorized trail system near the southern Okanagan; remain on designated routes. Coarse corridor geometry; not a turn-by-turn track. Verify land access, closures, gates, weather and field signage.</desc>
    <time>2026-09-09T00:00:00Z</time>
  </metadata>
  <trk>
    <name>Okanagan Falls OHV system</name>
    <type>trail-system</type>
    <extensions>
      <bcbr:routeId>RI-24</bcbr:routeId>
      <bcbr:geometryPolicy>overview</bcbr:geometryPolicy>
      <bcbr:geometrySource>Coarse corridor overview</bcbr:geometrySource>
      <bcbr:pointCount>4</bcbr:pointCount>
    </extensions>
    <trkseg>
      <trkpt lat="49.34" lon="-119.58" />
      <trkpt lat="49.38" lon="-119.52" />
      <trkpt lat="49.34" lon="-119.46" />
      <trkpt lat="49.34" lon="-119.58" />
    </trkseg>
  </trk>
</gpx>
