<?xml version="1.0" encoding="UTF-8"?>
<gpx version="1.1"
  creator="BC Backroads research map"
  xmlns="http://www.topografix.com/GPX/1/1"
  xmlns:xsi="http://www.w3.org/2001/XMLSchema-instance"
  xmlns:bcbr="https://konradstaniszewski.com/ns/bc-backroads/1"
  xsi:schemaLocation="http://www.topografix.com/GPX/1/1 http://www.topografix.com/GPX/1/1/gpx.xsd">
  <metadata>
    <name>LM-09 · Powell River Lakes</name>
    <desc>Promising northern Sunshine Coast loop with broad FSRs and rougher Rainbow Main; derived only as a road-intelligence lead. Coarse corridor geometry; not a turn-by-turn track. Verify land access, closures, gates, weather and field signage.</desc>
    <time>2026-09-09T00:00:00Z</time>
  </metadata>
  <trk>
    <name>Powell River Lakes</name>
    <type>candidate</type>
    <extensions>
      <bcbr:routeId>LM-09</bcbr:routeId>
      <bcbr:geometryPolicy>overview</bcbr:geometryPolicy>
      <bcbr:geometrySource>Coarse corridor overview</bcbr:geometrySource>
      <bcbr:pointCount>5</bcbr:pointCount>
    </extensions>
    <trkseg>
      <trkpt lat="49.835" lon="-124.524" />
      <trkpt lat="49.93" lon="-124.62" />
      <trkpt lat="50.02" lon="-124.48" />
      <trkpt lat="49.91" lon="-124.34" />
      <trkpt lat="49.835" lon="-124.524" />
    </trkseg>
  </trk>
</gpx>
