<?xml version="1.0" encoding="UTF-8"?>
<gpx version="1.1"
  creator="BC Backroads research map"
  xmlns="http://www.topografix.com/GPX/1/1"
  xmlns:xsi="http://www.w3.org/2001/XMLSchema-instance"
  xmlns:bcbr="https://konradstaniszewski.com/ns/bc-backroads/1"
  xsi:schemaLocation="http://www.topografix.com/GPX/1/1 http://www.topografix.com/GPX/1/1/gpx.xsd">
  <metadata>
    <name>VI-12 · Sayward–Campbell River backroads</name>
    <desc>Big Tree, Memekay and Morton Lake roads form a varied backroad stage with confusing junctions. Coarse corridor geometry; not a turn-by-turn track. Verify land access, closures, gates, weather and field signage.</desc>
    <time>2026-09-09T00:00:00Z</time>
  </metadata>
  <trk>
    <name>Sayward–Campbell River backroads</name>
    <type>primary</type>
    <extensions>
      <bcbr:routeId>VI-12</bcbr:routeId>
      <bcbr:geometryPolicy>link-only</bcbr:geometryPolicy>
      <bcbr:geometrySource>Coarse corridor overview</bcbr:geometrySource>
      <bcbr:pointCount>4</bcbr:pointCount>
    </extensions>
    <trkseg>
      <trkpt lat="50.04" lon="-125.95" />
      <trkpt lat="49.94" lon="-125.62" />
      <trkpt lat="49.82" lon="-125.38" />
      <trkpt lat="50.024" lon="-125.248" />
    </trkseg>
  </trk>
</gpx>
