<?xml version="1.0" encoding="UTF-8"?>
<gpx version="1.1"
  creator="BC Backroads research map"
  xmlns="http://www.topografix.com/GPX/1/1"
  xmlns:xsi="http://www.w3.org/2001/XMLSchema-instance"
  xmlns:bcbr="https://konradstaniszewski.com/ns/bc-backroads/1"
  xsi:schemaLocation="http://www.topografix.com/GPX/1/1 http://www.topografix.com/GPX/1/1/gpx.xsd">
  <metadata>
    <name>LM-17 · Tamihi motorized network</name>
    <desc>Stewarded green, blue and black technical riding area rather than a BDR-style travel route. Coarse corridor geometry; not a turn-by-turn track. Verify land access, closures, gates, weather and field signage.</desc>
    <time>2026-09-09T00:00:00Z</time>
  </metadata>
  <trk>
    <name>Tamihi motorized network</name>
    <type>trail-system</type>
    <extensions>
      <bcbr:routeId>LM-17</bcbr:routeId>
      <bcbr:geometryPolicy>overview</bcbr:geometryPolicy>
      <bcbr:geometrySource>Coarse corridor overview</bcbr:geometrySource>
      <bcbr:pointCount>4</bcbr:pointCount>
    </extensions>
    <trkseg>
      <trkpt lat="49.05" lon="-121.89" />
      <trkpt lat="49.08" lon="-121.84" />
      <trkpt lat="49.04" lon="-121.79" />
      <trkpt lat="49.05" lon="-121.89" />
    </trkseg>
  </trk>
</gpx>
