<?xml version="1.0" encoding="UTF-8"?>
<gpx version="1.1"
  creator="BC Backroads research map"
  xmlns="http://www.topografix.com/GPX/1/1"
  xmlns:xsi="http://www.w3.org/2001/XMLSchema-instance"
  xmlns:bcbr="https://konradstaniszewski.com/ns/bc-backroads/1"
  xsi:schemaLocation="http://www.topografix.com/GPX/1/1 http://www.topografix.com/GPX/1/1/gpx.xsd">
  <metadata>
    <name>RI-01 · TCAT BC mainland</name>
    <desc>The canonical historic BC adventure backbone from Radium through the Interior and Coast Mountains to Horseshoe Bay. Coarse corridor geometry; not a turn-by-turn track. Verify land access, closures, gates, weather and field signage.</desc>
    <time>2026-09-09T00:00:00Z</time>
  </metadata>
  <trk>
    <name>TCAT BC mainland</name>
    <type>primary</type>
    <extensions>
      <bcbr:routeId>RI-01</bcbr:routeId>
      <bcbr:geometryPolicy>link-only</bcbr:geometryPolicy>
      <bcbr:geometrySource>Coarse corridor overview</bcbr:geometrySource>
      <bcbr:pointCount>9</bcbr:pointCount>
    </extensions>
    <trkseg>
      <trkpt lat="50.62" lon="-116.073" />
      <trkpt lat="49.68" lon="-116" />
      <trkpt lat="49.5" lon="-117.3" />
      <trkpt lat="49.5" lon="-119.5" />
      <trkpt lat="50.67" lon="-120.8" />
      <trkpt lat="52.13" lon="-122.14" />
      <trkpt lat="51.05" lon="-123.12" />
      <trkpt lat="50.32" lon="-122.8" />
      <trkpt lat="49.37" lon="-123.27" />
    </trkseg>
  </trk>
</gpx>
