<?xml version="1.0" encoding="UTF-8"?>
<gpx version="1.1"
  creator="BC Backroads research map"
  xmlns="http://www.topografix.com/GPX/1/1"
  xmlns:xsi="http://www.w3.org/2001/XMLSchema-instance"
  xmlns:bcbr="https://konradstaniszewski.com/ns/bc-backroads/1"
  xsi:schemaLocation="http://www.topografix.com/GPX/1/1 http://www.topografix.com/GPX/1/1/gpx.xsd">
  <metadata>
    <name>RI-02 · TCAT Kootenay–Boundary</name>
    <desc>Radium–Kimberley–Purcells–Kootenay Lake–Kaslo–Trout Lake–Edgewood forms a standout multi-day interior section. Coarse corridor geometry; not a turn-by-turn track. Verify land access, closures, gates, weather and field signage.</desc>
    <time>2026-09-09T00:00:00Z</time>
  </metadata>
  <trk>
    <name>TCAT Kootenay–Boundary</name>
    <type>primary</type>
    <extensions>
      <bcbr:routeId>RI-02</bcbr:routeId>
      <bcbr:geometryPolicy>link-only</bcbr:geometryPolicy>
      <bcbr:geometrySource>Coarse corridor overview</bcbr:geometrySource>
      <bcbr:pointCount>8</bcbr:pointCount>
    </extensions>
    <trkseg>
      <trkpt lat="50.62" lon="-116.073" />
      <trkpt lat="49.67" lon="-115.985" />
      <trkpt lat="49.8" lon="-116.72" />
      <trkpt lat="49.91" lon="-116.91" />
      <trkpt lat="50.04" lon="-116.91" />
      <trkpt lat="50.3" lon="-117" />
      <trkpt lat="50.13" lon="-118.14" />
      <trkpt lat="49.95" lon="-118.14" />
    </trkseg>
  </trk>
</gpx>
