<?xml version="1.0" encoding="UTF-8"?>
<gpx version="1.1"
  creator="BC Backroads research map"
  xmlns="http://www.topografix.com/GPX/1/1"
  xmlns:xsi="http://www.w3.org/2001/XMLSchema-instance"
  xmlns:bcbr="https://konradstaniszewski.com/ns/bc-backroads/1"
  xsi:schemaLocation="http://www.topografix.com/GPX/1/1 http://www.topografix.com/GPX/1/1/gpx.xsd">
  <metadata>
    <name>VI-15 · Tree to Sea Drive</name>
    <desc>Officially promoted all-vehicle Gold River–Tahsis route through dramatic mountain and lake country. Coarse corridor geometry; not a turn-by-turn track. Verify land access, closures, gates, weather and field signage.</desc>
    <time>2026-09-09T00:00:00Z</time>
  </metadata>
  <trk>
    <name>Tree to Sea Drive</name>
    <type>primary</type>
    <extensions>
      <bcbr:routeId>VI-15</bcbr:routeId>
      <bcbr:geometryPolicy>overview</bcbr:geometryPolicy>
      <bcbr:geometrySource>Coarse corridor overview</bcbr:geometrySource>
      <bcbr:pointCount>4</bcbr:pointCount>
    </extensions>
    <trkseg>
      <trkpt lat="49.777" lon="-126.053" />
      <trkpt lat="49.83" lon="-126.24" />
      <trkpt lat="49.89" lon="-126.45" />
      <trkpt lat="49.917" lon="-126.652" />
    </trkseg>
  </trk>
</gpx>
