<?xml version="1.0" encoding="UTF-8"?>
<gpx version="1.1"
  creator="BC Backroads research map"
  xmlns="http://www.topografix.com/GPX/1/1"
  xmlns:xsi="http://www.w3.org/2001/XMLSchema-instance"
  xmlns:bcbr="https://konradstaniszewski.com/ns/bc-backroads/1"
  xsi:schemaLocation="http://www.topografix.com/GPX/1/1 http://www.topografix.com/GPX/1/1/gpx.xsd">
  <metadata>
    <name>VI-24 · Tree to Sea research overlay</name>
    <desc>Useful current road-intelligence overlay, but not a motorcycle route because it includes bicycle-only and water-taxi connections. Coarse corridor geometry; not a turn-by-turn track. Verify land access, closures, gates, weather and field signage.</desc>
    <time>2026-09-09T00:00:00Z</time>
  </metadata>
  <trk>
    <name>Tree to Sea research overlay</name>
    <type>candidate</type>
    <extensions>
      <bcbr:routeId>VI-24</bcbr:routeId>
      <bcbr:geometryPolicy>link-only</bcbr:geometryPolicy>
      <bcbr:geometrySource>Coarse corridor overview</bcbr:geometrySource>
      <bcbr:pointCount>6</bcbr:pointCount>
    </extensions>
    <trkseg>
      <trkpt lat="49.69" lon="-124.99" />
      <trkpt lat="49.78" lon="-126.05" />
      <trkpt lat="50.43" lon="-127.49" />
      <trkpt lat="50.72" lon="-127.5" />
      <trkpt lat="50.05" lon="-126" />
      <trkpt lat="49.69" lon="-124.99" />
    </trkseg>
  </trk>
</gpx>
