<?xml version="1.0" encoding="UTF-8"?>
<gpx version="1.1"
  creator="BC Backroads research map"
  xmlns="http://www.topografix.com/GPX/1/1"
  xmlns:xsi="http://www.w3.org/2001/XMLSchema-instance"
  xmlns:bcbr="https://konradstaniszewski.com/ns/bc-backroads/1"
  xsi:schemaLocation="http://www.topografix.com/GPX/1/1 http://www.topografix.com/GPX/1/1/gpx.xsd">
  <metadata>
    <name>VI-20 · Tugwell–Alligator loop</name>
    <desc>Valuable historical Sooke route lead whose present gates, ownership and access have not been resolved. Road geometry derived from OpenStreetMap contributors under ODbL; route selection is an independently authored research overview. Verify land access, closures, gates, weather and field signage.</desc>
    <copyright author="OpenStreetMap contributors">
      <year>2026</year>
      <license>https://opendatacommons.org/licenses/odbl/1-0/</license>
    </copyright>
    <time>2026-09-09T00:00:00Z</time>
  </metadata>
  <trk>
    <name>Tugwell–Alligator loop</name>
    <type>candidate</type>
    <extensions>
      <bcbr:routeId>VI-20</bcbr:routeId>
      <bcbr:geometryPolicy>link-only</bcbr:geometryPolicy>
      <bcbr:geometrySource>OpenStreetMap optimized loop routing</bcbr:geometrySource>
      <bcbr:geometryUpdatedAt>2026-09-09</bcbr:geometryUpdatedAt>
      <bcbr:pointCount>1395</bcbr:pointCount>
    </extensions>
    <trkseg>
      <trkpt lat="48.370422" lon="-123.729676" />
      <trkpt lat="48.370099" lon="-123.728724" />
      <trkpt lat="48.369258" lon="-123.729491" />
      <trkpt lat="48.368853" lon="-123.72986" />
      <trkpt lat="48.368151" lon="-123.730522" />
      <trkpt lat="48.367891" lon="-123.730788" />
      <trkpt lat="48.367648" lon="-123.731099" />
      <trkpt lat="48.367449" lon="-123.731485" />
      <trkpt lat="48.367282" lon="-123.731998" />
      <trkpt lat="48.367104" lon="-123.732476" />
      <trkpt lat="48.367003" lon="-123.732821" />
      <trkpt lat="48.366752" lon="-123.733724" />
      <trkpt lat="48.366654" lon="-123.734014" />
      <trkpt lat="48.366617" lon="-123.734093" />
      <trkpt lat="48.36651" lon="-123.734325" />
      <trkpt lat="48.366337" lon="-123.734639" />
      <trkpt lat="48.366192" lon="-123.735032" />
      <trkpt lat="48.36614" lon="-123.735256" />
      <trkpt lat="48.365987" lon="-123.736132" />
      <trkpt lat="48.365771" lon="-123.737301" />
      <trkpt lat="48.365723" lon="-123.737808" />
      <trkpt lat="48.365724" lon="-123.738351" />
      <trkpt lat="48.365745" lon="-123.739017" />
      <trkpt lat="48.365816" lon="-123.739853" />
      <trkpt lat="48.365945" lon="-123.740551" />
      <trkpt lat="48.366166" lon="-123.741077" />
      <trkpt lat="48.366394" lon="-123.741506" />
      <trkpt lat="48.366696" lon="-123.741904" />
      <trkpt lat="48.367506" lon="-123.742971" />
      <trkpt lat="48.367636" lon="-123.743173" />
      <trkpt lat="48.367749" lon="-123.74335" />
      <trkpt lat="48.368254" lon="-123.744177" />
      <trkpt lat="48.369474" lon="-123.746148" />
      <trkpt lat="48.370471" lon="-123.747732" />
      <trkpt lat="48.370667" lon="-123.747994" />
      <trkpt lat="48.370992" lon="-123.748409" />
      <trkpt lat="48.371085" lon="-123.748527" />
      <trkpt lat="48.371384" lon="-123.748899" />
      <trkpt lat="48.372268" lon="-123.749969" />
      <trkpt lat="48.372285" lon="-123.75" />
      <trkpt lat="48.372393" lon="-123.7502" />
      <trkpt lat="48.372423" lon="-123.750256" />
      <trkpt lat="48.3725" lon="-123.750559" />
      <trkpt lat="48.372554" lon="-123.750995" />
      <trkpt lat="48.372463" lon="-123.753396" />
      <trkpt lat="48.372388" lon="-123.755418" />
      <trkpt lat="48.372185" lon="-123.758563" />
      <trkpt lat="48.371968" lon="-123.760125" />
      <trkpt lat="48.371926" lon="-123.760927" />
      <trkpt lat="48.371931" lon="-123.761109" />
      <trkpt lat="48.37195" lon="-123.761862" />
      <trkpt lat="48.372084" lon="-123.763279" />
      <trkpt lat="48.372125" lon="-123.763974" />
      <trkpt lat="48.372121" lon="-123.76424" />
      <trkpt lat="48.37212" lon="-123.764274" />
      <trkpt lat="48.372115" lon="-123.764574" />
      <trkpt lat="48.372072" lon="-123.765068" />
      <trkpt lat="48.37203" lon="-123.765341" />
      <trkpt lat="48.371939" lon="-123.765929" />
      <trkpt lat="48.371735" lon="-123.766799" />
      <trkpt lat="48.371545" lon="-123.768077" />
      <trkpt lat="48.371371" lon="-123.768684" />
      <trkpt lat="48.370665" lon="-123.771137" />
      <trkpt lat="48.370579" lon="-123.771754" />
      <trkpt lat="48.370186" lon="-123.777182" />
      <trkpt lat="48.369943" lon="-123.779387" />
      <trkpt lat="48.369732" lon="-123.779939" />
      <trkpt lat="48.369523" lon="-123.780305" />
      <trkpt lat="48.368722" lon="-123.781165" />
      <trkpt lat="48.368604" lon="-123.781339" />
      <trkpt lat="48.36805" lon="-123.782876" />
      <trkpt lat="48.367915" lon="-123.783102" />
      <trkpt lat="48.367616" lon="-123.783604" />
      <trkpt lat="48.365821" lon="-123.785423" />
      <trkpt lat="48.365733" lon="-123.785581" />
      <trkpt lat="48.365612" lon="-123.7858" />
      <trkpt lat="48.365353" lon="-123.786355" />
      <trkpt lat="48.365184" lon="-123.787124" />
      <trkpt lat="48.365125" lon="-123.788013" />
      <trkpt lat="48.365146" lon="-123.788799" />
      <trkpt lat="48.365266" lon="-123.789831" />
      <trkpt lat="48.365724" lon="-123.791666" />
      <trkpt lat="48.365763" lon="-123.791816" />
      <trkpt lat="48.366091" lon="-123.793059" />
      <trkpt lat="48.366209" lon="-123.793633" />
      <trkpt lat="48.366243" lon="-123.794121" />
      <trkpt lat="48.366224" lon="-123.794334" />
      <trkpt lat="48.366211" lon="-123.794475" />
      <trkpt lat="48.366185" lon="-123.794592" />
      <trkpt lat="48.366101" lon="-123.794962" />
      <trkpt lat="48.36594" lon="-123.795324" />
      <trkpt lat="48.365132" lon="-123.796623" />
      <trkpt lat="48.364963" lon="-123.796895" />
      <trkpt lat="48.364749" lon="-123.797339" />
      <trkpt lat="48.364623" lon="-123.797648" />
      <trkpt lat="48.364345" lon="-123.798335" />
      <trkpt lat="48.363686" lon="-123.799433" />
      <trkpt lat="48.363496" lon="-123.800014" />
      <trkpt lat="48.363232" lon="-123.800822" />
      <trkpt lat="48.36321" lon="-123.801116" />
      <trkpt lat="48.363269" lon="-123.802156" />
      <trkpt lat="48.363145" lon="-123.803399" />
      <trkpt lat="48.363058" lon="-123.803709" />
      <trkpt lat="48.362892" lon="-123.804111" />
      <trkpt lat="48.362719" lon="-123.804414" />
      <trkpt lat="48.362679" lon="-123.804485" />
      <trkpt lat="48.362183" lon="-123.805123" />
      <trkpt lat="48.361916" lon="-123.805595" />
      <trkpt lat="48.361296" lon="-123.807169" />
      <trkpt lat="48.361213" lon="-123.807563" />
      <trkpt lat="48.361206" lon="-123.808884" />
      <trkpt lat="48.361197" lon="-123.809042" />
      <trkpt lat="48.361168" lon="-123.809562" />
      <trkpt lat="48.36114" lon="-123.809752" />
      <trkpt lat="48.361076" lon="-123.810173" />
      <trkpt lat="48.361044" lon="-123.810387" />
      <trkpt lat="48.36069" lon="-123.81274" />
      <trkpt lat="48.360664" lon="-123.812967" />
      <trkpt lat="48.360614" lon="-123.813393" />
      <trkpt lat="48.360518" lon="-123.814071" />
      <trkpt lat="48.360346" lon="-123.814815" />
      <trkpt lat="48.360305" lon="-123.814953" />
      <trkpt lat="48.360232" lon="-123.815206" />
      <trkpt lat="48.360044" lon="-123.815711" />
      <trkpt lat="48.359747" lon="-123.816323" />
      <trkpt lat="48.359681" lon="-123.81646" />
      <trkpt lat="48.35937" lon="-123.816984" />
      <trkpt lat="48.358885" lon="-123.817992" />
      <trkpt lat="48.358439" lon="-123.819416" />
      <trkpt lat="48.357799" lon="-123.821461" />
      <trkpt lat="48.35776" lon="-123.821756" />
      <trkpt lat="48.357749" lon="-123.822047" />
      <trkpt lat="48.357796" lon="-123.82234" />
      <trkpt lat="48.357856" lon="-123.822542" />
      <trkpt lat="48.35794" lon="-123.822721" />
      <trkpt lat="48.358113" lon="-123.822966" />
      <trkpt lat="48.359643" lon="-123.823819" />
      <trkpt lat="48.359997" lon="-123.824128" />
      <trkpt lat="48.360611" lon="-123.824849" />
      <trkpt lat="48.363457" lon="-123.828189" />
      <trkpt lat="48.364676" lon="-123.829866" />
      <trkpt lat="48.365248" lon="-123.830653" />
      <trkpt lat="48.366754" lon="-123.831899" />
      <trkpt lat="48.367283" lon="-123.832337" />
      <trkpt lat="48.367755" lon="-123.832727" />
      <trkpt lat="48.367776" lon="-123.832746" />
      <trkpt lat="48.369227" lon="-123.834049" />
      <trkpt lat="48.369547" lon="-123.834431" />
      <trkpt lat="48.370012" lon="-123.835127" />
      <trkpt lat="48.370709" lon="-123.836295" />
      <trkpt lat="48.37277" lon="-123.840466" />
      <trkpt lat="48.372807" lon="-123.84054" />
      <trkpt lat="48.372978" lon="-123.840984" />
      <trkpt lat="48.373109" lon="-123.841463" />
      <trkpt lat="48.373476" lon="-123.843498" />
      <trkpt lat="48.373777" lon="-123.845728" />
      <trkpt lat="48.373926" lon="-123.84731" />
      <trkpt lat="48.37394" lon="-123.847451" />
      <trkpt lat="48.374171" lon="-123.849908" />
      <trkpt lat="48.374304" lon="-123.850353" />
      <trkpt lat="48.374504" lon="-123.850751" />
      <trkpt lat="48.374909" lon="-123.851168" />
      <trkpt lat="48.375" lon="-123.8512" />
      <trkpt lat="48.375117" lon="-123.851242" />
      <trkpt lat="48.375429" lon="-123.851353" />
      <trkpt lat="48.375837" lon="-123.851496" />
      <trkpt lat="48.376358" lon="-123.851685" />
      <trkpt lat="48.37675" lon="-123.851899" />
      <trkpt lat="48.37717" lon="-123.852109" />
      <trkpt lat="48.37759" lon="-123.852592" />
      <trkpt lat="48.377954" lon="-123.853171" />
      <trkpt lat="48.378218" lon="-123.853794" />
      <trkpt lat="48.378328" lon="-123.85417" />
      <trkpt lat="48.378505" lon="-123.854774" />
      <trkpt lat="48.379222" lon="-123.85772" />
      <trkpt lat="48.3796" lon="-123.859469" />
      <trkpt lat="48.380142" lon="-123.861451" />
      <trkpt lat="48.38022" lon="-123.861851" />
      <trkpt lat="48.380377" lon="-123.862151" />
      <trkpt lat="48.380548" lon="-123.862323" />
      <trkpt lat="48.380763" lon="-123.862455" />
      <trkpt lat="48.38112" lon="-123.862693" />
      <trkpt lat="48.381883" lon="-123.863309" />
      <trkpt lat="48.382042" lon="-123.863476" />
      <trkpt lat="48.382147" lon="-123.863652" />
      <trkpt lat="48.382225" lon="-123.863889" />
      <trkpt lat="48.382265" lon="-123.864141" />
      <trkpt lat="48.382279" lon="-123.864231" />
      <trkpt lat="48.382368" lon="-123.864871" />
      <trkpt lat="48.382404" lon="-123.865118" />
      <trkpt lat="48.382474" lon="-123.86561" />
      <trkpt lat="48.3825" lon="-123.866062" />
      <trkpt lat="48.382494" lon="-123.866227" />
      <trkpt lat="48.382478" lon="-123.866373" />
      <trkpt lat="48.382453" lon="-123.866516" />
      <trkpt lat="48.382423" lon="-123.866641" />
      <trkpt lat="48.382344" lon="-123.866837" />
      <trkpt lat="48.382259" lon="-123.866995" />
      <trkpt lat="48.382083" lon="-123.867266" />
      <trkpt lat="48.381916" lon="-123.867494" />
      <trkpt lat="48.381806" lon="-123.86763" />
      <trkpt lat="48.38168" lon="-123.867762" />
      <trkpt lat="48.381582" lon="-123.867851" />
      <trkpt lat="48.381273" lon="-123.868096" />
      <trkpt lat="48.38118" lon="-123.868202" />
      <trkpt lat="48.381099" lon="-123.868321" />
      <trkpt lat="48.38094" lon="-123.868622" />
      <trkpt lat="48.380808" lon="-123.868883" />
      <trkpt lat="48.380733" lon="-123.868984" />
      <trkpt lat="48.380648" lon="-123.869081" />
      <trkpt lat="48.380384" lon="-123.869361" />
      <trkpt lat="48.38033" lon="-123.869442" />
      <trkpt lat="48.380279" lon="-123.869537" />
      <trkpt lat="48.380252" lon="-123.869641" />
      <trkpt lat="48.380236" lon="-123.869755" />
      <trkpt lat="48.380244" lon="-123.869875" />
      <trkpt lat="48.380261" lon="-123.869991" />
      <trkpt lat="48.380284" lon="-123.870113" />
      <trkpt lat="48.380317" lon="-123.870227" />
      <trkpt lat="48.380378" lon="-123.870365" />
      <trkpt lat="48.380443" lon="-123.870498" />
      <trkpt lat="48.380512" lon="-123.870599" />
      <trkpt lat="48.380587" lon="-123.870696" />
      <trkpt lat="48.380675" lon="-123.870779" />
      <trkpt lat="48.380785" lon="-123.870857" />
      <trkpt lat="48.38094" lon="-123.870911" />
      <trkpt lat="48.381095" lon="-123.870941" />
      <trkpt lat="48.381319" lon="-123.870952" />
      <trkpt lat="48.383016" lon="-123.871" />
      <trkpt lat="48.384194" lon="-123.870963" />
      <trkpt lat="48.385179" lon="-123.870981" />
      <trkpt lat="48.38526" lon="-123.871007" />
      <trkpt lat="48.385992" lon="-123.871239" />
      <trkpt lat="48.386384" lon="-123.871496" />
      <trkpt lat="48.388101" lon="-123.872902" />
      <trkpt lat="48.389339" lon="-123.873876" />
      <trkpt lat="48.390482" lon="-123.874816" />
      <trkpt lat="48.392665" lon="-123.876578" />
      <trkpt lat="48.393395" lon="-123.877169" />
      <trkpt lat="48.393968" lon="-123.877635" />
      <trkpt lat="48.394415" lon="-123.87799" />
      <trkpt lat="48.394757" lon="-123.878267" />
      <trkpt lat="48.395071" lon="-123.878525" />
      <trkpt lat="48.395273" lon="-123.878705" />
      <trkpt lat="48.395352" lon="-123.8786" />
      <trkpt lat="48.395438" lon="-123.878507" />
      <trkpt lat="48.395593" lon="-123.878373" />
      <trkpt lat="48.396002" lon="-123.877941" />
      <trkpt lat="48.396302" lon="-123.877657" />
      <trkpt lat="48.396869" lon="-123.877121" />
      <trkpt lat="48.397349" lon="-123.876768" />
      <trkpt lat="48.397961" lon="-123.876556" />
      <trkpt lat="48.398284" lon="-123.876446" />
      <trkpt lat="48.398465" lon="-123.876427" />
      <trkpt lat="48.39873" lon="-123.876446" />
      <trkpt lat="48.398924" lon="-123.876511" />
      <trkpt lat="48.399111" lon="-123.876574" />
      <trkpt lat="48.399376" lon="-123.876671" />
      <trkpt lat="48.399626" lon="-123.876778" />
      <trkpt lat="48.399887" lon="-123.876879" />
      <trkpt lat="48.400193" lon="-123.877034" />
      <trkpt lat="48.400486" lon="-123.877202" />
      <trkpt lat="48.400782" lon="-123.877301" />
      <trkpt lat="48.401013" lon="-123.87732" />
      <trkpt lat="48.401201" lon="-123.877225" />
      <trkpt lat="48.401475" lon="-123.877076" />
      <trkpt lat="48.401694" lon="-123.877025" />
      <trkpt lat="48.402116" lon="-123.876995" />
      <trkpt lat="48.402598" lon="-123.877129" />
      <trkpt lat="48.402868" lon="-123.877137" />
      <trkpt lat="48.403088" lon="-123.877109" />
      <trkpt lat="48.403404" lon="-123.877048" />
      <trkpt lat="48.403554" lon="-123.877044" />
      <trkpt lat="48.404154" lon="-123.877027" />
      <trkpt lat="48.404594" lon="-123.877082" />
      <trkpt lat="48.404965" lon="-123.877318" />
      <trkpt lat="48.406009" lon="-123.877894" />
      <trkpt lat="48.406404" lon="-123.878241" />
      <trkpt lat="48.406604" lon="-123.878463" />
      <trkpt lat="48.406739" lon="-123.878612" />
      <trkpt lat="48.407112" lon="-123.878826" />
      <trkpt lat="48.4078" lon="-123.879022" />
      <trkpt lat="48.408165" lon="-123.879086" />
      <trkpt lat="48.408412" lon="-123.879053" />
      <trkpt lat="48.408616" lon="-123.879025" />
      <trkpt lat="48.408819" lon="-123.878998" />
      <trkpt lat="48.409739" lon="-123.879105" />
      <trkpt lat="48.409896" lon="-123.879095" />
      <trkpt lat="48.410047" lon="-123.879086" />
      <trkpt lat="48.410584" lon="-123.878911" />
      <trkpt lat="48.410908" lon="-123.878921" />
      <trkpt lat="48.411195" lon="-123.879088" />
      <trkpt lat="48.41126" lon="-123.879169" />
      <trkpt lat="48.411489" lon="-123.879408" />
      <trkpt lat="48.411737" lon="-123.879736" />
      <trkpt lat="48.411989" lon="-123.880023" />
      <trkpt lat="48.41224" lon="-123.880389" />
      <trkpt lat="48.412711" lon="-123.881116" />
      <trkpt lat="48.412955" lon="-123.881369" />
      <trkpt lat="48.413223" lon="-123.881492" />
      <trkpt lat="48.413323" lon="-123.881518" />
      <trkpt lat="48.413762" lon="-123.88154" />
      <trkpt lat="48.414142" lon="-123.8814" />
      <trkpt lat="48.414519" lon="-123.88126" />
      <trkpt lat="48.414954" lon="-123.881154" />
      <trkpt lat="48.415454" lon="-123.881305" />
      <trkpt lat="48.415479" lon="-123.881318" />
      <trkpt lat="48.416034" lon="-123.881594" />
      <trkpt lat="48.416578" lon="-123.881801" />
      <trkpt lat="48.417062" lon="-123.881956" />
      <trkpt lat="48.417183" lon="-123.881981" />
      <trkpt lat="48.417771" lon="-123.882102" />
      <trkpt lat="48.41798" lon="-123.882145" />
      <trkpt lat="48.41869" lon="-123.882326" />
      <trkpt lat="48.419384" lon="-123.882609" />
      <trkpt lat="48.42" lon="-123.882903" />
      <trkpt lat="48.420085" lon="-123.882949" />
      <trkpt lat="48.420667" lon="-123.883273" />
      <trkpt lat="48.421016" lon="-123.883329" />
      <trkpt lat="48.421619" lon="-123.883147" />
      <trkpt lat="48.422425" lon="-123.883138" />
      <trkpt lat="48.422497" lon="-123.883121" />
      <trkpt lat="48.423084" lon="-123.882977" />
      <trkpt lat="48.423842" lon="-123.882825" />
      <trkpt lat="48.424343" lon="-123.882637" />
      <trkpt lat="48.424964" lon="-123.882516" />
      <trkpt lat="48.425352" lon="-123.882493" />
      <trkpt lat="48.425594" lon="-123.882564" />
      <trkpt lat="48.425735" lon="-123.882664" />
      <trkpt lat="48.425813" lon="-123.88293" />
      <trkpt lat="48.425815" lon="-123.883342" />
      <trkpt lat="48.42585" lon="-123.883896" />
      <trkpt lat="48.425972" lon="-123.884604" />
      <trkpt lat="48.42627" lon="-123.885657" />
      <trkpt lat="48.426336" lon="-123.885857" />
      <trkpt lat="48.426386" lon="-123.886009" />
      <trkpt lat="48.426835" lon="-123.886389" />
      <trkpt lat="48.427771" lon="-123.887033" />
      <trkpt lat="48.428766" lon="-123.887809" />
      <trkpt lat="48.429478" lon="-123.888495" />
      <trkpt lat="48.430218" lon="-123.888924" />
      <trkpt lat="48.431034" lon="-123.889246" />
      <trkpt lat="48.431935" lon="-123.889552" />
      <trkpt lat="48.432992" lon="-123.890002" />
      <trkpt lat="48.433401" lon="-123.890142" />
      <trkpt lat="48.434106" lon="-123.890383" />
      <trkpt lat="48.434504" lon="-123.890562" />
      <trkpt lat="48.43482" lon="-123.890859" />
      <trkpt lat="48.435251" lon="-123.891409" />
      <trkpt lat="48.435318" lon="-123.891613" />
      <trkpt lat="48.435324" lon="-123.89203" />
      <trkpt lat="48.435335" lon="-123.892653" />
      <trkpt lat="48.435354" lon="-123.892894" />
      <trkpt lat="48.435421" lon="-123.893058" />
      <trkpt lat="48.435505" lon="-123.893148" />
      <trkpt lat="48.435599" lon="-123.89317" />
      <trkpt lat="48.435732" lon="-123.893144" />
      <trkpt lat="48.435993" lon="-123.893007" />
      <trkpt lat="48.436127" lon="-123.892927" />
      <trkpt lat="48.436341" lon="-123.892669" />
      <trkpt lat="48.436447" lon="-123.892521" />
      <trkpt lat="48.436642" lon="-123.892384" />
      <trkpt lat="48.436829" lon="-123.892293" />
      <trkpt lat="48.437067" lon="-123.892302" />
      <trkpt lat="48.437304" lon="-123.89239" />
      <trkpt lat="48.437586" lon="-123.892558" />
      <trkpt lat="48.437863" lon="-123.892799" />
      <trkpt lat="48.438202" lon="-123.893254" />
      <trkpt lat="48.438689" lon="-123.893661" />
      <trkpt lat="48.439927" lon="-123.894632" />
      <trkpt lat="48.441219" lon="-123.895415" />
      <trkpt lat="48.44216" lon="-123.895981" />
      <trkpt lat="48.442493" lon="-123.89621" />
      <trkpt lat="48.443297" lon="-123.896863" />
      <trkpt lat="48.444979" lon="-123.897945" />
      <trkpt lat="48.445252" lon="-123.898165" />
      <trkpt lat="48.445503" lon="-123.898505" />
      <trkpt lat="48.445703" lon="-123.898718" />
      <trkpt lat="48.445913" lon="-123.898869" />
      <trkpt lat="48.446573" lon="-123.899415" />
      <trkpt lat="48.446778" lon="-123.899556" />
      <trkpt lat="48.447501" lon="-123.900093" />
      <trkpt lat="48.44818" lon="-123.900795" />
      <trkpt lat="48.448607" lon="-123.901185" />
      <trkpt lat="48.449045" lon="-123.901556" />
      <trkpt lat="48.449383" lon="-123.901893" />
      <trkpt lat="48.449622" lon="-123.902293" />
      <trkpt lat="48.449957" lon="-123.903435" />
      <trkpt lat="48.450033" lon="-123.90476" />
      <trkpt lat="48.450147" lon="-123.906176" />
      <trkpt lat="48.450238" lon="-123.907364" />
      <trkpt lat="48.450399" lon="-123.908579" />
      <trkpt lat="48.450574" lon="-123.909454" />
      <trkpt lat="48.450873" lon="-123.910159" />
      <trkpt lat="48.451485" lon="-123.910672" />
      <trkpt lat="48.452023" lon="-123.911049" />
      <trkpt lat="48.452369" lon="-123.911315" />
      <trkpt lat="48.452656" lon="-123.911273" />
      <trkpt lat="48.453154" lon="-123.911026" />
      <trkpt lat="48.453705" lon="-123.910811" />
      <trkpt lat="48.454479" lon="-123.910612" />
      <trkpt lat="48.455122" lon="-123.910423" />
      <trkpt lat="48.455502" lon="-123.910371" />
      <trkpt lat="48.45583" lon="-123.910444" />
      <trkpt lat="48.456425" lon="-123.910203" />
      <trkpt lat="48.456822" lon="-123.909865" />
      <trkpt lat="48.457273" lon="-123.909577" />
      <trkpt lat="48.457805" lon="-123.909299" />
      <trkpt lat="48.458173" lon="-123.909052" />
      <trkpt lat="48.458856" lon="-123.908622" />
      <trkpt lat="48.459233" lon="-123.90845" />
      <trkpt lat="48.459231" lon="-123.908255" />
      <trkpt lat="48.45932" lon="-123.907944" />
      <trkpt lat="48.459421" lon="-123.90778" />
      <trkpt lat="48.459736" lon="-123.907664" />
      <trkpt lat="48.460079" lon="-123.907677" />
      <trkpt lat="48.460851" lon="-123.907656" />
      <trkpt lat="48.461173" lon="-123.907483" />
      <trkpt lat="48.461338" lon="-123.907157" />
      <trkpt lat="48.461486" lon="-123.906598" />
      <trkpt lat="48.461633" lon="-123.90635" />
      <trkpt lat="48.462527" lon="-123.905702" />
      <trkpt lat="48.462727" lon="-123.905544" />
      <trkpt lat="48.462817" lon="-123.90538" />
      <trkpt lat="48.462879" lon="-123.905185" />
      <trkpt lat="48.462925" lon="-123.904914" />
      <trkpt lat="48.462952" lon="-123.904651" />
      <trkpt lat="48.462956" lon="-123.904371" />
      <trkpt lat="48.463749" lon="-123.904449" />
      <trkpt lat="48.464517" lon="-123.904997" />
      <trkpt lat="48.4652" lon="-123.905674" />
      <trkpt lat="48.466133" lon="-123.905856" />
      <trkpt lat="48.467281" lon="-123.905452" />
      <trkpt lat="48.468085" lon="-123.90514" />
      <trkpt lat="48.468187" lon="-123.905051" />
      <trkpt lat="48.468349" lon="-123.904699" />
      <trkpt lat="48.468436" lon="-123.904114" />
      <trkpt lat="48.468413" lon="-123.903749" />
      <trkpt lat="48.468483" lon="-123.903149" />
      <trkpt lat="48.468612" lon="-123.902546" />
      <trkpt lat="48.468944" lon="-123.901928" />
      <trkpt lat="48.469166" lon="-123.901584" />
      <trkpt lat="48.469583" lon="-123.901596" />
      <trkpt lat="48.47039" lon="-123.902091" />
      <trkpt lat="48.470912" lon="-123.902502" />
      <trkpt lat="48.471305" lon="-123.902596" />
      <trkpt lat="48.471789" lon="-123.902541" />
      <trkpt lat="48.472518" lon="-123.902515" />
      <trkpt lat="48.473216" lon="-123.902489" />
      <trkpt lat="48.473502" lon="-123.902394" />
      <trkpt lat="48.473786" lon="-123.902162" />
      <trkpt lat="48.47397" lon="-123.902055" />
      <trkpt lat="48.474279" lon="-123.901937" />
      <trkpt lat="48.474777" lon="-123.901533" />
      <trkpt lat="48.475139" lon="-123.901178" />
      <trkpt lat="48.475978" lon="-123.901241" />
      <trkpt lat="48.476193" lon="-123.901228" />
      <trkpt lat="48.476325" lon="-123.90111" />
      <trkpt lat="48.476413" lon="-123.900876" />
      <trkpt lat="48.476407" lon="-123.900396" />
      <trkpt lat="48.476146" lon="-123.899186" />
      <trkpt lat="48.475674" lon="-123.897976" />
      <trkpt lat="48.475297" lon="-123.896956" />
      <trkpt lat="48.474927" lon="-123.896162" />
      <trkpt lat="48.474715" lon="-123.895354" />
      <trkpt lat="48.474554" lon="-123.894955" />
      <trkpt lat="48.474296" lon="-123.89411" />
      <trkpt lat="48.474076" lon="-123.893621" />
      <trkpt lat="48.47371" lon="-123.893121" />
      <trkpt lat="48.473674" lon="-123.893004" />
      <trkpt lat="48.473803" lon="-123.892868" />
      <trkpt lat="48.473927" lon="-123.89275" />
      <trkpt lat="48.474035" lon="-123.892767" />
      <trkpt lat="48.474297" lon="-123.892898" />
      <trkpt lat="48.474496" lon="-123.893084" />
      <trkpt lat="48.474813" lon="-123.893415" />
      <trkpt lat="48.475817" lon="-123.894028" />
      <trkpt lat="48.477018" lon="-123.894318" />
      <trkpt lat="48.47726" lon="-123.894399" />
      <trkpt lat="48.477242" lon="-123.894646" />
      <trkpt lat="48.477313" lon="-123.89485" />
      <trkpt lat="48.477431" lon="-123.895022" />
      <trkpt lat="48.477513" lon="-123.895318" />
      <trkpt lat="48.477523" lon="-123.895494" />
      <trkpt lat="48.477473" lon="-123.895687" />
      <trkpt lat="48.477491" lon="-123.895826" />
      <trkpt lat="48.477573" lon="-123.895928" />
      <trkpt lat="48.477719" lon="-123.895984" />
      <trkpt lat="48.478293" lon="-123.896102" />
      <trkpt lat="48.478418" lon="-123.896231" />
      <trkpt lat="48.478544" lon="-123.896518" />
      <trkpt lat="48.478617" lon="-123.896752" />
      <trkpt lat="48.478562" lon="-123.897146" />
      <trkpt lat="48.478425" lon="-123.897462" />
      <trkpt lat="48.478229" lon="-123.897822" />
      <trkpt lat="48.478217" lon="-123.898015" />
      <trkpt lat="48.478339" lon="-123.898209" />
      <trkpt lat="48.478645" lon="-123.898562" />
      <trkpt lat="48.478826" lon="-123.89862" />
      <trkpt lat="48.478645" lon="-123.898562" />
      <trkpt lat="48.478339" lon="-123.898209" />
      <trkpt lat="48.478217" lon="-123.898015" />
      <trkpt lat="48.478229" lon="-123.897822" />
      <trkpt lat="48.478425" lon="-123.897462" />
      <trkpt lat="48.478562" lon="-123.897146" />
      <trkpt lat="48.478617" lon="-123.896752" />
      <trkpt lat="48.478544" lon="-123.896518" />
      <trkpt lat="48.478418" lon="-123.896231" />
      <trkpt lat="48.478293" lon="-123.896102" />
      <trkpt lat="48.477719" lon="-123.895984" />
      <trkpt lat="48.477573" lon="-123.895928" />
      <trkpt lat="48.477491" lon="-123.895826" />
      <trkpt lat="48.477473" lon="-123.895687" />
      <trkpt lat="48.477523" lon="-123.895494" />
      <trkpt lat="48.477513" lon="-123.895318" />
      <trkpt lat="48.477431" lon="-123.895022" />
      <trkpt lat="48.477313" lon="-123.89485" />
      <trkpt lat="48.477242" lon="-123.894646" />
      <trkpt lat="48.47726" lon="-123.894399" />
      <trkpt lat="48.477018" lon="-123.894318" />
      <trkpt lat="48.475817" lon="-123.894028" />
      <trkpt lat="48.474813" lon="-123.893415" />
      <trkpt lat="48.474496" lon="-123.893084" />
      <trkpt lat="48.474297" lon="-123.892898" />
      <trkpt lat="48.474035" lon="-123.892767" />
      <trkpt lat="48.473927" lon="-123.89275" />
      <trkpt lat="48.473803" lon="-123.892868" />
      <trkpt lat="48.473674" lon="-123.893004" />
      <trkpt lat="48.47371" lon="-123.893121" />
      <trkpt lat="48.474076" lon="-123.893621" />
      <trkpt lat="48.474296" lon="-123.89411" />
      <trkpt lat="48.474554" lon="-123.894955" />
      <trkpt lat="48.474715" lon="-123.895354" />
      <trkpt lat="48.474927" lon="-123.896162" />
      <trkpt lat="48.475297" lon="-123.896956" />
      <trkpt lat="48.475674" lon="-123.897976" />
      <trkpt lat="48.476146" lon="-123.899186" />
      <trkpt lat="48.476407" lon="-123.900396" />
      <trkpt lat="48.476413" lon="-123.900876" />
      <trkpt lat="48.476325" lon="-123.90111" />
      <trkpt lat="48.476193" lon="-123.901228" />
      <trkpt lat="48.475978" lon="-123.901241" />
      <trkpt lat="48.475139" lon="-123.901178" />
      <trkpt lat="48.474777" lon="-123.901533" />
      <trkpt lat="48.474279" lon="-123.901937" />
      <trkpt lat="48.47397" lon="-123.902055" />
      <trkpt lat="48.473786" lon="-123.902162" />
      <trkpt lat="48.473502" lon="-123.902394" />
      <trkpt lat="48.473216" lon="-123.902489" />
      <trkpt lat="48.472518" lon="-123.902515" />
      <trkpt lat="48.471789" lon="-123.902541" />
      <trkpt lat="48.471305" lon="-123.902596" />
      <trkpt lat="48.470912" lon="-123.902502" />
      <trkpt lat="48.47039" lon="-123.902091" />
      <trkpt lat="48.469583" lon="-123.901596" />
      <trkpt lat="48.469166" lon="-123.901584" />
      <trkpt lat="48.468944" lon="-123.901928" />
      <trkpt lat="48.468612" lon="-123.902546" />
      <trkpt lat="48.468483" lon="-123.903149" />
      <trkpt lat="48.468413" lon="-123.903749" />
      <trkpt lat="48.468436" lon="-123.904114" />
      <trkpt lat="48.468349" lon="-123.904699" />
      <trkpt lat="48.468187" lon="-123.905051" />
      <trkpt lat="48.468085" lon="-123.90514" />
      <trkpt lat="48.467281" lon="-123.905452" />
      <trkpt lat="48.466133" lon="-123.905856" />
      <trkpt lat="48.4652" lon="-123.905674" />
      <trkpt lat="48.464517" lon="-123.904997" />
      <trkpt lat="48.463749" lon="-123.904449" />
      <trkpt lat="48.462956" lon="-123.904371" />
      <trkpt lat="48.462952" lon="-123.904651" />
      <trkpt lat="48.462925" lon="-123.904914" />
      <trkpt lat="48.462879" lon="-123.905185" />
      <trkpt lat="48.462817" lon="-123.90538" />
      <trkpt lat="48.462727" lon="-123.905544" />
      <trkpt lat="48.462527" lon="-123.905702" />
      <trkpt lat="48.461633" lon="-123.90635" />
      <trkpt lat="48.461486" lon="-123.906598" />
      <trkpt lat="48.461338" lon="-123.907157" />
      <trkpt lat="48.461173" lon="-123.907483" />
      <trkpt lat="48.460851" lon="-123.907656" />
      <trkpt lat="48.460079" lon="-123.907677" />
      <trkpt lat="48.459736" lon="-123.907664" />
      <trkpt lat="48.459421" lon="-123.90778" />
      <trkpt lat="48.45932" lon="-123.907944" />
      <trkpt lat="48.459231" lon="-123.908255" />
      <trkpt lat="48.459233" lon="-123.90845" />
      <trkpt lat="48.458856" lon="-123.908622" />
      <trkpt lat="48.458173" lon="-123.909052" />
      <trkpt lat="48.457805" lon="-123.909299" />
      <trkpt lat="48.457273" lon="-123.909577" />
      <trkpt lat="48.456822" lon="-123.909865" />
      <trkpt lat="48.456425" lon="-123.910203" />
      <trkpt lat="48.45583" lon="-123.910444" />
      <trkpt lat="48.455502" lon="-123.910371" />
      <trkpt lat="48.455122" lon="-123.910423" />
      <trkpt lat="48.454479" lon="-123.910612" />
      <trkpt lat="48.453705" lon="-123.910811" />
      <trkpt lat="48.453154" lon="-123.911026" />
      <trkpt lat="48.452656" lon="-123.911273" />
      <trkpt lat="48.452369" lon="-123.911315" />
      <trkpt lat="48.452023" lon="-123.911049" />
      <trkpt lat="48.451485" lon="-123.910672" />
      <trkpt lat="48.450873" lon="-123.910159" />
      <trkpt lat="48.450574" lon="-123.909454" />
      <trkpt lat="48.450399" lon="-123.908579" />
      <trkpt lat="48.450238" lon="-123.907364" />
      <trkpt lat="48.450147" lon="-123.906176" />
      <trkpt lat="48.450033" lon="-123.90476" />
      <trkpt lat="48.449957" lon="-123.903435" />
      <trkpt lat="48.449622" lon="-123.902293" />
      <trkpt lat="48.449383" lon="-123.901893" />
      <trkpt lat="48.449045" lon="-123.901556" />
      <trkpt lat="48.448607" lon="-123.901185" />
      <trkpt lat="48.44818" lon="-123.900795" />
      <trkpt lat="48.447501" lon="-123.900093" />
      <trkpt lat="48.446778" lon="-123.899556" />
      <trkpt lat="48.446573" lon="-123.899415" />
      <trkpt lat="48.445913" lon="-123.898869" />
      <trkpt lat="48.445703" lon="-123.898718" />
      <trkpt lat="48.445503" lon="-123.898505" />
      <trkpt lat="48.445252" lon="-123.898165" />
      <trkpt lat="48.444979" lon="-123.897945" />
      <trkpt lat="48.443297" lon="-123.896863" />
      <trkpt lat="48.442493" lon="-123.89621" />
      <trkpt lat="48.44216" lon="-123.895981" />
      <trkpt lat="48.441219" lon="-123.895415" />
      <trkpt lat="48.439927" lon="-123.894632" />
      <trkpt lat="48.438689" lon="-123.893661" />
      <trkpt lat="48.438202" lon="-123.893254" />
      <trkpt lat="48.437863" lon="-123.892799" />
      <trkpt lat="48.437586" lon="-123.892558" />
      <trkpt lat="48.437304" lon="-123.89239" />
      <trkpt lat="48.437067" lon="-123.892302" />
      <trkpt lat="48.436829" lon="-123.892293" />
      <trkpt lat="48.436642" lon="-123.892384" />
      <trkpt lat="48.436447" lon="-123.892521" />
      <trkpt lat="48.436341" lon="-123.892669" />
      <trkpt lat="48.436127" lon="-123.892927" />
      <trkpt lat="48.435993" lon="-123.893007" />
      <trkpt lat="48.435732" lon="-123.893144" />
      <trkpt lat="48.435599" lon="-123.89317" />
      <trkpt lat="48.435505" lon="-123.893148" />
      <trkpt lat="48.435421" lon="-123.893058" />
      <trkpt lat="48.435354" lon="-123.892894" />
      <trkpt lat="48.435335" lon="-123.892653" />
      <trkpt lat="48.435324" lon="-123.89203" />
      <trkpt lat="48.435318" lon="-123.891613" />
      <trkpt lat="48.435251" lon="-123.891409" />
      <trkpt lat="48.43482" lon="-123.890859" />
      <trkpt lat="48.434504" lon="-123.890562" />
      <trkpt lat="48.434106" lon="-123.890383" />
      <trkpt lat="48.433401" lon="-123.890142" />
      <trkpt lat="48.432992" lon="-123.890002" />
      <trkpt lat="48.431935" lon="-123.889552" />
      <trkpt lat="48.431034" lon="-123.889246" />
      <trkpt lat="48.430218" lon="-123.888924" />
      <trkpt lat="48.429478" lon="-123.888495" />
      <trkpt lat="48.428766" lon="-123.887809" />
      <trkpt lat="48.427771" lon="-123.887033" />
      <trkpt lat="48.426835" lon="-123.886389" />
      <trkpt lat="48.426386" lon="-123.886009" />
      <trkpt lat="48.426336" lon="-123.885857" />
      <trkpt lat="48.42627" lon="-123.885657" />
      <trkpt lat="48.425972" lon="-123.884604" />
      <trkpt lat="48.42585" lon="-123.883896" />
      <trkpt lat="48.425815" lon="-123.883342" />
      <trkpt lat="48.425813" lon="-123.88293" />
      <trkpt lat="48.425735" lon="-123.882664" />
      <trkpt lat="48.425594" lon="-123.882564" />
      <trkpt lat="48.425352" lon="-123.882493" />
      <trkpt lat="48.424964" lon="-123.882516" />
      <trkpt lat="48.424343" lon="-123.882637" />
      <trkpt lat="48.423842" lon="-123.882825" />
      <trkpt lat="48.423084" lon="-123.882977" />
      <trkpt lat="48.422497" lon="-123.883121" />
      <trkpt lat="48.422425" lon="-123.883138" />
      <trkpt lat="48.421619" lon="-123.883147" />
      <trkpt lat="48.421016" lon="-123.883329" />
      <trkpt lat="48.420667" lon="-123.883273" />
      <trkpt lat="48.420085" lon="-123.882949" />
      <trkpt lat="48.42" lon="-123.882903" />
      <trkpt lat="48.419384" lon="-123.882609" />
      <trkpt lat="48.41869" lon="-123.882326" />
      <trkpt lat="48.41798" lon="-123.882145" />
      <trkpt lat="48.417771" lon="-123.882102" />
      <trkpt lat="48.417183" lon="-123.881981" />
      <trkpt lat="48.417062" lon="-123.881956" />
      <trkpt lat="48.416578" lon="-123.881801" />
      <trkpt lat="48.416034" lon="-123.881594" />
      <trkpt lat="48.415479" lon="-123.881318" />
      <trkpt lat="48.415454" lon="-123.881305" />
      <trkpt lat="48.414954" lon="-123.881154" />
      <trkpt lat="48.414519" lon="-123.88126" />
      <trkpt lat="48.414142" lon="-123.8814" />
      <trkpt lat="48.413762" lon="-123.88154" />
      <trkpt lat="48.413323" lon="-123.881518" />
      <trkpt lat="48.413223" lon="-123.881492" />
      <trkpt lat="48.412955" lon="-123.881369" />
      <trkpt lat="48.412711" lon="-123.881116" />
      <trkpt lat="48.41224" lon="-123.880389" />
      <trkpt lat="48.411989" lon="-123.880023" />
      <trkpt lat="48.411737" lon="-123.879736" />
      <trkpt lat="48.411489" lon="-123.879408" />
      <trkpt lat="48.41126" lon="-123.879169" />
      <trkpt lat="48.411195" lon="-123.879088" />
      <trkpt lat="48.410908" lon="-123.878921" />
      <trkpt lat="48.410584" lon="-123.878911" />
      <trkpt lat="48.410047" lon="-123.879086" />
      <trkpt lat="48.409896" lon="-123.879095" />
      <trkpt lat="48.409739" lon="-123.879105" />
      <trkpt lat="48.408819" lon="-123.878998" />
      <trkpt lat="48.408616" lon="-123.879025" />
      <trkpt lat="48.408412" lon="-123.879053" />
      <trkpt lat="48.408165" lon="-123.879086" />
      <trkpt lat="48.4078" lon="-123.879022" />
      <trkpt lat="48.407112" lon="-123.878826" />
      <trkpt lat="48.406739" lon="-123.878612" />
      <trkpt lat="48.406604" lon="-123.878463" />
      <trkpt lat="48.406404" lon="-123.878241" />
      <trkpt lat="48.406009" lon="-123.877894" />
      <trkpt lat="48.404965" lon="-123.877318" />
      <trkpt lat="48.404594" lon="-123.877082" />
      <trkpt lat="48.404154" lon="-123.877027" />
      <trkpt lat="48.403554" lon="-123.877044" />
      <trkpt lat="48.403404" lon="-123.877048" />
      <trkpt lat="48.403088" lon="-123.877109" />
      <trkpt lat="48.402868" lon="-123.877137" />
      <trkpt lat="48.402598" lon="-123.877129" />
      <trkpt lat="48.402116" lon="-123.876995" />
      <trkpt lat="48.401694" lon="-123.877025" />
      <trkpt lat="48.401475" lon="-123.877076" />
      <trkpt lat="48.401201" lon="-123.877225" />
      <trkpt lat="48.401013" lon="-123.87732" />
      <trkpt lat="48.400782" lon="-123.877301" />
      <trkpt lat="48.400486" lon="-123.877202" />
      <trkpt lat="48.400193" lon="-123.877034" />
      <trkpt lat="48.399887" lon="-123.876879" />
      <trkpt lat="48.399626" lon="-123.876778" />
      <trkpt lat="48.399376" lon="-123.876671" />
      <trkpt lat="48.399111" lon="-123.876574" />
      <trkpt lat="48.398924" lon="-123.876511" />
      <trkpt lat="48.39873" lon="-123.876446" />
      <trkpt lat="48.398465" lon="-123.876427" />
      <trkpt lat="48.398284" lon="-123.876446" />
      <trkpt lat="48.397961" lon="-123.876556" />
      <trkpt lat="48.397349" lon="-123.876768" />
      <trkpt lat="48.396869" lon="-123.877121" />
      <trkpt lat="48.396302" lon="-123.877657" />
      <trkpt lat="48.396002" lon="-123.877941" />
      <trkpt lat="48.395593" lon="-123.878373" />
      <trkpt lat="48.395438" lon="-123.878507" />
      <trkpt lat="48.395352" lon="-123.8786" />
      <trkpt lat="48.395273" lon="-123.878705" />
      <trkpt lat="48.395474" lon="-123.87895" />
      <trkpt lat="48.395702" lon="-123.879244" />
      <trkpt lat="48.395864" lon="-123.879525" />
      <trkpt lat="48.396045" lon="-123.879925" />
      <trkpt lat="48.396169" lon="-123.880266" />
      <trkpt lat="48.396266" lon="-123.88062" />
      <trkpt lat="48.396335" lon="-123.88097" />
      <trkpt lat="48.396444" lon="-123.881592" />
      <trkpt lat="48.397269" lon="-123.886598" />
      <trkpt lat="48.397587" lon="-123.88857" />
      <trkpt lat="48.397654" lon="-123.889381" />
      <trkpt lat="48.397533" lon="-123.890036" />
      <trkpt lat="48.397319" lon="-123.890679" />
      <trkpt lat="48.397077" lon="-123.891066" />
      <trkpt lat="48.396814" lon="-123.891355" />
      <trkpt lat="48.396521" lon="-123.891467" />
      <trkpt lat="48.396079" lon="-123.89152" />
      <trkpt lat="48.395274" lon="-123.891467" />
      <trkpt lat="48.394776" lon="-123.891392" />
      <trkpt lat="48.394206" lon="-123.891134" />
      <trkpt lat="48.393764" lon="-123.891091" />
      <trkpt lat="48.393244" lon="-123.891488" />
      <trkpt lat="48.392838" lon="-123.892293" />
      <trkpt lat="48.392517" lon="-123.892711" />
      <trkpt lat="48.392175" lon="-123.892808" />
      <trkpt lat="48.391691" lon="-123.892894" />
      <trkpt lat="48.391221" lon="-123.893194" />
      <trkpt lat="48.390501" lon="-123.893301" />
      <trkpt lat="48.389903" lon="-123.89328" />
      <trkpt lat="48.389742" lon="-123.89336" />
      <trkpt lat="48.38956" lon="-123.8935" />
      <trkpt lat="48.389434" lon="-123.893638" />
      <trkpt lat="48.389325" lon="-123.893809" />
      <trkpt lat="48.389236" lon="-123.893989" />
      <trkpt lat="48.389163" lon="-123.894219" />
      <trkpt lat="48.389115" lon="-123.894484" />
      <trkpt lat="48.389094" lon="-123.894669" />
      <trkpt lat="48.38909" lon="-123.894888" />
      <trkpt lat="48.38911" lon="-123.89503" />
      <trkpt lat="48.389141" lon="-123.895215" />
      <trkpt lat="48.389256" lon="-123.895664" />
      <trkpt lat="48.390031" lon="-123.8976" />
      <trkpt lat="48.39021" lon="-123.898297" />
      <trkpt lat="48.39021" lon="-123.89923" />
      <trkpt lat="48.390081" lon="-123.900153" />
      <trkpt lat="48.389888" lon="-123.900919" />
      <trkpt lat="48.389625" lon="-123.901895" />
      <trkpt lat="48.389283" lon="-123.902893" />
      <trkpt lat="48.389214" lon="-123.903348" />
      <trkpt lat="48.389164" lon="-123.903806" />
      <trkpt lat="48.389159" lon="-123.904086" />
      <trkpt lat="48.389154" lon="-123.90433" />
      <trkpt lat="48.38915" lon="-123.904915" />
      <trkpt lat="48.389191" lon="-123.905807" />
      <trkpt lat="48.389358" lon="-123.90683" />
      <trkpt lat="48.389711" lon="-123.908994" />
      <trkpt lat="48.390562" lon="-123.912557" />
      <trkpt lat="48.390665" lon="-123.913029" />
      <trkpt lat="48.390725" lon="-123.91338" />
      <trkpt lat="48.390765" lon="-123.913717" />
      <trkpt lat="48.390795" lon="-123.914153" />
      <trkpt lat="48.390809" lon="-123.914569" />
      <trkpt lat="48.390853" lon="-123.916234" />
      <trkpt lat="48.390875" lon="-123.917048" />
      <trkpt lat="48.390897" lon="-123.917694" />
      <trkpt lat="48.390907" lon="-123.918071" />
      <trkpt lat="48.390917" lon="-123.91825" />
      <trkpt lat="48.390932" lon="-123.918438" />
      <trkpt lat="48.390964" lon="-123.91863" />
      <trkpt lat="48.391022" lon="-123.918845" />
      <trkpt lat="48.391106" lon="-123.919045" />
      <trkpt lat="48.391199" lon="-123.919214" />
      <trkpt lat="48.391834" lon="-123.920237" />
      <trkpt lat="48.393266" lon="-123.922351" />
      <trkpt lat="48.393765" lon="-123.923402" />
      <trkpt lat="48.394028" lon="-123.924396" />
      <trkpt lat="48.394299" lon="-123.925698" />
      <trkpt lat="48.394812" lon="-123.929185" />
      <trkpt lat="48.394833" lon="-123.929872" />
      <trkpt lat="48.394818" lon="-123.930601" />
      <trkpt lat="48.394704" lon="-123.931544" />
      <trkpt lat="48.39455" lon="-123.9328" />
      <trkpt lat="48.394242" lon="-123.935351" />
      <trkpt lat="48.394062" lon="-123.936959" />
      <trkpt lat="48.393975" lon="-123.937744" />
      <trkpt lat="48.393919" lon="-123.938347" />
      <trkpt lat="48.393907" lon="-123.93868" />
      <trkpt lat="48.39391" lon="-123.938993" />
      <trkpt lat="48.393923" lon="-123.939202" />
      <trkpt lat="48.393949" lon="-123.939398" />
      <trkpt lat="48.393986" lon="-123.939583" />
      <trkpt lat="48.39404" lon="-123.939762" />
      <trkpt lat="48.394136" lon="-123.940035" />
      <trkpt lat="48.394545" lon="-123.94115" />
      <trkpt lat="48.394793" lon="-123.941816" />
      <trkpt lat="48.395069" lon="-123.942576" />
      <trkpt lat="48.395204" lon="-123.942946" />
      <trkpt lat="48.395264" lon="-123.943087" />
      <trkpt lat="48.395334" lon="-123.943234" />
      <trkpt lat="48.395436" lon="-123.943428" />
      <trkpt lat="48.395575" lon="-123.943652" />
      <trkpt lat="48.395826" lon="-123.944062" />
      <trkpt lat="48.395872" lon="-123.944146" />
      <trkpt lat="48.395977" lon="-123.944357" />
      <trkpt lat="48.396097" lon="-123.944647" />
      <trkpt lat="48.396233" lon="-123.945023" />
      <trkpt lat="48.396684" lon="-123.946598" />
      <trkpt lat="48.396925" lon="-123.94772" />
      <trkpt lat="48.39705" lon="-123.948366" />
      <trkpt lat="48.397348" lon="-123.949817" />
      <trkpt lat="48.397419" lon="-123.950621" />
      <trkpt lat="48.397383" lon="-123.951587" />
      <trkpt lat="48.397306" lon="-123.952461" />
      <trkpt lat="48.397254" lon="-123.953674" />
      <trkpt lat="48.397253" lon="-123.953744" />
      <trkpt lat="48.39722" lon="-123.955964" />
      <trkpt lat="48.397213" lon="-123.956135" />
      <trkpt lat="48.397205" lon="-123.956376" />
      <trkpt lat="48.397141" lon="-123.956758" />
      <trkpt lat="48.397049" lon="-123.957252" />
      <trkpt lat="48.396928" lon="-123.95774" />
      <trkpt lat="48.396715" lon="-123.958394" />
      <trkpt lat="48.396315" lon="-123.959333" />
      <trkpt lat="48.39613" lon="-123.959979" />
      <trkpt lat="48.395947" lon="-123.961181" />
      <trkpt lat="48.39569" lon="-123.962843" />
      <trkpt lat="48.395631" lon="-123.963764" />
      <trkpt lat="48.395632" lon="-123.964923" />
      <trkpt lat="48.395617" lon="-123.966253" />
      <trkpt lat="48.395622" lon="-123.967409" />
      <trkpt lat="48.395611" lon="-123.968267" />
      <trkpt lat="48.395614" lon="-123.96925" />
      <trkpt lat="48.395595" lon="-123.970341" />
      <trkpt lat="48.395604" lon="-123.971286" />
      <trkpt lat="48.395574" lon="-123.971676" />
      <trkpt lat="48.395511" lon="-123.971912" />
      <trkpt lat="48.395309" lon="-123.972353" />
      <trkpt lat="48.39522" lon="-123.972675" />
      <trkpt lat="48.395165" lon="-123.973087" />
      <trkpt lat="48.395192" lon="-123.97343" />
      <trkpt lat="48.395322" lon="-123.974051" />
      <trkpt lat="48.396006" lon="-123.976638" />
      <trkpt lat="48.39617" lon="-123.977286" />
      <trkpt lat="48.396351" lon="-123.978006" />
      <trkpt lat="48.396674" lon="-123.979317" />
      <trkpt lat="48.397509" lon="-123.982686" />
      <trkpt lat="48.3978" lon="-123.983717" />
      <trkpt lat="48.397865" lon="-123.98391" />
      <trkpt lat="48.397921" lon="-123.984047" />
      <trkpt lat="48.398135" lon="-123.984456" />
      <trkpt lat="48.399915" lon="-123.986043" />
      <trkpt lat="48.401828" lon="-123.986897" />
      <trkpt lat="48.402224" lon="-123.987047" />
      <trkpt lat="48.402566" lon="-123.987453" />
      <trkpt lat="48.402842" lon="-123.987819" />
      <trkpt lat="48.403061" lon="-123.988099" />
      <trkpt lat="48.40322" lon="-123.988279" />
      <trkpt lat="48.403379" lon="-123.988449" />
      <trkpt lat="48.403854" lon="-123.988901" />
      <trkpt lat="48.405995" lon="-123.990835" />
      <trkpt lat="48.406611" lon="-123.991602" />
      <trkpt lat="48.407644" lon="-123.993098" />
      <trkpt lat="48.408135" lon="-123.99393" />
      <trkpt lat="48.408395" lon="-123.994418" />
      <trkpt lat="48.40883" lon="-123.995657" />
      <trkpt lat="48.408905" lon="-123.996031" />
      <trkpt lat="48.409122" lon="-123.996981" />
      <trkpt lat="48.409528" lon="-123.999148" />
      <trkpt lat="48.409688" lon="-123.999987" />
      <trkpt lat="48.40988" lon="-124.000921" />
      <trkpt lat="48.409985" lon="-124.00142" />
      <trkpt lat="48.410198" lon="-124.002383" />
      <trkpt lat="48.410271" lon="-124.002755" />
      <trkpt lat="48.410324" lon="-124.003208" />
      <trkpt lat="48.410361" lon="-124.003623" />
      <trkpt lat="48.410346" lon="-124.00409" />
      <trkpt lat="48.410225" lon="-124.004798" />
      <trkpt lat="48.410197" lon="-124.005297" />
      <trkpt lat="48.410247" lon="-124.005705" />
      <trkpt lat="48.410332" lon="-124.006112" />
      <trkpt lat="48.411098" lon="-124.007824" />
      <trkpt lat="48.411685" lon="-124.009143" />
      <trkpt lat="48.411846" lon="-124.009605" />
      <trkpt lat="48.412166" lon="-124.010908" />
      <trkpt lat="48.412529" lon="-124.012024" />
      <trkpt lat="48.413482" lon="-124.013209" />
      <trkpt lat="48.413769" lon="-124.013586" />
      <trkpt lat="48.414087" lon="-124.01398" />
      <trkpt lat="48.414332" lon="-124.014231" />
      <trkpt lat="48.414594" lon="-124.014472" />
      <trkpt lat="48.414856" lon="-124.014718" />
      <trkpt lat="48.41508" lon="-124.014958" />
      <trkpt lat="48.41625" lon="-124.016464" />
      <trkpt lat="48.416986" lon="-124.017313" />
      <trkpt lat="48.417226" lon="-124.01763" />
      <trkpt lat="48.417365" lon="-124.017868" />
      <trkpt lat="48.417486" lon="-124.018059" />
      <trkpt lat="48.4176" lon="-124.018275" />
      <trkpt lat="48.419082" lon="-124.021095" />
      <trkpt lat="48.4176" lon="-124.018275" />
      <trkpt lat="48.417486" lon="-124.018059" />
      <trkpt lat="48.417365" lon="-124.017868" />
      <trkpt lat="48.417226" lon="-124.01763" />
      <trkpt lat="48.416986" lon="-124.017313" />
      <trkpt lat="48.41625" lon="-124.016464" />
      <trkpt lat="48.41508" lon="-124.014958" />
      <trkpt lat="48.414856" lon="-124.014718" />
      <trkpt lat="48.414594" lon="-124.014472" />
      <trkpt lat="48.414332" lon="-124.014231" />
      <trkpt lat="48.414087" lon="-124.01398" />
      <trkpt lat="48.413769" lon="-124.013586" />
      <trkpt lat="48.413482" lon="-124.013209" />
      <trkpt lat="48.412529" lon="-124.012024" />
      <trkpt lat="48.412166" lon="-124.010908" />
      <trkpt lat="48.411846" lon="-124.009605" />
      <trkpt lat="48.411685" lon="-124.009143" />
      <trkpt lat="48.411098" lon="-124.007824" />
      <trkpt lat="48.410332" lon="-124.006112" />
      <trkpt lat="48.410247" lon="-124.005705" />
      <trkpt lat="48.410197" lon="-124.005297" />
      <trkpt lat="48.410225" lon="-124.004798" />
      <trkpt lat="48.410346" lon="-124.00409" />
      <trkpt lat="48.410361" lon="-124.003623" />
      <trkpt lat="48.410324" lon="-124.003208" />
      <trkpt lat="48.410271" lon="-124.002755" />
      <trkpt lat="48.410198" lon="-124.002383" />
      <trkpt lat="48.409985" lon="-124.00142" />
      <trkpt lat="48.40988" lon="-124.000921" />
      <trkpt lat="48.409688" lon="-123.999987" />
      <trkpt lat="48.409528" lon="-123.999148" />
      <trkpt lat="48.409122" lon="-123.996981" />
      <trkpt lat="48.408905" lon="-123.996031" />
      <trkpt lat="48.40883" lon="-123.995657" />
      <trkpt lat="48.408395" lon="-123.994418" />
      <trkpt lat="48.408135" lon="-123.99393" />
      <trkpt lat="48.407644" lon="-123.993098" />
      <trkpt lat="48.406611" lon="-123.991602" />
      <trkpt lat="48.405995" lon="-123.990835" />
      <trkpt lat="48.403854" lon="-123.988901" />
      <trkpt lat="48.403379" lon="-123.988449" />
      <trkpt lat="48.40322" lon="-123.988279" />
      <trkpt lat="48.403061" lon="-123.988099" />
      <trkpt lat="48.402842" lon="-123.987819" />
      <trkpt lat="48.402566" lon="-123.987453" />
      <trkpt lat="48.402224" lon="-123.987047" />
      <trkpt lat="48.401828" lon="-123.986897" />
      <trkpt lat="48.399915" lon="-123.986043" />
      <trkpt lat="48.398135" lon="-123.984456" />
      <trkpt lat="48.397921" lon="-123.984047" />
      <trkpt lat="48.397865" lon="-123.98391" />
      <trkpt lat="48.3978" lon="-123.983717" />
      <trkpt lat="48.397509" lon="-123.982686" />
      <trkpt lat="48.396674" lon="-123.979317" />
      <trkpt lat="48.396351" lon="-123.978006" />
      <trkpt lat="48.39617" lon="-123.977286" />
      <trkpt lat="48.396006" lon="-123.976638" />
      <trkpt lat="48.395322" lon="-123.974051" />
      <trkpt lat="48.395192" lon="-123.97343" />
      <trkpt lat="48.395165" lon="-123.973087" />
      <trkpt lat="48.39522" lon="-123.972675" />
      <trkpt lat="48.395309" lon="-123.972353" />
      <trkpt lat="48.395511" lon="-123.971912" />
      <trkpt lat="48.395574" lon="-123.971676" />
      <trkpt lat="48.395604" lon="-123.971286" />
      <trkpt lat="48.395595" lon="-123.970341" />
      <trkpt lat="48.395614" lon="-123.96925" />
      <trkpt lat="48.395611" lon="-123.968267" />
      <trkpt lat="48.395622" lon="-123.967409" />
      <trkpt lat="48.395617" lon="-123.966253" />
      <trkpt lat="48.395632" lon="-123.964923" />
      <trkpt lat="48.395631" lon="-123.963764" />
      <trkpt lat="48.39569" lon="-123.962843" />
      <trkpt lat="48.395947" lon="-123.961181" />
      <trkpt lat="48.39613" lon="-123.959979" />
      <trkpt lat="48.396315" lon="-123.959333" />
      <trkpt lat="48.396715" lon="-123.958394" />
      <trkpt lat="48.396928" lon="-123.95774" />
      <trkpt lat="48.397049" lon="-123.957252" />
      <trkpt lat="48.397141" lon="-123.956758" />
      <trkpt lat="48.397205" lon="-123.956376" />
      <trkpt lat="48.397213" lon="-123.956135" />
      <trkpt lat="48.39722" lon="-123.955964" />
      <trkpt lat="48.397253" lon="-123.953744" />
      <trkpt lat="48.397254" lon="-123.953674" />
      <trkpt lat="48.397306" lon="-123.952461" />
      <trkpt lat="48.397383" lon="-123.951587" />
      <trkpt lat="48.397419" lon="-123.950621" />
      <trkpt lat="48.397348" lon="-123.949817" />
      <trkpt lat="48.39705" lon="-123.948366" />
      <trkpt lat="48.396925" lon="-123.94772" />
      <trkpt lat="48.396684" lon="-123.946598" />
      <trkpt lat="48.396233" lon="-123.945023" />
      <trkpt lat="48.396097" lon="-123.944647" />
      <trkpt lat="48.395977" lon="-123.944357" />
      <trkpt lat="48.395872" lon="-123.944146" />
      <trkpt lat="48.395826" lon="-123.944062" />
      <trkpt lat="48.395575" lon="-123.943652" />
      <trkpt lat="48.395436" lon="-123.943428" />
      <trkpt lat="48.395334" lon="-123.943234" />
      <trkpt lat="48.395264" lon="-123.943087" />
      <trkpt lat="48.395204" lon="-123.942946" />
      <trkpt lat="48.395069" lon="-123.942576" />
      <trkpt lat="48.394793" lon="-123.941816" />
      <trkpt lat="48.394545" lon="-123.94115" />
      <trkpt lat="48.394136" lon="-123.940035" />
      <trkpt lat="48.39404" lon="-123.939762" />
      <trkpt lat="48.393986" lon="-123.939583" />
      <trkpt lat="48.393949" lon="-123.939398" />
      <trkpt lat="48.393923" lon="-123.939202" />
      <trkpt lat="48.39391" lon="-123.938993" />
      <trkpt lat="48.393907" lon="-123.93868" />
      <trkpt lat="48.393919" lon="-123.938347" />
      <trkpt lat="48.393975" lon="-123.937744" />
      <trkpt lat="48.394062" lon="-123.936959" />
      <trkpt lat="48.394242" lon="-123.935351" />
      <trkpt lat="48.39455" lon="-123.9328" />
      <trkpt lat="48.394704" lon="-123.931544" />
      <trkpt lat="48.394818" lon="-123.930601" />
      <trkpt lat="48.394833" lon="-123.929872" />
      <trkpt lat="48.394812" lon="-123.929185" />
      <trkpt lat="48.394299" lon="-123.925698" />
      <trkpt lat="48.394028" lon="-123.924396" />
      <trkpt lat="48.393765" lon="-123.923402" />
      <trkpt lat="48.393266" lon="-123.922351" />
      <trkpt lat="48.391834" lon="-123.920237" />
      <trkpt lat="48.391199" lon="-123.919214" />
      <trkpt lat="48.391106" lon="-123.919045" />
      <trkpt lat="48.391022" lon="-123.918845" />
      <trkpt lat="48.390964" lon="-123.91863" />
      <trkpt lat="48.390932" lon="-123.918438" />
      <trkpt lat="48.390917" lon="-123.91825" />
      <trkpt lat="48.390907" lon="-123.918071" />
      <trkpt lat="48.390897" lon="-123.917694" />
      <trkpt lat="48.390875" lon="-123.917048" />
      <trkpt lat="48.390853" lon="-123.916234" />
      <trkpt lat="48.390809" lon="-123.914569" />
      <trkpt lat="48.390795" lon="-123.914153" />
      <trkpt lat="48.390765" lon="-123.913717" />
      <trkpt lat="48.390725" lon="-123.91338" />
      <trkpt lat="48.390665" lon="-123.913029" />
      <trkpt lat="48.390562" lon="-123.912557" />
      <trkpt lat="48.389711" lon="-123.908994" />
      <trkpt lat="48.389358" lon="-123.90683" />
      <trkpt lat="48.389191" lon="-123.905807" />
      <trkpt lat="48.38915" lon="-123.904915" />
      <trkpt lat="48.389154" lon="-123.90433" />
      <trkpt lat="48.389159" lon="-123.904086" />
      <trkpt lat="48.389164" lon="-123.903806" />
      <trkpt lat="48.389214" lon="-123.903348" />
      <trkpt lat="48.389283" lon="-123.902893" />
      <trkpt lat="48.389625" lon="-123.901895" />
      <trkpt lat="48.389888" lon="-123.900919" />
      <trkpt lat="48.390081" lon="-123.900153" />
      <trkpt lat="48.39021" lon="-123.89923" />
      <trkpt lat="48.39021" lon="-123.898297" />
      <trkpt lat="48.390031" lon="-123.8976" />
      <trkpt lat="48.389256" lon="-123.895664" />
      <trkpt lat="48.389141" lon="-123.895215" />
      <trkpt lat="48.38911" lon="-123.89503" />
      <trkpt lat="48.38909" lon="-123.894888" />
      <trkpt lat="48.389094" lon="-123.894669" />
      <trkpt lat="48.389115" lon="-123.894484" />
      <trkpt lat="48.389163" lon="-123.894219" />
      <trkpt lat="48.389236" lon="-123.893989" />
      <trkpt lat="48.389325" lon="-123.893809" />
      <trkpt lat="48.389434" lon="-123.893638" />
      <trkpt lat="48.38956" lon="-123.8935" />
      <trkpt lat="48.389742" lon="-123.89336" />
      <trkpt lat="48.389903" lon="-123.89328" />
      <trkpt lat="48.390501" lon="-123.893301" />
      <trkpt lat="48.391221" lon="-123.893194" />
      <trkpt lat="48.391691" lon="-123.892894" />
      <trkpt lat="48.392175" lon="-123.892808" />
      <trkpt lat="48.392517" lon="-123.892711" />
      <trkpt lat="48.392838" lon="-123.892293" />
      <trkpt lat="48.393244" lon="-123.891488" />
      <trkpt lat="48.393764" lon="-123.891091" />
      <trkpt lat="48.394206" lon="-123.891134" />
      <trkpt lat="48.394776" lon="-123.891392" />
      <trkpt lat="48.395274" lon="-123.891467" />
      <trkpt lat="48.396079" lon="-123.89152" />
      <trkpt lat="48.396521" lon="-123.891467" />
      <trkpt lat="48.396814" lon="-123.891355" />
      <trkpt lat="48.397077" lon="-123.891066" />
      <trkpt lat="48.397319" lon="-123.890679" />
      <trkpt lat="48.397533" lon="-123.890036" />
      <trkpt lat="48.397654" lon="-123.889381" />
      <trkpt lat="48.397587" lon="-123.88857" />
      <trkpt lat="48.397269" lon="-123.886598" />
      <trkpt lat="48.396444" lon="-123.881592" />
      <trkpt lat="48.396335" lon="-123.88097" />
      <trkpt lat="48.396266" lon="-123.88062" />
      <trkpt lat="48.396169" lon="-123.880266" />
      <trkpt lat="48.396045" lon="-123.879925" />
      <trkpt lat="48.395864" lon="-123.879525" />
      <trkpt lat="48.395702" lon="-123.879244" />
      <trkpt lat="48.395474" lon="-123.87895" />
      <trkpt lat="48.395273" lon="-123.878705" />
      <trkpt lat="48.395071" lon="-123.878525" />
      <trkpt lat="48.394757" lon="-123.878267" />
      <trkpt lat="48.394415" lon="-123.87799" />
      <trkpt lat="48.393968" lon="-123.877635" />
      <trkpt lat="48.393395" lon="-123.877169" />
      <trkpt lat="48.392665" lon="-123.876578" />
      <trkpt lat="48.390482" lon="-123.874816" />
      <trkpt lat="48.389339" lon="-123.873876" />
      <trkpt lat="48.388101" lon="-123.872902" />
      <trkpt lat="48.386384" lon="-123.871496" />
      <trkpt lat="48.385992" lon="-123.871239" />
      <trkpt lat="48.38526" lon="-123.871007" />
      <trkpt lat="48.385179" lon="-123.870981" />
      <trkpt lat="48.384194" lon="-123.870963" />
      <trkpt lat="48.383016" lon="-123.871" />
      <trkpt lat="48.381319" lon="-123.870952" />
      <trkpt lat="48.381095" lon="-123.870941" />
      <trkpt lat="48.38094" lon="-123.870911" />
      <trkpt lat="48.380785" lon="-123.870857" />
      <trkpt lat="48.380675" lon="-123.870779" />
      <trkpt lat="48.380587" lon="-123.870696" />
      <trkpt lat="48.380512" lon="-123.870599" />
      <trkpt lat="48.380443" lon="-123.870498" />
      <trkpt lat="48.380378" lon="-123.870365" />
      <trkpt lat="48.380317" lon="-123.870227" />
      <trkpt lat="48.380284" lon="-123.870113" />
      <trkpt lat="48.380261" lon="-123.869991" />
      <trkpt lat="48.380244" lon="-123.869875" />
      <trkpt lat="48.380236" lon="-123.869755" />
      <trkpt lat="48.380252" lon="-123.869641" />
      <trkpt lat="48.380279" lon="-123.869537" />
      <trkpt lat="48.38033" lon="-123.869442" />
      <trkpt lat="48.380384" lon="-123.869361" />
      <trkpt lat="48.380648" lon="-123.869081" />
      <trkpt lat="48.380733" lon="-123.868984" />
      <trkpt lat="48.380808" lon="-123.868883" />
      <trkpt lat="48.38094" lon="-123.868622" />
      <trkpt lat="48.381099" lon="-123.868321" />
      <trkpt lat="48.38118" lon="-123.868202" />
      <trkpt lat="48.381273" lon="-123.868096" />
      <trkpt lat="48.381582" lon="-123.867851" />
      <trkpt lat="48.38168" lon="-123.867762" />
      <trkpt lat="48.381806" lon="-123.86763" />
      <trkpt lat="48.381916" lon="-123.867494" />
      <trkpt lat="48.382083" lon="-123.867266" />
      <trkpt lat="48.382259" lon="-123.866995" />
      <trkpt lat="48.382344" lon="-123.866837" />
      <trkpt lat="48.382423" lon="-123.866641" />
      <trkpt lat="48.382453" lon="-123.866516" />
      <trkpt lat="48.382478" lon="-123.866373" />
      <trkpt lat="48.382494" lon="-123.866227" />
      <trkpt lat="48.3825" lon="-123.866062" />
      <trkpt lat="48.382474" lon="-123.86561" />
      <trkpt lat="48.382404" lon="-123.865118" />
      <trkpt lat="48.382368" lon="-123.864871" />
      <trkpt lat="48.382279" lon="-123.864231" />
      <trkpt lat="48.382265" lon="-123.864141" />
      <trkpt lat="48.382225" lon="-123.863889" />
      <trkpt lat="48.382147" lon="-123.863652" />
      <trkpt lat="48.382042" lon="-123.863476" />
      <trkpt lat="48.381883" lon="-123.863309" />
      <trkpt lat="48.38112" lon="-123.862693" />
      <trkpt lat="48.380763" lon="-123.862455" />
      <trkpt lat="48.380548" lon="-123.862323" />
      <trkpt lat="48.380377" lon="-123.862151" />
      <trkpt lat="48.38022" lon="-123.861851" />
      <trkpt lat="48.380142" lon="-123.861451" />
      <trkpt lat="48.3796" lon="-123.859469" />
      <trkpt lat="48.379222" lon="-123.85772" />
      <trkpt lat="48.378505" lon="-123.854774" />
      <trkpt lat="48.378328" lon="-123.85417" />
      <trkpt lat="48.378218" lon="-123.853794" />
      <trkpt lat="48.377954" lon="-123.853171" />
      <trkpt lat="48.37759" lon="-123.852592" />
      <trkpt lat="48.37717" lon="-123.852109" />
      <trkpt lat="48.37675" lon="-123.851899" />
      <trkpt lat="48.376358" lon="-123.851685" />
      <trkpt lat="48.375837" lon="-123.851496" />
      <trkpt lat="48.375429" lon="-123.851353" />
      <trkpt lat="48.375117" lon="-123.851242" />
      <trkpt lat="48.375" lon="-123.8512" />
      <trkpt lat="48.374909" lon="-123.851168" />
      <trkpt lat="48.374504" lon="-123.850751" />
      <trkpt lat="48.374304" lon="-123.850353" />
      <trkpt lat="48.374171" lon="-123.849908" />
      <trkpt lat="48.37394" lon="-123.847451" />
      <trkpt lat="48.373926" lon="-123.84731" />
      <trkpt lat="48.373777" lon="-123.845728" />
      <trkpt lat="48.373476" lon="-123.843498" />
      <trkpt lat="48.373109" lon="-123.841463" />
      <trkpt lat="48.372978" lon="-123.840984" />
      <trkpt lat="48.372807" lon="-123.84054" />
      <trkpt lat="48.37277" lon="-123.840466" />
      <trkpt lat="48.370709" lon="-123.836295" />
      <trkpt lat="48.370012" lon="-123.835127" />
      <trkpt lat="48.369547" lon="-123.834431" />
      <trkpt lat="48.369227" lon="-123.834049" />
      <trkpt lat="48.367776" lon="-123.832746" />
      <trkpt lat="48.367755" lon="-123.832727" />
      <trkpt lat="48.367283" lon="-123.832337" />
      <trkpt lat="48.366754" lon="-123.831899" />
      <trkpt lat="48.365248" lon="-123.830653" />
      <trkpt lat="48.364676" lon="-123.829866" />
      <trkpt lat="48.363457" lon="-123.828189" />
      <trkpt lat="48.360611" lon="-123.824849" />
      <trkpt lat="48.359997" lon="-123.824128" />
      <trkpt lat="48.359643" lon="-123.823819" />
      <trkpt lat="48.358113" lon="-123.822966" />
      <trkpt lat="48.35794" lon="-123.822721" />
      <trkpt lat="48.357856" lon="-123.822542" />
      <trkpt lat="48.357796" lon="-123.82234" />
      <trkpt lat="48.357749" lon="-123.822047" />
      <trkpt lat="48.35776" lon="-123.821756" />
      <trkpt lat="48.357799" lon="-123.821461" />
      <trkpt lat="48.358439" lon="-123.819416" />
      <trkpt lat="48.358885" lon="-123.817992" />
      <trkpt lat="48.35937" lon="-123.816984" />
      <trkpt lat="48.359681" lon="-123.81646" />
      <trkpt lat="48.359747" lon="-123.816323" />
      <trkpt lat="48.360044" lon="-123.815711" />
      <trkpt lat="48.360232" lon="-123.815206" />
      <trkpt lat="48.360305" lon="-123.814953" />
      <trkpt lat="48.360346" lon="-123.814815" />
      <trkpt lat="48.360518" lon="-123.814071" />
      <trkpt lat="48.360614" lon="-123.813393" />
      <trkpt lat="48.360664" lon="-123.812967" />
      <trkpt lat="48.36069" lon="-123.81274" />
      <trkpt lat="48.361044" lon="-123.810387" />
      <trkpt lat="48.361076" lon="-123.810173" />
      <trkpt lat="48.36114" lon="-123.809752" />
      <trkpt lat="48.361168" lon="-123.809562" />
      <trkpt lat="48.361197" lon="-123.809042" />
      <trkpt lat="48.361206" lon="-123.808884" />
      <trkpt lat="48.361213" lon="-123.807563" />
      <trkpt lat="48.361296" lon="-123.807169" />
      <trkpt lat="48.361916" lon="-123.805595" />
      <trkpt lat="48.362183" lon="-123.805123" />
      <trkpt lat="48.362679" lon="-123.804485" />
      <trkpt lat="48.362719" lon="-123.804414" />
      <trkpt lat="48.362892" lon="-123.804111" />
      <trkpt lat="48.363058" lon="-123.803709" />
      <trkpt lat="48.363145" lon="-123.803399" />
      <trkpt lat="48.363269" lon="-123.802156" />
      <trkpt lat="48.36321" lon="-123.801116" />
      <trkpt lat="48.363232" lon="-123.800822" />
      <trkpt lat="48.363496" lon="-123.800014" />
      <trkpt lat="48.363686" lon="-123.799433" />
      <trkpt lat="48.364345" lon="-123.798335" />
      <trkpt lat="48.364623" lon="-123.797648" />
      <trkpt lat="48.364749" lon="-123.797339" />
      <trkpt lat="48.364963" lon="-123.796895" />
      <trkpt lat="48.365132" lon="-123.796623" />
      <trkpt lat="48.36594" lon="-123.795324" />
      <trkpt lat="48.366101" lon="-123.794962" />
      <trkpt lat="48.366185" lon="-123.794592" />
      <trkpt lat="48.366211" lon="-123.794475" />
      <trkpt lat="48.366224" lon="-123.794334" />
      <trkpt lat="48.366243" lon="-123.794121" />
      <trkpt lat="48.366209" lon="-123.793633" />
      <trkpt lat="48.366091" lon="-123.793059" />
      <trkpt lat="48.365763" lon="-123.791816" />
      <trkpt lat="48.365724" lon="-123.791666" />
      <trkpt lat="48.365266" lon="-123.789831" />
      <trkpt lat="48.365146" lon="-123.788799" />
      <trkpt lat="48.365125" lon="-123.788013" />
      <trkpt lat="48.365184" lon="-123.787124" />
      <trkpt lat="48.365353" lon="-123.786355" />
      <trkpt lat="48.365612" lon="-123.7858" />
      <trkpt lat="48.365733" lon="-123.785581" />
      <trkpt lat="48.365821" lon="-123.785423" />
      <trkpt lat="48.367616" lon="-123.783604" />
      <trkpt lat="48.367915" lon="-123.783102" />
      <trkpt lat="48.36805" lon="-123.782876" />
      <trkpt lat="48.368604" lon="-123.781339" />
      <trkpt lat="48.368722" lon="-123.781165" />
      <trkpt lat="48.369523" lon="-123.780305" />
      <trkpt lat="48.369732" lon="-123.779939" />
      <trkpt lat="48.369943" lon="-123.779387" />
      <trkpt lat="48.370186" lon="-123.777182" />
      <trkpt lat="48.370579" lon="-123.771754" />
      <trkpt lat="48.370665" lon="-123.771137" />
      <trkpt lat="48.371371" lon="-123.768684" />
      <trkpt lat="48.371545" lon="-123.768077" />
      <trkpt lat="48.371735" lon="-123.766799" />
      <trkpt lat="48.371939" lon="-123.765929" />
      <trkpt lat="48.37203" lon="-123.765341" />
      <trkpt lat="48.372072" lon="-123.765068" />
      <trkpt lat="48.372115" lon="-123.764574" />
      <trkpt lat="48.37212" lon="-123.764274" />
      <trkpt lat="48.372121" lon="-123.76424" />
      <trkpt lat="48.372125" lon="-123.763974" />
      <trkpt lat="48.372084" lon="-123.763279" />
      <trkpt lat="48.37195" lon="-123.761862" />
      <trkpt lat="48.371931" lon="-123.761109" />
      <trkpt lat="48.371926" lon="-123.760927" />
      <trkpt lat="48.371968" lon="-123.760125" />
      <trkpt lat="48.372185" lon="-123.758563" />
      <trkpt lat="48.372388" lon="-123.755418" />
      <trkpt lat="48.372463" lon="-123.753396" />
      <trkpt lat="48.372554" lon="-123.750995" />
      <trkpt lat="48.3725" lon="-123.750559" />
      <trkpt lat="48.372423" lon="-123.750256" />
      <trkpt lat="48.372393" lon="-123.7502" />
      <trkpt lat="48.372285" lon="-123.75" />
      <trkpt lat="48.372268" lon="-123.749969" />
      <trkpt lat="48.371384" lon="-123.748899" />
      <trkpt lat="48.371085" lon="-123.748527" />
      <trkpt lat="48.370992" lon="-123.748409" />
      <trkpt lat="48.370667" lon="-123.747994" />
      <trkpt lat="48.370471" lon="-123.747732" />
      <trkpt lat="48.369474" lon="-123.746148" />
      <trkpt lat="48.368254" lon="-123.744177" />
      <trkpt lat="48.367749" lon="-123.74335" />
      <trkpt lat="48.367636" lon="-123.743173" />
      <trkpt lat="48.367506" lon="-123.742971" />
      <trkpt lat="48.366696" lon="-123.741904" />
      <trkpt lat="48.366394" lon="-123.741506" />
      <trkpt lat="48.366166" lon="-123.741077" />
      <trkpt lat="48.365945" lon="-123.740551" />
      <trkpt lat="48.365816" lon="-123.739853" />
      <trkpt lat="48.365745" lon="-123.739017" />
      <trkpt lat="48.365724" lon="-123.738351" />
      <trkpt lat="48.365723" lon="-123.737808" />
      <trkpt lat="48.365771" lon="-123.737301" />
      <trkpt lat="48.365987" lon="-123.736132" />
      <trkpt lat="48.36614" lon="-123.735256" />
      <trkpt lat="48.366192" lon="-123.735032" />
      <trkpt lat="48.366337" lon="-123.734639" />
      <trkpt lat="48.36651" lon="-123.734325" />
      <trkpt lat="48.366617" lon="-123.734093" />
      <trkpt lat="48.366654" lon="-123.734014" />
      <trkpt lat="48.366752" lon="-123.733724" />
      <trkpt lat="48.367003" lon="-123.732821" />
      <trkpt lat="48.367104" lon="-123.732476" />
      <trkpt lat="48.367282" lon="-123.731998" />
      <trkpt lat="48.367449" lon="-123.731485" />
      <trkpt lat="48.367648" lon="-123.731099" />
      <trkpt lat="48.367891" lon="-123.730788" />
      <trkpt lat="48.368151" lon="-123.730522" />
      <trkpt lat="48.368853" lon="-123.72986" />
      <trkpt lat="48.369258" lon="-123.729491" />
      <trkpt lat="48.370099" lon="-123.728724" />
      <trkpt lat="48.370422" lon="-123.729676" />
    </trkseg>
  </trk>
</gpx>
