<?xml version="1.0" encoding="UTF-8"?>
<gpx version="1.1"
  creator="BC Backroads research map"
  xmlns="http://www.topografix.com/GPX/1/1"
  xmlns:xsi="http://www.w3.org/2001/XMLSchema-instance"
  xmlns:bcbr="https://konradstaniszewski.com/ns/bc-backroads/1"
  xsi:schemaLocation="http://www.topografix.com/GPX/1/1 http://www.topografix.com/GPX/1/1/gpx.xsd">
  <metadata>
    <name>VI-21 · Walker Lake / San Juan Ridge</name>
    <desc>Historic Shawnigan-area loop with an easier mainline and a washed-out advanced alternative. Coarse corridor geometry; not a turn-by-turn track. Verify land access, closures, gates, weather and field signage.</desc>
    <time>2026-09-09T00:00:00Z</time>
  </metadata>
  <trk>
    <name>Walker Lake / San Juan Ridge</name>
    <type>candidate</type>
    <extensions>
      <bcbr:routeId>VI-21</bcbr:routeId>
      <bcbr:geometryPolicy>link-only</bcbr:geometryPolicy>
      <bcbr:geometrySource>Coarse corridor overview</bcbr:geometrySource>
      <bcbr:pointCount>4</bcbr:pointCount>
    </extensions>
    <trkseg>
      <trkpt lat="48.65" lon="-123.62" />
      <trkpt lat="48.7" lon="-123.9" />
      <trkpt lat="48.62" lon="-124.05" />
      <trkpt lat="48.65" lon="-123.62" />
    </trkseg>
  </trk>
</gpx>
