<?xml version="1.0" encoding="UTF-8"?>
<gpx version="1.1"
  creator="BC Backroads research map"
  xmlns="http://www.topografix.com/GPX/1/1"
  xmlns:xsi="http://www.w3.org/2001/XMLSchema-instance"
  xmlns:bcbr="https://konradstaniszewski.com/ns/bc-backroads/1"
  xsi:schemaLocation="http://www.topografix.com/GPX/1/1 http://www.topografix.com/GPX/1/1/gpx.xsd">
  <metadata>
    <name>RI-07 · Whipsaw Trail</name>
    <desc>Marquee Princeton-area technical overland route with slabs, boulders, mud and creek crossings. Coarse corridor geometry; not a turn-by-turn track. Verify land access, closures, gates, weather and field signage.</desc>
    <time>2026-09-09T00:00:00Z</time>
  </metadata>
  <trk>
    <name>Whipsaw Trail</name>
    <type>candidate</type>
    <extensions>
      <bcbr:routeId>RI-07</bcbr:routeId>
      <bcbr:geometryPolicy>link-only</bcbr:geometryPolicy>
      <bcbr:geometrySource>Coarse corridor overview</bcbr:geometrySource>
      <bcbr:pointCount>4</bcbr:pointCount>
    </extensions>
    <trkseg>
      <trkpt lat="49.46" lon="-120.51" />
      <trkpt lat="49.39" lon="-120.72" />
      <trkpt lat="49.32" lon="-120.86" />
      <trkpt lat="49.28" lon="-120.64" />
    </trkseg>
  </trk>
</gpx>
