<?xml version="1.0" encoding="UTF-8"?>
<gpx version="1.1"
  creator="BC Backroads research map"
  xmlns="http://www.topografix.com/GPX/1/1"
  xmlns:xsi="http://www.w3.org/2001/XMLSchema-instance"
  xmlns:bcbr="https://konradstaniszewski.com/ns/bc-backroads/1"
  xsi:schemaLocation="http://www.topografix.com/GPX/1/1 http://www.topografix.com/GPX/1/1/gpx.xsd">
  <metadata>
    <name>VI-18 · Whiskey Creek ORV area</name>
    <desc>Flowing central-Island singletrack with a kids’ track and steeper options; not a loaded ADV route. Coarse corridor geometry; not a turn-by-turn track. Verify land access, closures, gates, weather and field signage.</desc>
    <time>2026-09-09T00:00:00Z</time>
  </metadata>
  <trk>
    <name>Whiskey Creek ORV area</name>
    <type>trail-system</type>
    <extensions>
      <bcbr:routeId>VI-18</bcbr:routeId>
      <bcbr:geometryPolicy>overview</bcbr:geometryPolicy>
      <bcbr:geometrySource>Coarse corridor overview</bcbr:geometrySource>
      <bcbr:pointCount>4</bcbr:pointCount>
    </extensions>
    <trkseg>
      <trkpt lat="49.32" lon="-124.49" />
      <trkpt lat="49.35" lon="-124.45" />
      <trkpt lat="49.32" lon="-124.41" />
      <trkpt lat="49.32" lon="-124.49" />
    </trkseg>
  </trk>
</gpx>
