<?xml version="1.0" encoding="UTF-8"?>
<gpx version="1.1"
  creator="BC Backroads research map"
  xmlns="http://www.topografix.com/GPX/1/1"
  xmlns:xsi="http://www.w3.org/2001/XMLSchema-instance"
  xmlns:bcbr="https://konradstaniszewski.com/ns/bc-backroads/1"
  xsi:schemaLocation="http://www.topografix.com/GPX/1/1 http://www.topografix.com/GPX/1/1/gpx.xsd">
  <metadata>
    <name>VI-07 · Woss–Port Alice via Atluck</name>
    <desc>The hardest main VIGL stage, with fist-sized gravel and remote cliff-side lake roads. Coarse corridor geometry; not a turn-by-turn track. Verify land access, closures, gates, weather and field signage.</desc>
    <time>2026-09-09T00:00:00Z</time>
  </metadata>
  <trk>
    <name>Woss–Port Alice via Atluck</name>
    <type>primary</type>
    <extensions>
      <bcbr:routeId>VI-07</bcbr:routeId>
      <bcbr:geometryPolicy>link-only</bcbr:geometryPolicy>
      <bcbr:geometrySource>Coarse corridor overview</bcbr:geometrySource>
      <bcbr:pointCount>4</bcbr:pointCount>
    </extensions>
    <trkseg>
      <trkpt lat="50.215" lon="-126.599" />
      <trkpt lat="50.3" lon="-126.83" />
      <trkpt lat="50.4" lon="-127.06" />
      <trkpt lat="50.425" lon="-127.487" />
    </trkseg>
  </trk>
</gpx>
